name,address,lng,lat,province,city,area,street_id,uid,detail_info
格日勒阿妈奶茶馆(锡林北路店),回民区锡林北路93号新华广场2楼(近内蒙古电视台),111.673643,40.828223,内蒙古自治区,呼和浩特市,回民区,b533ea4afe0081584f6d4632,b533ea4afe0081584f6d4632,{'tag': '美食;中餐厅'， 'navi_location': {'lng': 111.67384921233， 'lat': 40.828284973991}， 'type': 'cater'， 'detail_url': 'http://api.map.baidu.com/place/detail?uid=b533ea4afe0081584f6d4632&output=html&source=placeapi_v2'， 'price': '72.0'， 'overall_rating': '4.4'， 'comment_num': '200'， 'children': []}
玉泉区格日勒阿妈奶茶馆(大召店),呼和浩特市玉泉区大召西夹道105号附近,111.659189,40.804737,内蒙古自治区,呼和浩特市,玉泉区,None,3819b0a998859f52ebe58276,{'tag': '美食;中餐厅'， 'navi_location': {'lng': 111.65968958459， 'lat': 40.804815481141}， 'type': 'cater'， 'detail_url': 'http://api.map.baidu.com/place/detail?uid=3819b0a998859f52ebe58276&output=html&source=placeapi_v2'， 'price': '63.0'， 'overall_rating': '4.3'， 'comment_num': '156'， 'children': []}
额尔敦涮羊肉(大学西路店),内蒙古自治区呼和浩特市赛罕区大学西路165号,111.693645,40.815468,内蒙古自治区,呼和浩特市,赛罕区,de5695227c2f6994364aae07,de5695227c2f6994364aae07,{'tag': '美食;中餐厅'， 'navi_location': {'lng': 111.69374557715， 'lat': 40.81528058251}， 'type': 'cater'， 'detail_url': 'http://api.map.baidu.com/place/detail?uid=de5695227c2f6994364aae07&output=html&source=placeapi_v2'， 'price': '74.0'， 'overall_rating': '4.8'， 'comment_num': '200'， 'children': []}
清真王维烤羊肉串(便民市场店),内蒙古自治区呼和浩特市回民区后新城道与宽巷子交叉口东北100米,111.662564,40.817359,内蒙古自治区,呼和浩特市,回民区,10caf086c1f37a76f942b29f,10caf086c1f37a76f942b29f,{'tag': '美食;中餐厅'， 'navi_location': {'lng': 111.66238319229， 'lat': 40.817341197123}， 'type': 'cater'， 'detail_url': 'http://api.map.baidu.com/place/detail?uid=10caf086c1f37a76f942b29f&output=html&source=placeapi_v2'， 'price': '43.0'， 'overall_rating': '3.0'， 'comment_num': '19'， 'children': []}
塞上府(兴泰店),新城区乌兰察布西街内蒙古饭店东巷艺术厅南街(近内蒙古饭店东门),111.690653,40.824206,内蒙古自治区,呼和浩特市,新城区,644d6e3051b5f7459868b422,644d6e3051b5f7459868b422,{'tag': '美食;中餐厅'， 'navi_location': {'lng': 111.69033959701， 'lat': 40.824339507187}， 'type': 'cater'， 'detail_url': 'http://api.map.baidu.com/place/detail?uid=644d6e3051b5f7459868b422&output=html&source=placeapi_v2'， 'price': '103.0'， 'overall_rating': '4.2'， 'comment_num': '41'， 'children': []}
敕勒歌全羊涮肉(新华广场店),呼和浩特市回民区乌兰恰特西街与贝尔路北巷交叉路口东北侧(国际大酒店东南侧),111.672293,40.824484,内蒙古自治区,呼和浩特市,回民区,691305232086b111725e8031,691305232086b111725e8031,{'tag': '美食;中餐厅'， 'navi_location': {'lng': 111.6725652975， 'lat': 40.824591755174}， 'type': 'cater'， 'detail_url': 'http://api.map.baidu.com/place/detail?uid=691305232086b111725e8031&output=html&source=placeapi_v2'， 'price': '114.0'， 'overall_rating': '3.8'， 'comment_num': '91'， 'children': []}
德顺源(大盛魁店),五塔寺后街43号,111.663719,40.805971,内蒙古自治区,呼和浩特市,玉泉区,None,68faf16ba6479dcf8a36eebb,{'tag': '美食;中餐厅'， 'navi_location': {'lng': 111.66381206847， 'lat': 40.805658621899}， 'type': 'cater'， 'detail_url': 'http://api.map.baidu.com/place/detail?uid=68faf16ba6479dcf8a36eebb&output=html&source=placeapi_v2'， 'price': '66.0'， 'overall_rating': '3.9'， 'comment_num': '60'， 'children': []}
火焰山自助烧烤涮石板烤肉(新华大街店),内蒙古自治区呼和浩特市回民区中山西路办事处新华西街80号原奥体酒店3楼,111.6679,40.824818,内蒙古自治区,呼和浩特市,回民区,None,30da822e816c31752b3a9f6f,{'tag': '美食;中餐厅'， 'type': 'cater'， 'detail_url': 'http://api.map.baidu.com/place/detail?uid=30da822e816c31752b3a9f6f&output=html&source=placeapi_v2'， 'price': '54.0'， 'overall_rating': '3.7'， 'comment_num': '97'， 'children': []}
德顺源(五塔寺店),呼和浩特市玉泉区五塔寺后街钰景花园商业3-1020号,111.668942,40.805974,内蒙古自治区,呼和浩特市,玉泉区,03e1f4792fc9efb47ab55c6c,03e1f4792fc9efb47ab55c6c,{'tag': '美食;中餐厅'， 'navi_location': {'lng': 111.66922552787， 'lat': 40.805936197866}， 'type': 'cater'， 'detail_url': 'http://api.map.baidu.com/place/detail?uid=03e1f4792fc9efb47ab55c6c&output=html&source=placeapi_v2'， 'price': '58.0'， 'overall_rating': '3.5'， 'comment_num': '34'， 'children': []}
草窝烤鸭(满都海店),内蒙古自治区呼和浩特市新城区乌兰察布西街兴泰御都国际底商,111.694741,40.82419,内蒙古自治区,呼和浩特市,新城区,afa86e78168a420e932ca3a2,afa86e78168a420e932ca3a2,{'tag': '美食;中餐厅'， 'navi_location': {'lng': 111.69469991177， 'lat': 40.82400453505}， 'type': 'cater'， 'detail_url': 'http://api.map.baidu.com/place/detail?uid=afa86e78168a420e932ca3a2&output=html&source=placeapi_v2'， 'price': '114.0'， 'overall_rating': '4.3'， 'comment_num': '69'， 'children': []}
源玺源烧麦馆(地质局北街店),呼和浩特市赛罕区东达广场3号楼,111.68513,40.817909,内蒙古自治区,呼和浩特市,赛罕区,f448b7e0d0fbcdf86e20b9d0,f448b7e0d0fbcdf86e20b9d0,{'tag': '美食;中餐厅'， 'type': 'cater'， 'detail_url': 'http://api.map.baidu.com/place/detail?uid=f448b7e0d0fbcdf86e20b9d0&output=html&source=placeapi_v2'， 'price': '25.0'， 'overall_rating': '4.6'， 'comment_num': '78'， 'children': []}
丛林狼酱骨头(人民路店),呼和浩特市赛罕区人民路与永光巷交叉路口往东南约50米(书香门第),111.687867,40.809639,内蒙古自治区,呼和浩特市,赛罕区,78ad15e4d368d8f61e1d11f2,78ad15e4d368d8f61e1d11f2,{'tag': '美食;中餐厅'， 'navi_location': {'lng': 111.68761585835， 'lat': 40.809544084588}， 'type': 'cater'， 'detail_url': 'http://api.map.baidu.com/place/detail?uid=78ad15e4d368d8f61e1d11f2&output=html&source=placeapi_v2'， 'price': '33.0'， 'overall_rating': '4.1'， 'comment_num': '8'， 'children': []}
小厨大爱(万锦店),锡林南路万锦枫泽湾1号商业楼101、102,111.690798,40.779204,内蒙古自治区,呼和浩特市,玉泉区,9787f20e923c7cffc4f50d27,9787f20e923c7cffc4f50d27,{'tag': '美食;中餐厅'， 'navi_location': {'lng': 111.69042390388， 'lat': 40.779348100251}， 'type': 'cater'， 'detail_url': 'http://api.map.baidu.com/place/detail?uid=9787f20e923c7cffc4f50d27&output=html&source=placeapi_v2'， 'price': '64.0'， 'overall_rating': '4.3'， 'comment_num': '33'， 'children': []}
老字号白老大羊杂碎烧麦,呼和浩特市回民区宽巷子与中山西路交叉路口往西约100米(祥和一区),111.664697,40.816395,内蒙古自治区,呼和浩特市,回民区,56f2f696a60a08990aa8d430,56f2f696a60a08990aa8d430,{'tag': '美食;中餐厅'， 'type': 'cater'， 'detail_url': 'http://api.map.baidu.com/place/detail?uid=56f2f696a60a08990aa8d430&output=html&source=placeapi_v2'， 'price': '29.0'， 'overall_rating': '4.2'， 'comment_num': '61'， 'children': []}
鸿恩楼饭店,内蒙古自治区呼和浩特市回民区中山西路富邦商厦B座(文化宫街与中山西路交汇处),111.669619,40.81777,内蒙古自治区,呼和浩特市,回民区,1eeed546602edff1b5147fc8,1eeed546602edff1b5147fc8,{'tag': '美食;中餐厅'， 'navi_location': {'lng': 111.66964334503， 'lat': 40.818048799349}， 'type': 'cater'， 'detail_url': 'http://api.map.baidu.com/place/detail?uid=1eeed546602edff1b5147fc8&output=html&source=placeapi_v2'， 'price': '50.0'， 'overall_rating': '3.9'， 'comment_num': '200'， 'children': []}
吉祥斋火锅城(文化宫街店),呼和浩特市回民区文化宫街28号院,111.670334,40.821045,内蒙古自治区,呼和浩特市,回民区,024bce1ca1e50e1015c90575,024bce1ca1e50e1015c90575,{'tag': '美食;中餐厅'， 'navi_location': {'lng': 111.67022674595， 'lat': 40.820933818675}， 'type': 'cater'， 'detail_url': 'http://api.map.baidu.com/place/detail?uid=024bce1ca1e50e1015c90575&output=html&source=placeapi_v2'， 'price': '68.0'， 'overall_rating': '4.1'， 'comment_num': '19'， 'children': []}
草原熙来顺(人民路店),呼和浩特市赛罕区人民路28号,111.683599,40.818254,内蒙古自治区,呼和浩特市,赛罕区,cc0849a032b01a4994031932,cc0849a032b01a4994031932,{'tag': '美食;中餐厅'， 'navi_location': {'lng': 111.68337345248， 'lat': 40.818154346699}， 'type': 'cater'， 'detail_url': 'http://api.map.baidu.com/place/detail?uid=cc0849a032b01a4994031932&output=html&source=placeapi_v2'， 'price': '74.0'， 'overall_rating': '4.2'， 'comment_num': '118'， 'children': []}
呷哺呷哺(呼市维多利店),呼和浩特市回民区中山西路1号维多利海亮广场6层,111.676099,40.821034,内蒙古自治区,呼和浩特市,回民区,2854eeb091d5ca010bf5ebcb,2854eeb091d5ca010bf5ebcb,{'tag': '美食;中餐厅'， 'navi_location': {'lng': 111.67518762735， 'lat': 40.820709949067}， 'type': 'cater'， 'detail_url': 'http://api.map.baidu.com/place/detail?uid=2854eeb091d5ca010bf5ebcb&output=html&source=placeapi_v2'， 'price': '66.0'， 'overall_rating': '4.8'， 'comment_num': '126'， 'children': []}
好再来稍美馆,内蒙古自治区呼和浩特市赛罕区四千米南巷,111.691058,40.816659,内蒙古自治区,呼和浩特市,赛罕区,f743f4081aaed6aaa11de9cd,f743f4081aaed6aaa11de9cd,{'tag': '美食;中餐厅'， 'type': 'cater'， 'detail_url': 'http://api.map.baidu.com/place/detail?uid=f743f4081aaed6aaa11de9cd&output=html&source=placeapi_v2'， 'price': '37.0'， 'overall_rating': '4.7'， 'comment_num': '4'， 'children': []}
鸿烨楼总店,中山西路东四巷心月小区,111.665924,40.814021,内蒙古自治区,呼和浩特市,玉泉区,f44609186f95d273b11e3635,f44609186f95d273b11e3635,{'tag': '美食;中餐厅'， 'navi_location': {'lng': 111.6656138708， 'lat': 40.814101907133}， 'type': 'cater'， 'detail_url': 'http://api.map.baidu.com/place/detail?uid=f44609186f95d273b11e3635&output=html&source=placeapi_v2'， 'price': '42.0'， 'overall_rating': '4.6'， 'comment_num': '200'， 'children': []}
火果果锅王,石羊桥路十字路口西北角(近石羊桥路),111.674648,40.80081,内蒙古自治区,呼和浩特市,玉泉区,1eeed546b63dedebb5147f36,1eeed546b63dedebb5147f36,{'tag': '美食;中餐厅'， 'navi_location': {'lng': 111.67503997287， 'lat': 40.80089540695}， 'type': 'cater'， 'detail_url': 'http://api.map.baidu.com/place/detail?uid=1eeed546b63dedebb5147f36&output=html&source=placeapi_v2'， 'price': '70.0'， 'overall_rating': '3.6'， 'comment_num': '46'， 'children': []}
一岁羊星月坊(中餐店),内蒙古自治区呼和浩特市回民区牛街大牵手KTV南100米对过,111.655701,40.821381,内蒙古自治区,呼和浩特市,回民区,30167863ac5cc42522f017eb,30167863ac5cc42522f017eb,{'tag': '美食;中餐厅'， 'navi_location': {'lng': 111.65622740556， 'lat': 40.821239379964}， 'type': 'cater'， 'detail_url': 'http://api.map.baidu.com/place/detail?uid=30167863ac5cc42522f017eb&output=html&source=placeapi_v2'， 'price': '56.0'， 'overall_rating': '4.3'， 'comment_num': '53'， 'children': []}
永永大盘鸡(牛街店),内蒙古自治区呼和浩特市回民区牛街幸福家园二期北侧,111.65672,40.818535,内蒙古自治区,呼和浩特市,回民区,None,c344fb6a2bcdfd46c929150d,{'tag': '美食;中餐厅'， 'navi_location': {'lng': 111.65688760531， 'lat': 40.818577856703}， 'type': 'cater'， 'detail_url': 'http://api.map.baidu.com/place/detail?uid=c344fb6a2bcdfd46c929150d&output=html&source=placeapi_v2'， 'price': '53.0'， 'overall_rating': '3.8'， 'comment_num': '24'， 'children': []}
富朗车仔港式茶餐厅(三中店),呼和浩特市新城区粮饷府街与鼓楼立交桥交叉路口向西南约50米(呼和浩特市实验中学),111.696232,40.827797,内蒙古自治区,呼和浩特市,新城区,4fc3161ace5df1a93a13fd11,4fc3161ace5df1a93a13fd11,{'tag': '美食;小吃快餐店'， 'type': 'cater'， 'detail_url': 'http://api.map.baidu.com/place/detail?uid=4fc3161ace5df1a93a13fd11&output=html&source=placeapi_v2'， 'price': '58.0'， 'overall_rating': '4.5'， 'comment_num': '46'， 'children': []}
辣员外重庆老火锅(中山路店),内蒙古自治区呼和浩特市回民区中山西路办事处中山西路青城A号楼,111.668153,40.8149,内蒙古自治区,呼和浩特市,回民区,e729c68696c4cf6e2902e1c3,0999aedf40841ecd4c776e1e,{'tag': '美食;中餐厅'， 'navi_location': {'lng': 111.66769317946， 'lat': 40.815058585939}， 'type': 'cater'， 'detail_url': 'http://api.map.baidu.com/place/detail?uid=0999aedf40841ecd4c776e1e&output=html&source=placeapi_v2'， 'price': '111.0'， 'overall_rating': '4.3'， 'comment_num': '173'， 'children': []}
楚田辣丫头(中山店),中山西路青城华府二楼,111.667818,40.815176,内蒙古自治区,呼和浩特市,回民区,6fddd7fd7fe66b663417dc87,6fddd7fd7fe66b663417dc87,{'tag': '美食;中餐厅'， 'navi_location': {'lng': 111.66755131456， 'lat': 40.815243684713}， 'type': 'cater'， 'detail_url': 'http://api.map.baidu.com/place/detail?uid=6fddd7fd7fe66b663417dc87&output=html&source=placeapi_v2'， 'price': '98.0'， 'overall_rating': '3.8'， 'comment_num': '79'， 'children': []}
九田家果木烤肉(海亮店),锡林郭勒南路海亮广场E座5层第五街区美食城内,111.677051,40.820313,内蒙古自治区,呼和浩特市,回民区,2685f87b09af70cf01294f1a,2685f87b09af70cf01294f1a,{'tag': '美食;外国餐厅'， 'type': 'cater'， 'detail_url': 'http://api.map.baidu.com/place/detail?uid=2685f87b09af70cf01294f1a&output=html&source=placeapi_v2'， 'price': '100.0'， 'overall_rating': '4.1'， 'comment_num': '79'， 'children': []}
伊克奈尔宫,赛罕区水上公园北街8号(近皮革厂),111.693633,40.793853,内蒙古自治区,呼和浩特市,赛罕区,026083a8320e5974364aae4b,026083a8320e5974364aae4b,{'tag': '美食;中餐厅'， 'navi_location': {'lng': 111.69386255， 'lat': 40.794348723976}， 'type': 'cater'， 'detail_url': 'http://api.map.baidu.com/place/detail?uid=026083a8320e5974364aae4b&output=html&source=placeapi_v2'， 'price': '131.0'， 'overall_rating': '4.5'， 'comment_num': '27'， 'children': []}
同盛民肴,内蒙古自治区呼和浩特市回民区通道南街7号楼,111.662366,40.821597,内蒙古自治区,呼和浩特市,回民区,d12f706c005f39ab0e3ddab0,d12f706c005f39ab0e3ddab0,{'tag': '美食;中餐厅'， 'navi_location': {'lng': 111.66216701507， 'lat': 40.821589209619}， 'type': 'cater'， 'detail_url': 'http://api.map.baidu.com/place/detail?uid=d12f706c005f39ab0e3ddab0&output=html&source=placeapi_v2'， 'price': '57.0'， 'overall_rating': '4.0'， 'comment_num': '47'， 'children': []}
额尔敦涮羊肉(海亮店),内蒙古自治区呼和浩特市回民区中山西路海亮金宝街,111.67575,40.819578,内蒙古自治区,呼和浩特市,回民区,d5523d86dbb83d63b5147fb1,d5523d86dbb83d63b5147fb1,{'tag': '美食;中餐厅'， 'type': 'cater'， 'detail_url': 'http://api.map.baidu.com/place/detail?uid=d5523d86dbb83d63b5147fb1&output=html&source=placeapi_v2'， 'price': '90.0'， 'overall_rating': '4.6'， 'comment_num': '200'， 'children': []}
三千浦餐饮(石羊桥店),呼和浩特市玉泉区石羊桥东路2号,111.676823,40.801403,内蒙古自治区,呼和浩特市,玉泉区,38e48037f839ce50373a7133,38e48037f839ce50373a7133,{'tag': '美食;中餐厅'， 'navi_location': {'lng': 111.676927549， 'lat': 40.801220164487}， 'type': 'cater'， 'detail_url': 'http://api.map.baidu.com/place/detail?uid=38e48037f839ce50373a7133&output=html&source=placeapi_v2'， 'price': '53.0'， 'overall_rating': '4.1'， 'comment_num': '58'， 'children': []}
福都脊骨王(石羊桥总店),内蒙古自治区呼和浩特市玉泉区鄂尔多斯大街51号,111.673853,40.800497,内蒙古自治区,呼和浩特市,玉泉区,b48ad72dfc05ca93a3acc482,b48ad72dfc05ca93a3acc482,{'tag': '美食;中餐厅'， 'navi_location': {'lng': 111.6741217124， 'lat': 40.800514313663}， 'type': 'cater'， 'detail_url': 'http://api.map.baidu.com/place/detail?uid=b48ad72dfc05ca93a3acc482&output=html&source=placeapi_v2'， 'price': '95.0'， 'overall_rating': '4.1'， 'comment_num': '136'， 'children': []}
老百姓饭馆(前进巷),内蒙古自治区呼和浩特市赛罕区前进巷161号,111.697049,40.809643,内蒙古自治区,呼和浩特市,赛罕区,d974088fe16f1624f82d611a,d974088fe16f1624f82d611a,{'tag': '美食;中餐厅'， 'navi_location': {'lng': 111.69716142697， 'lat': 40.809766932485}， 'type': 'cater'， 'detail_url': 'http://api.map.baidu.com/place/detail?uid=d974088fe16f1624f82d611a&output=html&source=placeapi_v2'， 'price': '27.0'， 'overall_rating': '3.9'， 'comment_num': '17'， 'children': []}
新雅轩(通道南路店),内蒙古自治区呼和浩特市回民区通道南街56号,111.661315,40.817973,内蒙古自治区,呼和浩特市,回民区,7d5f3a0a71746f522cb90833,7d5f3a0a71746f522cb90833,{'tag': '美食;中餐厅'， 'navi_location': {'lng': 111.66150631586， 'lat': 40.817955108186}， 'type': 'cater'， 'detail_url': 'http://api.map.baidu.com/place/detail?uid=7d5f3a0a71746f522cb90833&output=html&source=placeapi_v2'， 'price': '50.0'， 'overall_rating': '3.7'， 'comment_num': '13'， 'children': []}
浩翔酒店(玉泉店),内蒙古自治区呼和浩特市玉泉区鄂尔多斯大街80号,111.655246,40.79919,内蒙古自治区,呼和浩特市,玉泉区,dcbc85bf1392e481223bf237,dcbc85bf1392e481223bf237,{'tag': '美食;中餐厅'， 'navi_location': {'lng': 111.65530258387， 'lat': 40.79949070443}， 'type': 'cater'， 'detail_url': 'http://api.map.baidu.com/place/detail?uid=dcbc85bf1392e481223bf237&output=html&source=placeapi_v2'， 'price': '57.0'， 'overall_rating': '4.6'， 'comment_num': '200'， 'children': []}
鑫海汇海鲜烤肉火锅自助(七彩城店),石羊桥路与大学西街交汇处西北角七彩城购物中心F4层,111.670189,40.809078,内蒙古自治区,呼和浩特市,回民区,d95e8c031dcd6a6e4f3a5924,d95e8c031dcd6a6e4f3a5924,{'tag': '美食;中餐厅'， 'navi_location': {'lng': 111.67077436736， 'lat': 40.809256976006}， 'type': 'cater'， 'detail_url': 'http://api.map.baidu.com/place/detail?uid=d95e8c031dcd6a6e4f3a5924&output=html&source=placeapi_v2'， 'price': '59.0'， 'overall_rating': '3.6'， 'comment_num': '149'， 'children': []}
那些花儿音乐主题聚会餐厅,锡林郭勒南路海亮二期花生小镇三楼,111.677053,40.820715,内蒙古自治区,呼和浩特市,回民区,None,beb52e6beba07b35ee74f874,{'tag': '美食;中餐厅'， 'type': 'cater'， 'detail_url': 'http://api.map.baidu.com/place/detail?uid=beb52e6beba07b35ee74f874&output=html&source=placeapi_v2'， 'price': '99.0'， 'overall_rating': '4.6'， 'comment_num': '52'， 'children': []}
海世界大张烤鸭店,内蒙古自治区呼和浩特市玉泉区锡林南路万锦枫泽湾商业1号楼,111.689763,40.778742,内蒙古自治区,呼和浩特市,玉泉区,ca6629a7f9bddf2ae215f9e8,ca6629a7f9bddf2ae215f9e8,{'tag': '美食;中餐厅'， 'navi_location': {'lng': 111.6892916913， 'lat': 40.778937303224}， 'type': 'cater'， 'detail_url': 'http://api.map.baidu.com/place/detail?uid=ca6629a7f9bddf2ae215f9e8&output=html&source=placeapi_v2'， 'price': '67.0'， 'overall_rating': '4.3'， 'comment_num': '15'， 'children': []}
金凤凰大酒店(公园店),大学西街公园南路10号(公园南门对面),111.675473,40.809691,内蒙古自治区,呼和浩特市,玉泉区,69fcd6df85040036ca291537,69fcd6df85040036ca291537,{'tag': '美食;中餐厅'， 'navi_location': {'lng': 111.67536478218， 'lat': 40.809795990317}， 'type': 'cater'， 'detail_url': 'http://api.map.baidu.com/place/detail?uid=69fcd6df85040036ca291537&output=html&source=placeapi_v2'， 'price': '88.0'， 'overall_rating': '4.4'， 'comment_num': '33'， 'children': []}
袁记串串香,石羊桥路与五塔东街十字路口北20米路东,111.67311,40.805209,内蒙古自治区,呼和浩特市,玉泉区,None,ebdbd541dacce755acee7a6f,{'tag': '美食;中餐厅'， 'navi_location': {'lng': 111.67298426449， 'lat': 40.805286294242}， 'type': 'cater'， 'detail_url': 'http://api.map.baidu.com/place/detail?uid=ebdbd541dacce755acee7a6f&output=html&source=placeapi_v2'， 'price': '52.0'， 'overall_rating': '4.1'， 'comment_num': '10'， 'children': []}
金凤凰大酒店(公园店),大学西街公园南路10号(公园南门对面),111.675473,40.809691,内蒙古自治区,呼和浩特市,玉泉区,69fcd6df85040036ca291537,69fcd6df85040036ca291537,{'tag': '美食;中餐厅'， 'navi_location': {'lng': 111.67536478218， 'lat': 40.809795990317}， 'type': 'cater'， 'detail_url': 'http://api.map.baidu.com/place/detail?uid=69fcd6df85040036ca291537&output=html&source=placeapi_v2'， 'price': '88.0'， 'overall_rating': '4.4'， 'comment_num': '33'， 'children': []}
袁记串串香,石羊桥路与五塔东街十字路口北20米路东,111.67311,40.805209,内蒙古自治区,呼和浩特市,玉泉区,None,ebdbd541dacce755acee7a6f,{'tag': '美食;中餐厅'， 'navi_location': {'lng': 111.67298426449， 'lat': 40.805286294242}， 'type': 'cater'， 'detail_url': 'http://api.map.baidu.com/place/detail?uid=ebdbd541dacce755acee7a6f&output=html&source=placeapi_v2'， 'price': '52.0'， 'overall_rating': '4.1'， 'comment_num': '10'， 'children': []}
泽成美食(南柴火市街),呼和浩特市玉泉区印象江南北门,111.654888,40.801502,内蒙古自治区,呼和浩特市,玉泉区,593ec03df6807a81e507386e,593ec03df6807a81e507386e,{'tag': '美食;中餐厅'， 'navi_location': {'lng': 111.65471651857， 'lat': 40.80168132064}， 'type': 'cater'， 'detail_url': 'http://api.map.baidu.com/place/detail?uid=593ec03df6807a81e507386e&output=html&source=placeapi_v2'， 'price': '79.0'， 'overall_rating': '4.2'， 'comment_num': '50'， 'children': []}
麦当劳(中山东路餐厅),中山东路8号波士名人国际B座1层,111.684631,40.828001,内蒙古自治区,呼和浩特市,新城区,b533ea4a8a56f5584f6d4618,b533ea4a8a56f5584f6d4618,{'tag': '美食;小吃快餐店'， 'navi_location': {'lng': 111.68427695738， 'lat': 40.828301964174}， 'type': 'cater'， 'detail_url': 'http://api.map.baidu.com/place/detail?uid=b533ea4a8a56f5584f6d4618&output=html&source=placeapi_v2'， 'price': '27.0'， 'overall_rating': '4.8'， 'comment_num': '121'， 'children': []}
京宝老北京铜锅涮,内蒙古自治区呼和浩特市新城区聚龙昌街28号(玛拉沁饭店往南300米路东),111.690953,40.829069,内蒙古自治区,呼和浩特市,新城区,78bd50f747192e2631870a7c,78bd50f747192e2631870a7c,{'tag': '美食;中餐厅'， 'type': 'cater'， 'detail_url': 'http://api.map.baidu.com/place/detail?uid=78bd50f747192e2631870a7c&output=html&source=placeapi_v2'， 'price': '34.0'， 'overall_rating': '4.2'， 'comment_num': '65'， 'children': []}
川把式串串香(呼和浩特大召店),大西街1号商铺川把式串串香大召店,111.657912,40.809853,内蒙古自治区,呼和浩特市,玉泉区,c1b2054d397026a0b04c4957,c1b2054d397026a0b04c4957,{'tag': '美食;中餐厅'， 'navi_location': {'lng': 111.6579873583， 'lat': 40.810031164452}， 'type': 'cater'， 'detail_url': 'http://api.map.baidu.com/place/detail?uid=c1b2054d397026a0b04c4957&output=html&source=placeapi_v2'， 'price': '53.0'， 'overall_rating': '4.6'， 'comment_num': '52'， 'children': []}
刘一口回旋自助火锅(海亮地下摩尔街店),呼和浩特市回民区海亮广场b1层地下摩尔街上海街段,111.675612,40.820345,内蒙古自治区,呼和浩特市,回民区,e64a91b5fee0a843734b8795,e64a91b5fee0a843734b8795,{'tag': '美食;中餐厅'， 'type': 'cater'， 'detail_url': 'http://api.map.baidu.com/place/detail?uid=e64a91b5fee0a843734b8795&output=html&source=placeapi_v2'， 'price': '36.0'， 'overall_rating': '3.6'， 'comment_num': '122'， 'children': []}
快乐518火锅(中山西路店),中山西路61号新亚太商厦2楼,111.668927,40.816469,内蒙古自治区,呼和浩特市,回民区,3a383c8153386897246e985e,3a383c8153386897246e985e,{'tag': '美食;中餐厅'， 'navi_location': {'lng': 111.66907345912， 'lat': 40.816425391164}， 'type': 'cater'， 'detail_url': 'http://api.map.baidu.com/place/detail?uid=3a383c8153386897246e985e&output=html&source=placeapi_v2'， 'price': '50.0'， 'overall_rating': '4.6'， 'comment_num': '200'， 'children': []}
不老神鸡(人民路店),人民路21号,111.681939,40.820679,内蒙古自治区,呼和浩特市,新城区,2fc81e40d61bef0a0d3ddae5,2fc81e40d61bef0a0d3ddae5,{'tag': '美食;中餐厅'， 'navi_location': {'lng': 111.68204731909， 'lat': 40.820864356283}， 'type': 'cater'， 'detail_url': 'http://api.map.baidu.com/place/detail?uid=2fc81e40d61bef0a0d3ddae5&output=html&source=placeapi_v2'， 'price': '31.0'， 'overall_rating': '4.6'， 'comment_num': '111'， 'children': []}
德顺源烧麦(观音庙店),内蒙古自治区呼和浩特市玉泉区史家巷东侧世源商城A区105号,111.661802,40.799373,内蒙古自治区,呼和浩特市,玉泉区,783b0b9f1d68dfa83b221c6f,783b0b9f1d68dfa83b221c6f,{'tag': '美食;中餐厅'， 'navi_location': {'lng': 111.6615902149， 'lat': 40.79991579882}， 'type': 'cater'， 'detail_url': 'http://api.map.baidu.com/place/detail?uid=783b0b9f1d68dfa83b221c6f&output=html&source=placeapi_v2'， 'price': '35.0'， 'overall_rating': '4.6'， 'comment_num': '50'， 'children': []}
九田家果木烤肉(味来城店),呼和浩特市赛罕区鄂尔多斯大街与人民路交叉路口往西约100米(金宇广场A座),111.688734,40.804312,内蒙古自治区,呼和浩特市,赛罕区,ce92a7fe88791325cc06a47a,ce92a7fe88791325cc06a47a,{'tag': '美食;外国餐厅'， 'type': 'cater'， 'detail_url': 'http://api.map.baidu.com/place/detail?uid=ce92a7fe88791325cc06a47a&output=html&source=placeapi_v2'， 'price': '102.0'， 'overall_rating': '4.0'， 'comment_num': '52'， 'children': []}
辣喔诱火锅(海亮店),回民区中山西路海亮百货五层L5-049号,111.67604,40.820089,内蒙古自治区,呼和浩特市,回民区,1e3092c0146c315614b54bb2,1e3092c0146c315614b54bb2,{'tag': '美食;中餐厅'， 'navi_location': {'lng': 111.67767660195， 'lat': 40.820499394369}， 'type': 'cater'， 'detail_url': 'http://api.map.baidu.com/place/detail?uid=1e3092c0146c315614b54bb2&output=html&source=placeapi_v2'， 'price': '91.0'， 'overall_rating': '4.0'， 'comment_num': '100'， 'children': []}
寂寞的豆芽(石羊桥店),内蒙古自治区呼和浩特市玉泉区鄂尔多斯大街与石羊桥路交叉口北,111.674819,40.800816,内蒙古自治区,呼和浩特市,玉泉区,1692ae6a4a368f8e246e989c,1692ae6a4a368f8e246e989c,{'tag': '美食;其他'， 'navi_location': {'lng': 111.67495929156， 'lat': 40.800997838502}， 'type': 'cater'， 'detail_url': 'http://api.map.baidu.com/place/detail?uid=1692ae6a4a368f8e246e989c&output=html&source=placeapi_v2'， 'price': '102.0'， 'overall_rating': '4.4'， 'comment_num': '95'， 'children': []}
味芝树牛排烤肉自助(海亮店),海亮广场5层,111.676913,40.820923,内蒙古自治区,呼和浩特市,回民区,52d3ae12e5933b803517dcdc,52d3ae12e5933b803517dcdc,{'tag': '美食;外国餐厅'， 'type': 'cater'， 'detail_url': 'http://api.map.baidu.com/place/detail?uid=52d3ae12e5933b803517dcdc&output=html&source=placeapi_v2'， 'price': '60.0'， 'overall_rating': '3.5'， 'comment_num': '140'， 'children': []}
满都拉宾馆-餐饮部,呼和浩特市玉泉区锡林郭勒南路与永光巷交叉路口西北侧(满都拉宾馆),111.683233,40.809351,内蒙古自治区,呼和浩特市,玉泉区,fc8640fb82760fc7d3ff234d,fc8640fb82760fc7d3ff234d,{'tag': '美食;中餐厅'， 'type': 'cater'， 'detail_url': 'http://api.map.baidu.com/place/detail?uid=fc8640fb82760fc7d3ff234d&output=html&source=placeapi_v2'， 'price': '61.0'， 'overall_rating': '4.7'， 'comment_num': '82'， 'children': []}
胡椒记烤肉,内蒙古自治区呼和浩特市回民区公园西路100号沁园公寓1号楼商业11-1号,111.668247,40.813784,内蒙古自治区,呼和浩特市,回民区,None,c106da8bf0fc3e91fa0cad97,{'tag': '美食;其他'， 'navi_location': {'lng': 111.66845067199， 'lat': 40.813851367502}， 'type': 'cater'， 'detail_url': 'http://api.map.baidu.com/place/detail?uid=c106da8bf0fc3e91fa0cad97&output=html&source=placeapi_v2'， 'price': '83.0'， 'overall_rating': '4.4'， 'comment_num': '81'， 'children': []}
王记饺子楼(石羊桥店),呼和浩特市玉泉区鄂尔多斯大街与石羊桥路交叉路口往东约50米(内蒙古食全食美石羊桥批发市场),111.676254,40.800622,内蒙古自治区,呼和浩特市,玉泉区,d0b8923fd7c843fbb5f42f30,d0b8923fd7c843fbb5f42f30,{'tag': '美食;小吃快餐店'， 'navi_location': {'lng': 111.67626731961， 'lat': 40.800848234986}， 'type': 'cater'， 'detail_url': 'http://api.map.baidu.com/place/detail?uid=d0b8923fd7c843fbb5f42f30&output=html&source=placeapi_v2'， 'price': '54.0'， 'overall_rating': '4.4'， 'comment_num': '20'， 'children': []}
噃茄树铜锅涮肉,中山西路街道中山西路艾博伊和宫5号底商番茄树铜锅涮,111.663282,40.814779,内蒙古自治区,呼和浩特市,回民区,1cf3419f9c893b63c5effba8,1cf3419f9c893b63c5effba8,{'tag': '美食;中餐厅'， 'type': 'cater'， 'detail_url': 'http://api.map.baidu.com/place/detail?uid=1cf3419f9c893b63c5effba8&output=html&source=placeapi_v2'， 'price': '107.0'， 'overall_rating': '4.3'， 'comment_num': '53'， 'children': []}
不老神鸡(郊区店),内蒙古自治区呼和浩特市赛罕区新建西街50号,111.69095,40.808929,内蒙古自治区,呼和浩特市,赛罕区,34164c6c0879ad3ae812e405,34164c6c0879ad3ae812e405,{'tag': '美食;中餐厅'， 'type': 'cater'， 'detail_url': 'http://api.map.baidu.com/place/detail?uid=34164c6c0879ad3ae812e405&output=html&source=placeapi_v2'， 'price': '31.0'， 'overall_rating': '4.7'， 'comment_num': '91'， 'children': []}
炎天下铜锅涮,小北街2号,111.658459,40.810458,内蒙古自治区,呼和浩特市,玉泉区,c358204a8ee6790fa80dd8cb,c358204a8ee6790fa80dd8cb,{'tag': '美食;中餐厅'， 'navi_location': {'lng': 111.65865483186， 'lat': 40.810457365245}， 'type': 'cater'， 'detail_url': 'http://api.map.baidu.com/place/detail?uid=c358204a8ee6790fa80dd8cb&output=html&source=placeapi_v2'， 'price': '20.0'， 'overall_rating': '4.7'， 'comment_num': '56'， 'children': []}
豆牛氏豆皮涮牛肚(海亮店),海亮广场5楼第五街区美食城内,111.676421,40.820443,内蒙古自治区,呼和浩特市,回民区,None,af7e6a76dcb6130894ec841b,{'tag': '美食;中餐厅'， 'type': 'cater'， 'detail_url': 'http://api.map.baidu.com/place/detail?uid=af7e6a76dcb6130894ec841b&output=html&source=placeapi_v2'， 'price': '59.0'， 'overall_rating': '4.0'， 'comment_num': '145'， 'children': []}
大红山(史家巷),史家巷天福商场后面世源小区1-5-403大红山饭店,111.66198,40.798813,内蒙古自治区,呼和浩特市,玉泉区,5c2dc21d5b465a796fc02c38,5c2dc21d5b465a796fc02c38,{'tag': '美食;中餐厅'， 'type': 'cater'， 'detail_url': 'http://api.map.baidu.com/place/detail?uid=5c2dc21d5b465a796fc02c38&output=html&source=placeapi_v2'， 'price': '56.0'， 'overall_rating': '4.2'， 'comment_num': '49'， 'children': []}
江巴人重庆市井火锅,内蒙古自治区呼和浩特市回民区公园西路26号,111.668636,40.813987,内蒙古自治区,呼和浩特市,回民区,None,80490c02dda524a48bfc0657,{'tag': '美食;中餐厅'， 'type': 'cater'， 'detail_url': 'http://api.map.baidu.com/place/detail?uid=80490c02dda524a48bfc0657&output=html&source=placeapi_v2'， 'price': '62.0'， 'overall_rating': '4.1'， 'comment_num': '73'， 'children': []}
猪肚鸡(南二环店),内蒙古自治区呼和浩特市玉泉区南二环路辅路,111.675194,40.785292,内蒙古自治区,呼和浩特市,玉泉区,None,79d564158b26cddff7b916c2,{'tag': '美食;中餐厅'， 'type': 'cater'， 'detail_url': 'http://api.map.baidu.com/place/detail?uid=79d564158b26cddff7b916c2&output=html&source=placeapi_v2'， 'price': '50.0'， 'overall_rating': '4.2'， 'comment_num': '92'， 'children': []}
王婆大虾(海亮店),中山西路海亮广场时尚摩尔地下街上海街,111.675396,40.820271,内蒙古自治区,呼和浩特市,回民区,None,34ebb2ae214696b6d22dd67b,{'tag': '美食;中餐厅'， 'type': 'cater'， 'detail_url': 'http://api.map.baidu.com/place/detail?uid=34ebb2ae214696b6d22dd67b&output=html&source=placeapi_v2'， 'price': '52.0'， 'overall_rating': '4.0'， 'comment_num': '69'， 'children': []}
香宫(呼和浩特香格里拉大酒店),内蒙古呼和浩特市锡林郭勒南路5号,111.679236,40.816635,内蒙古自治区,呼和浩特市,回民区,a7c56ee055e339aaa3acc435,a7c56ee055e339aaa3acc435,{'tag': '美食;中餐厅'， 'navi_location': {'lng': 111.67930199684， 'lat': 40.816501060709}， 'type': 'cater'， 'detail_url': 'http://api.map.baidu.com/place/detail?uid=a7c56ee055e339aaa3acc435&output=html&source=placeapi_v2'， 'price': '121.0'， 'overall_rating': '4.6'， 'comment_num': '121'， 'children': []}
硬货海鲜饭(海亮店),回民区中山西路海亮广场6楼(姑奶奶旁),111.676701,40.821755,内蒙古自治区,呼和浩特市,回民区,60b778b5f62d38f296ec8443,60b778b5f62d38f296ec8443,{'tag': '美食;中餐厅'， 'navi_location': {'lng': 111.67518762735， 'lat': 40.820709949067}， 'type': 'cater'， 'detail_url': 'http://api.map.baidu.com/place/detail?uid=60b778b5f62d38f296ec8443&output=html&source=placeapi_v2'， 'price': '94.0'， 'overall_rating': '4.6'， 'comment_num': '135'， 'children': []}
戈壁牛羊(金宝街店),海亮广场金宝街3楼66号,111.673925,40.820214,内蒙古自治区,呼和浩特市,回民区,73e99d7c080f2323c4f50d66,73e99d7c080f2323c4f50d66,{'tag': '美食;中餐厅'， 'type': 'cater'， 'detail_url': 'http://api.map.baidu.com/place/detail?uid=73e99d7c080f2323c4f50d66&output=html&source=placeapi_v2'， 'price': '80.0'， 'overall_rating': '4.2'， 'comment_num': '156'， 'children': []}
吉野家(海亮店),呼和浩特市 中山西路1号 海亮广场负1层,111.675333,40.820563,内蒙古自治区,呼和浩特市,回民区,ed2d04813ab64f5b9e95de55,ed2d04813ab64f5b9e95de55,{'tag': '美食;小吃快餐店'， 'type': 'cater'， 'detail_url': 'http://api.map.baidu.com/place/detail?uid=ed2d04813ab64f5b9e95de55&output=html&source=placeapi_v2'， 'price': '26.0'， 'overall_rating': '4.3'， 'comment_num': '186'， 'children': []}
文三酒肆居酒屋,内蒙古自治区呼和浩特市新城区乌兰察布西街亚朵酒店一楼东侧底商,111.694346,40.824081,内蒙古自治区,呼和浩特市,新城区,None,e42a991081050265f503b882,{'tag': '美食;外国餐厅'， 'navi_location': {'lng': 111.69439482466， 'lat': 40.823922161912}， 'type': 'cater'， 'detail_url': 'http://api.map.baidu.com/place/detail?uid=e42a991081050265f503b882&output=html&source=placeapi_v2'， 'price': '165.0'， 'overall_rating': '4.0'， 'comment_num': '47'， 'children': []}
分米鸡DMChicken(海亮店),呼和浩特市回民区中山西路海亮广场5楼,111.676311,40.820255,内蒙古自治区,呼和浩特市,回民区,None,a50aae56240a1e2de7e965e2,{'tag': '美食;外国餐厅'， 'navi_location': {'lng': 111.67518762735， 'lat': 40.820709949067}， 'type': 'cater'， 'detail_url': 'http://api.map.baidu.com/place/detail?uid=a50aae56240a1e2de7e965e2&output=html&source=placeapi_v2'， 'price': '77.0'， 'overall_rating': '4.6'， 'comment_num': '127'， 'children': []}
清真白记铁锅炖,内蒙古自治区呼和浩特市回民区银河小区附近,111.656222,40.817365,内蒙古自治区,呼和浩特市,回民区,4ad308377833b56b21022001,4ad308377833b56b21022001,{'tag': '美食;中餐厅'， 'type': 'cater'， 'detail_url': 'http://api.map.baidu.com/place/detail?uid=4ad308377833b56b21022001&output=html&source=placeapi_v2'， 'price': '50.0'， 'overall_rating': '4.3'， 'comment_num': '200'， 'children': []}
德克士(南茶坊维多利餐厅),内蒙古自治区呼和浩特市玉泉区鄂尔多斯大街南茶坊维多利超市一层,111.66547,40.797432,内蒙古自治区,呼和浩特市,玉泉区,5f8ffbbf352d16e5c27da2ef,5f8ffbbf352d16e5c27da2ef,{'tag': '美食;小吃快餐店'， 'navi_location': {'lng': 111.66526815972， 'lat': 40.797744567705}， 'type': 'cater'， 'detail_url': 'http://api.map.baidu.com/place/detail?uid=5f8ffbbf352d16e5c27da2ef&output=html&source=placeapi_v2'， 'price': '45.0'， 'overall_rating': '4.5'， 'comment_num': '78'， 'children': []}
呼和浩特和萌牛肠烧烤店(兴泰御都店),内蒙古自治区呼和浩特市新城区乌兰察布西街30号,111.691885,40.823235,内蒙古自治区,呼和浩特市,新城区,fe800364d463c75deedfca1a,fe800364d463c75deedfca1a,{'tag': '美食;其他'， 'navi_location': {'lng': 111.69191020065， 'lat': 40.823040673893}， 'type': 'cater'， 'detail_url': 'http://api.map.baidu.com/place/detail?uid=fe800364d463c75deedfca1a&output=html&source=placeapi_v2'， 'price': '155.0'， 'overall_rating': '4.3'， 'comment_num': '90'， 'children': []}
德克士(呼市附院餐厅),内蒙古自治区呼和浩特市回民区通道北路青城驿站一层,111.661751,40.826109,内蒙古自治区,呼和浩特市,回民区,c91966508d4afcc7badf8f17,c91966508d4afcc7badf8f17,{'tag': '美食;小吃快餐店'， 'type': 'cater'， 'detail_url': 'http://api.map.baidu.com/place/detail?uid=c91966508d4afcc7badf8f17&output=html&source=placeapi_v2'， 'price': '25.0'， 'overall_rating': '5.0'， 'comment_num': '75'， 'children': []}
吉野家(锡林郭勒南路店),呼和浩特市赛罕区鄂尔多斯大街26号凯德MALL·赛罕F2,111.68737,40.802919,内蒙古自治区,呼和浩特市,赛罕区,8eb48fa1310b29bff32d8330,8eb48fa1310b29bff32d8330,{'tag': '美食;小吃快餐店'， 'navi_location': {'lng': 111.68699306404， 'lat': 40.803093159686}， 'indoor_floor': 'F2'， 'type': 'cater'， 'detail_url': 'http://api.map.baidu.com/place/detail?uid=8eb48fa1310b29bff32d8330&output=html&source=placeapi_v2'， 'price': '30.0'， 'overall_rating': '4.3'， 'comment_num': '47'， 'children': []}
好利来(金地商城店),内蒙古自治区呼和浩特市赛罕区邮电小区邮电楼,111.693726,40.810076,内蒙古自治区,呼和浩特市,赛罕区,b52972dfb585f76ef5c59c5b,b52972dfb585f76ef5c59c5b,{'tag': '美食;蛋糕甜品店'， 'navi_location': {'lng': 111.6938891632， 'lat': 40.809975102231}， 'type': 'cater'， 'detail_url': 'http://api.map.baidu.com/place/detail?uid=b52972dfb585f76ef5c59c5b&output=html&source=placeapi_v2'， 'price': '30.0'， 'overall_rating': '4.0'， 'comment_num': '47'， 'children': []}
煲仔歌肴(海亮店),中山西路办事处海亮广场A座六楼,111.676618,40.821171,内蒙古自治区,呼和浩特市,回民区,517dbf4aaa5a1a4500ec01b5,517dbf4aaa5a1a4500ec01b5,{'tag': '美食;中餐厅'， 'type': 'cater'， 'detail_url': 'http://api.map.baidu.com/place/detail?uid=517dbf4aaa5a1a4500ec01b5&output=html&source=placeapi_v2'， 'price': '58.0'， 'overall_rating': '4.0'， 'comment_num': '59'， 'children': []}
比格比萨(凯德MALL店),呼和浩特市赛罕区鄂尔多斯大街26号凯德MALL·赛罕F4,111.687454,40.803169,内蒙古自治区,呼和浩特市,赛罕区,441b9c29bf7316799a005037,441b9c29bf7316799a005037,{'tag': '美食;外国餐厅'， 'navi_location': {'lng': 111.68699306404， 'lat': 40.803093159686}， 'indoor_floor': 'F4'， 'type': 'cater'， 'detail_url': 'http://api.map.baidu.com/place/detail?uid=441b9c29bf7316799a005037&output=html&source=placeapi_v2'， 'price': '62.0'， 'overall_rating': '4.5'， 'comment_num': '200'， 'children': []}
意林(中山西路店),中山西路办事处中山西路43号人才首府市场西侧,111.665561,40.815061,内蒙古自治区,呼和浩特市,回民区,e116be54592ddd62c91b9534,9fbfeef23dbcca45ede4a50c,{'tag': '美食;蛋糕甜品店'， 'type': 'cater'， 'detail_url': 'http://api.map.baidu.com/place/detail?uid=9fbfeef23dbcca45ede4a50c&output=html&source=placeapi_v2'， 'price': '15.0'， 'overall_rating': '4.2'， 'comment_num': '14'， 'children': []}
麦当劳(金宝街餐厅),呼和浩特市回民区金宝街F1-28号,111.675136,40.820147,内蒙古自治区,呼和浩特市,回民区,e8f8a78d0979aa17d81318ac,e8f8a78d0979aa17d81318ac,{'tag': '美食;小吃快餐店'， 'navi_location': {'lng': 111.67403000619， 'lat': 40.81974543561}， 'type': 'cater'， 'detail_url': 'http://api.map.baidu.com/place/detail?uid=e8f8a78d0979aa17d81318ac&output=html&source=placeapi_v2'， 'price': '26.0'， 'overall_rating': '4.9'， 'comment_num': '123'， 'children': []}
麦当劳(呼和浩特天元餐厅),内蒙古自治区呼和浩特市回民区中山西路98号天元商业大厦一层,111.671384,40.817091,内蒙古自治区,呼和浩特市,回民区,e6852d8bffdcca5125d2bbd1,e6852d8bffdcca5125d2bbd1,{'tag': '美食;小吃快餐店'， 'indoor_floor': 'F1'， 'type': 'cater'， 'detail_url': 'http://api.map.baidu.com/place/detail?uid=e6852d8bffdcca5125d2bbd1&output=html&source=placeapi_v2'， 'price': '25.0'， 'overall_rating': '4.9'， 'comment_num': '50'， 'children': []}
家奥果木牛排(满都海店),新城区书院西街兴泰御都北侧底商1014号，启秀中学斜对面(原三中分校),111.693061,40.825063,内蒙古自治区,呼和浩特市,新城区,None,26e0ae95de9415865d0d0210,{'tag': '美食;外国餐厅'， 'navi_location': {'lng': 111.69311669153， 'lat': 40.825171083212}， 'type': 'cater'， 'detail_url': 'http://api.map.baidu.com/place/detail?uid=26e0ae95de9415865d0d0210&output=html&source=placeapi_v2'， 'price': '168.0'， 'overall_rating': '4.3'， 'comment_num': '48'， 'children': []}
意林(五里营店),内蒙古自治区呼和浩特市玉泉区石羊桥路美华隆小区三号门,111.684187,40.783913,内蒙古自治区,呼和浩特市,玉泉区,eed6deee6e6792e9d6b74ed1,eed6deee6e6792e9d6b74ed1,{'tag': '美食;蛋糕甜品店'， 'navi_location': {'lng': 111.68424742738， 'lat': 40.784018463104}， 'type': 'cater'， 'detail_url': 'http://api.map.baidu.com/place/detail?uid=eed6deee6e6792e9d6b74ed1&output=html&source=placeapi_v2'， 'price': '21.0'， 'overall_rating': '4.2'， 'comment_num': '9'， 'children': []}
年糕小王子(贝尔路店),贝尔路68号,111.672501,40.821969,内蒙古自治区,呼和浩特市,回民区,9ef0355ad9958272ddee8b5e,9ef0355ad9958272ddee8b5e,{'tag': '美食;小吃快餐店'， 'type': 'cater'， 'detail_url': 'http://api.map.baidu.com/place/detail?uid=9ef0355ad9958272ddee8b5e&output=html&source=placeapi_v2'， 'price': '42.0'， 'overall_rating': '4.1'， 'comment_num': '107'， 'children': []}
丁食记,内蒙古自治区呼和浩特市回民区中山西路2号,111.675683,40.820745,内蒙古自治区,呼和浩特市,回民区,None,9f7dfe5c1791161ff423103c,{'tag': '美食;小吃快餐店'， 'type': 'cater'， 'detail_url': 'http://api.map.baidu.com/place/detail?uid=9f7dfe5c1791161ff423103c&output=html&source=placeapi_v2'， 'price': '24.0'， 'overall_rating': '3.9'， 'comment_num': '118'， 'children': []}
德克士(九鹏餐厅),呼和浩特市回民区通道南路九鹏商厦一层,111.660936,40.815342,内蒙古自治区,呼和浩特市,回民区,None,7e371f43078c6c3cc7f02565,{'tag': '美食;小吃快餐店'， 'type': 'cater'， 'detail_url': 'http://api.map.baidu.com/place/detail?uid=7e371f43078c6c3cc7f02565&output=html&source=placeapi_v2'， 'price': '32.0'， 'overall_rating': '4.9'， 'comment_num': '118'， 'children': []}
不如蛋糕DIY烘焙教室,中山西路海亮广场金宝街三楼,111.674479,40.819778,内蒙古自治区,呼和浩特市,回民区,None,d96c62c9f2a634af01294f75,{'tag': '美食;蛋糕甜品店'， 'type': 'cater'， 'detail_url': 'http://api.map.baidu.com/place/detail?uid=d96c62c9f2a634af01294f75&output=html&source=placeapi_v2'， 'price': '151.0'， 'comment_num': '152'， 'children': []}
鲜烤鲜麦面包坊(滨江花园店),玉泉区大西街滨江花园2号楼3单元商铺,111.657124,40.810122,内蒙古自治区,呼和浩特市,玉泉区,56b3c3783d569ec1c7f025b1,56b3c3783d569ec1c7f025b1,{'tag': '美食;蛋糕甜品店'， 'navi_location': {'lng': 111.65719771115， 'lat': 40.810283974989}， 'type': 'cater'， 'detail_url': 'http://api.map.baidu.com/place/detail?uid=56b3c3783d569ec1c7f025b1&output=html&source=placeapi_v2'， 'price': '10.0'， 'overall_rating': '4.6'， 'comment_num': '200'， 'children': []}
洛可可蛋糕店(海亮店),中山西路海亮金宝街三层F377号(小丫辣鸭头东北方向，各电梯口有橙色洛可可方向地标),111.675877,40.819526,内蒙古自治区,呼和浩特市,回民区,None,da6b518ba1df02b6fbdc8503,{'tag': '美食;蛋糕甜品店'， 'type': 'cater'， 'detail_url': 'http://api.map.baidu.com/place/detail?uid=da6b518ba1df02b6fbdc8503&output=html&source=placeapi_v2'， 'price': '43.0'， 'overall_rating': '4.8'， 'comment_num': '195'， 'children': []}
富朗·车仔(凯德MALL店),呼和浩特市赛罕区鄂尔多斯大街26号凯德MALL·赛罕F3,111.687467,40.80353,内蒙古自治区,呼和浩特市,赛罕区,7554cd00a4e73ceb4e6d46aa,7554cd00a4e73ceb4e6d46aa,{'tag': '美食;小吃快餐店'， 'navi_location': {'lng': 111.68699306404， 'lat': 40.803093159686}， 'indoor_floor': 'F3'， 'type': 'cater'， 'detail_url': 'http://api.map.baidu.com/place/detail?uid=7554cd00a4e73ceb4e6d46aa&output=html&source=placeapi_v2'， 'price': '69.0'， 'overall_rating': '4.3'， 'comment_num': '93'， 'children': []}
辛德瑞拉蛋糕(美华隆店),呼和浩特市玉泉区石羊桥南路和南二环交叉路口南100米美华隆小区3段,111.683854,40.784612,内蒙古自治区,呼和浩特市,玉泉区,None,9e71bcc6048eec5bbca822be,{'tag': '美食;蛋糕甜品店'， 'type': 'cater'， 'detail_url': 'http://api.map.baidu.com/place/detail?uid=9e71bcc6048eec5bbca822be&output=html&source=placeapi_v2'， 'price': '48.0'， 'overall_rating': '4.1'， 'comment_num': '52'， 'children': []}
麻辣香汇(凯德MALL店),呼和浩特市赛罕区鄂尔多斯大街26号凯德MALL·赛罕F3,111.687829,40.802954,内蒙古自治区,呼和浩特市,赛罕区,6f6b33e5c964acd4b320a8b9,6f6b33e5c964acd4b320a8b9,{'tag': '美食;小吃快餐店'， 'navi_location': {'lng': 111.68699306404， 'lat': 40.803093159686}， 'indoor_floor': 'F3'， 'type': 'cater'， 'detail_url': 'http://api.map.baidu.com/place/detail?uid=6f6b33e5c964acd4b320a8b9&output=html&source=placeapi_v2'， 'price': '79.0'， 'overall_rating': '3.8'， 'comment_num': '88'， 'children': []}
正新烤鸭脖(嘉茂店),鄂尔多斯大街26号凯德MALL三楼,111.687397,40.803239,内蒙古自治区,呼和浩特市,赛罕区,5733be8462d619ff31f71da1,5733be8462d619ff31f71da1,{'tag': '美食;小吃快餐店'， 'type': 'cater'， 'detail_url': 'http://api.map.baidu.com/place/detail?uid=5733be8462d619ff31f71da1&output=html&source=placeapi_v2'， 'price': '15.0'， 'overall_rating': '4.2'， 'comment_num': '57'， 'children': []}
洛可可烘焙(金园西区店),呼和浩特市回民区光明路金园西区北门底商第五家,111.647088,40.825257,内蒙古自治区,呼和浩特市,回民区,1e29bac53ee259a72b11d121,d60b26bc674ec21fa8059dbd,{'tag': '美食;蛋糕甜品店'， 'type': 'cater'， 'detail_url': 'http://api.map.baidu.com/place/detail?uid=d60b26bc674ec21fa8059dbd&output=html&source=placeapi_v2'， 'price': '32.0'， 'overall_rating': '4.6'， 'comment_num': '78'， 'children': []}
与芳鲜奶(聚隆长街店),内蒙古自治区呼和浩特市新城区关帝庙街7号,111.69086,40.828414,内蒙古自治区,呼和浩特市,新城区,b29f8a3c67a6c38be9f85386,b29f8a3c67a6c38be9f85386,{'tag': '美食;蛋糕甜品店'， 'type': 'cater'， 'detail_url': 'http://api.map.baidu.com/place/detail?uid=b29f8a3c67a6c38be9f85386&output=html&source=placeapi_v2'， 'price': '11.5'， 'overall_rating': '4.6'， 'comment_num': '58'， 'children': []}
麦多馅饼(贝尔路店),呼和浩特市回民区营坊道与文化宫路交叉路口西侧(龙珠公寓),111.669385,40.821687,内蒙古自治区,呼和浩特市,回民区,87e30416ede280ce3ce23148,87e30416ede280ce3ce23148,{'tag': '美食;小吃快餐店'， 'type': 'cater'， 'detail_url': 'http://api.map.baidu.com/place/detail?uid=87e30416ede280ce3ce23148&output=html&source=placeapi_v2'， 'price': '10.0'， 'overall_rating': '4.4'， 'comment_num': '142'， 'children': []}
鲜果时间(凯德MALL店),呼和浩特市赛罕区鄂尔多斯大街26号凯德MALL·赛罕F4,111.687844,40.80301,内蒙古自治区,呼和浩特市,赛罕区,5f9c6ae93218cf2fca09f08a,5f9c6ae93218cf2fca09f08a,{'tag': '美食;蛋糕甜品店'， 'navi_location': {'lng': 111.68699306404， 'lat': 40.803093159686}， 'indoor_floor': 'F4'， 'type': 'cater'， 'detail_url': 'http://api.map.baidu.com/place/detail?uid=5f9c6ae93218cf2fca09f08a&output=html&source=placeapi_v2'， 'price': '12.0'， 'overall_rating': '4.5'， 'comment_num': '58'， 'children': []}
U° COFFEE(呼和浩特总店),乌兰察布西街兴泰锦都酒店1层,111.693978,40.824115,内蒙古自治区,呼和浩特市,新城区,ad4e1c782b440a7472210bf4,ad4e1c782b440a7472210bf4,{'tag': '美食;咖啡厅'， 'navi_location': {'lng': 111.69390380199， 'lat': 40.823631502604}， 'type': 'cater'， 'detail_url': 'http://api.map.baidu.com/place/detail?uid=ad4e1c782b440a7472210bf4&output=html&source=placeapi_v2'， 'price': '70.0'， 'overall_rating': '3.9'， 'comment_num': '19'， 'children': []}
集咖啡,内蒙古自治区呼和浩特市新城区乌兰察布西街63号,111.695481,40.824197,内蒙古自治区,呼和浩特市,新城区,67fc282702549c0ef4b916f7,67fc282702549c0ef4b916f7,{'tag': '美食;咖啡厅'， 'navi_location': {'lng': 111.69385417241， 'lat': 40.823814227899}， 'type': 'cater'， 'detail_url': 'http://api.map.baidu.com/place/detail?uid=67fc282702549c0ef4b916f7&output=html&source=placeapi_v2'， 'price': '112.0'， 'overall_rating': '4.4'， 'comment_num': '64'， 'children': []}
星巴克(民族商场店),呼和浩特市中山西路7号民族商场一楼,111.673847,40.820285,内蒙古自治区,呼和浩特市,回民区,f2cbca4ce3f713f6b2077d3c,f2cbca4ce3f713f6b2077d3c,{'tag': '美食;咖啡厅'， 'navi_location': {'lng': 111.67434349415， 'lat': 40.820173679697}， 'indoor_floor': 'F1'， 'type': 'cater'， 'detail_url': 'http://api.map.baidu.com/place/detail?uid=f2cbca4ce3f713f6b2077d3c&output=html&source=placeapi_v2'， 'price': '43.0'， 'overall_rating': '4.5'， 'comment_num': '47'， 'children': []}
馨咖啡,锡林郭勒南路5号香格里拉大酒店2层(近中山路),111.678958,40.815545,内蒙古自治区,呼和浩特市,回民区,7524cb4f3b858c2d04026f34,7524cb4f3b858c2d04026f34,{'tag': '美食;咖啡厅'， 'type': 'cater'， 'detail_url': 'http://api.map.baidu.com/place/detail?uid=7524cb4f3b858c2d04026f34&output=html&source=placeapi_v2'， 'price': '178.0'， 'overall_rating': '4.5'， 'comment_num': '133'， 'children': []}
西贝莜面村(大学东路店),大学东街与海景国际大酒店2楼,111.744175,40.827925,内蒙古自治区,呼和浩特市,赛罕区,2a7a25ec60c39a7a6d3e1bb9,2a7a25ec60c39a7a6d3e1bb9,{'tag': '美食;中餐厅'， 'navi_location': {'lng': 111.74422780551， 'lat': 40.827586241693}， 'type': 'cater'， 'detail_url': 'http://api.map.baidu.com/place/detail?uid=2a7a25ec60c39a7a6d3e1bb9&output=html&source=placeapi_v2'， 'price': '94.0'， 'overall_rating': '4.5'， 'comment_num': '62'， 'children': []}
额尔敦(中海店),内蒙古自治区呼和浩特市赛罕区中海银河天街恒大华府1号商铺,111.739405,40.792853,内蒙古自治区,呼和浩特市,赛罕区,0d64a84c2d73e73a9c82ea73,0d64a84c2d73e73a9c82ea73,{'tag': '美食;中餐厅'， 'navi_location': {'lng': 111.7393747585， 'lat': 40.792518375619}， 'type': 'cater'， 'detail_url': 'http://api.map.baidu.com/place/detail?uid=0d64a84c2d73e73a9c82ea73&output=html&source=placeapi_v2'， 'price': '89.0'， 'overall_rating': '4.7'， 'comment_num': '200'， 'children': []}
额尔敦传统涮(工厂店),内蒙古自治区呼和浩特市赛罕区兴安南路老年大学旁,111.709752,40.825949,内蒙古自治区,呼和浩特市,赛罕区,d93188941c88d55f61685802,d93188941c88d55f61685802,{'tag': '美食;中餐厅'， 'navi_location': {'lng': 111.709970491， 'lat': 40.826050006077}， 'type': 'cater'， 'detail_url': 'http://api.map.baidu.com/place/detail?uid=d93188941c88d55f61685802&output=html&source=placeapi_v2'， 'price': '95.0'， 'overall_rating': '4.5'， 'comment_num': '188'， 'children': []}
禧禄汇老味道家常菜,呼和浩特市赛罕区万豪名园东门,111.720226,40.79021,内蒙古自治区,呼和浩特市,赛罕区,a8d5a2f7e151b080cafa5fc7,a8d5a2f7e151b080cafa5fc7,{'tag': '美食;中餐厅'， 'navi_location': {'lng': 111.72035762726， 'lat': 40.790205533322}， 'type': 'cater'， 'detail_url': 'http://api.map.baidu.com/place/detail?uid=a8d5a2f7e151b080cafa5fc7&output=html&source=placeapi_v2'， 'price': '71.0'， 'overall_rating': '4.3'， 'comment_num': '16'， 'children': []}
东北味道(巨海店),内蒙古自治区呼和浩特市赛罕区大学东街巨海城1区,111.745352,40.82722,内蒙古自治区,呼和浩特市,赛罕区,26017070c7d1ff6b260bd0e4,26017070c7d1ff6b260bd0e4,{'tag': '美食;中餐厅'， 'navi_location': {'lng': 111.74529322908， 'lat': 40.827249964779}， 'type': 'cater'， 'detail_url': 'http://api.map.baidu.com/place/detail?uid=26017070c7d1ff6b260bd0e4&output=html&source=placeapi_v2'， 'price': '74.0'， 'overall_rating': '4.3'， 'comment_num': '7'， 'children': []}
额尔敦传统涮(绿地店),敕勒川大街绿地蓝海大厦B座3楼,111.76062,40.822774,内蒙古自治区,呼和浩特市,赛罕区,11291450cee8c3e56318098e,11291450cee8c3e56318098e,{'tag': '美食;中餐厅'， 'navi_location': {'lng': 111.7607211573， 'lat': 40.822885507733}， 'type': 'cater'， 'detail_url': 'http://api.map.baidu.com/place/detail?uid=11291450cee8c3e56318098e&output=html&source=placeapi_v2'， 'price': '110.0'， 'overall_rating': '4.6'， 'comment_num': '138'， 'children': []}
塞上府(巨海店),呼和浩特赛罕区东二环新建东街巨海城东门(近内蒙古检察院),111.748076,40.824292,内蒙古自治区,呼和浩特市,赛罕区,d305db1fb6127127932ca336,d305db1fb6127127932ca336,{'tag': '美食;中餐厅'， 'navi_location': {'lng': 111.7484328787， 'lat': 40.824271856793}， 'type': 'cater'， 'detail_url': 'http://api.map.baidu.com/place/detail?uid=d305db1fb6127127932ca336&output=html&source=placeapi_v2'， 'price': '124.0'， 'overall_rating': '4.1'， 'comment_num': '45'， 'children': []}
菜根香(九州店),内蒙古自治区呼和浩特市新城区南马神庙街18号,111.699682,40.827653,内蒙古自治区,呼和浩特市,新城区,76fc3e4f177a6ecdf6c59cc9,76fc3e4f177a6ecdf6c59cc9,{'tag': '美食;中餐厅'， 'navi_location': {'lng': 111.69983878971， 'lat': 40.827954586709}， 'type': 'cater'， 'detail_url': 'http://api.map.baidu.com/place/detail?uid=76fc3e4f177a6ecdf6c59cc9&output=html&source=placeapi_v2'， 'price': '77.0'， 'overall_rating': '4.3'， 'comment_num': '58'， 'children': []}
女神贵宾楼,呼和浩特赛罕区东影南路甲8号,111.718787,40.828614,内蒙古自治区,呼和浩特市,赛罕区,49a02a7a322856592b201a34,49a02a7a322856592b201a34,{'tag': '美食;中餐厅'， 'navi_location': {'lng': 111.71860287458， 'lat': 40.828576845861}， 'type': 'cater'， 'detail_url': 'http://api.map.baidu.com/place/detail?uid=49a02a7a322856592b201a34&output=html&source=placeapi_v2'， 'price': '117.0'， 'overall_rating': '4.2'， 'comment_num': '24'， 'children': []}
西贝宴会城,内蒙古呼和浩特市赛罕区乌尼尔西街与银河南街交叉路口南150米,111.716444,40.772599,内蒙古自治区,呼和浩特市,赛罕区,e4a37d4f2b09195b3586f4e4,ef1df55ea5e34b7c41d63ee5,{'tag': '美食;中餐厅'， 'navi_location': {'lng': 111.71641842734， 'lat': 40.773051833762}， 'type': 'cater'， 'detail_url': 'http://api.map.baidu.com/place/detail?uid=ef1df55ea5e34b7c41d63ee5&output=html&source=placeapi_v2'， 'price': '24.0'， 'overall_rating': '4.8'， 'comment_num': '7'， 'children': []}
格日勒阿妈奶茶馆(金桥店),呼和浩特市赛罕区金桥路宇泰商务广场B座2层,111.716323,40.785929,内蒙古自治区,呼和浩特市,赛罕区,4e77bd495f626db9725e805d,bf086af98702f24748fd3f4d,{'tag': '美食;中餐厅'， 'navi_location': {'lng': 111.71589996403， 'lat': 40.785465839283}， 'type': 'cater'， 'detail_url': 'http://api.map.baidu.com/place/detail?uid=bf086af98702f24748fd3f4d&output=html&source=placeapi_v2'， 'price': '66.0'， 'overall_rating': '4.3'， 'comment_num': '175'， 'children': []}
四合院海鲜小厨,呼和浩特市赛罕区南二环路与哈达路交叉路口往东北约100米(华盛嘉苑),111.735492,40.806894,内蒙古自治区,呼和浩特市,赛罕区,697e7f2f32de5f182806cef3,697e7f2f32de5f182806cef3,{'tag': '美食;中餐厅'， 'navi_location': {'lng': 111.73632372042， 'lat': 40.806990796582}， 'type': 'cater'， 'detail_url': 'http://api.map.baidu.com/place/detail?uid=697e7f2f32de5f182806cef3&output=html&source=placeapi_v2'， 'price': '132.0'， 'overall_rating': '4.4'， 'comment_num': '32'， 'children': []}
巴盟人家(大学东街店),大学东街与创业路交叉口北(创业路口北),111.728122,40.824258,内蒙古自治区,呼和浩特市,赛罕区,50f7d14665d986dd73210bb9,50f7d14665d986dd73210bb9,{'tag': '美食;中餐厅'， 'navi_location': {'lng': 111.72817665897， 'lat': 40.823947207282}， 'type': 'cater'， 'detail_url': 'http://api.map.baidu.com/place/detail?uid=50f7d14665d986dd73210bb9&output=html&source=placeapi_v2'， 'price': '76.0'， 'overall_rating': '4.5'， 'comment_num': '32'， 'children': []}
老绥元烧麦(东护城河南街店),呼和浩特市新城区东护城河南街与乌兰察布西街交叉路口北侧(兴源大厦东北侧),111.706096,40.827595,内蒙古自治区,呼和浩特市,新城区,f2063778dbf4fccfee74f84a,f2063778dbf4fccfee74f84a,{'tag': '美食;中餐厅'， 'navi_location': {'lng': 111.70597435648， 'lat': 40.827494289239}， 'type': 'cater'， 'detail_url': 'http://api.map.baidu.com/place/detail?uid=f2063778dbf4fccfee74f84a&output=html&source=placeapi_v2'， 'price': '42.0'， 'overall_rating': '4.3'， 'comment_num': '41'， 'children': []}
锦朋食府(金桥店),内蒙古自治区呼和浩特市赛罕区金桥开发区世纪四路内蒙古红十字会斜对面,111.707958,40.791677,内蒙古自治区,呼和浩特市,赛罕区,cac5fc760e447b8e2cb96d7f,cac5fc760e447b8e2cb96d7f,{'tag': '美食;中餐厅'， 'navi_location': {'lng': 111.7077197596， 'lat': 40.791599155957}， 'type': 'cater'， 'detail_url': 'http://api.map.baidu.com/place/detail?uid=cac5fc760e447b8e2cb96d7f&output=html&source=placeapi_v2'， 'price': '79.0'， 'overall_rating': '3.9'， 'comment_num': '44'， 'children': []}
小鱼海鲜餐厅(绿地店),呼和浩特市赛罕区盛景假日酒店1楼,111.754471,40.824522,内蒙古自治区,呼和浩特市,赛罕区,0022c91524fb2a7d83a00ca1,0022c91524fb2a7d83a00ca1,{'tag': '美食;中餐厅'， 'navi_location': {'lng': 111.75444539468， 'lat': 40.824678698749}， 'type': 'cater'， 'detail_url': 'http://api.map.baidu.com/place/detail?uid=0022c91524fb2a7d83a00ca1&output=html&source=placeapi_v2'， 'price': '192.0'， 'overall_rating': '3.9'， 'comment_num': '27'， 'children': []}
昆仑饭店(学苑东街店),内蒙古呼和浩特市赛罕区新建东街桥华世纪村-南门,111.725485,40.818842,内蒙古自治区,呼和浩特市,赛罕区,3984aca4185bf03c83a00c1a,3984aca4185bf03c83a00c1a,{'tag': '美食;中餐厅'， 'navi_location': {'lng': 111.72579286696， 'lat': 40.818595081776}， 'type': 'cater'， 'detail_url': 'http://api.map.baidu.com/place/detail?uid=3984aca4185bf03c83a00c1a&output=html&source=placeapi_v2'， 'price': '112.0'， 'overall_rating': '4.6'， 'comment_num': '66'， 'children': []}
格日勒阿妈奶茶馆(巨海店),呼和浩特市赛罕区丰州南路与巨海城北巷交叉路口西侧(巨华巨海城9区),111.742199,40.819191,内蒙古自治区,呼和浩特市,赛罕区,abfe8ec340e6ecd19cf77976,064958406b472370c1f1cf93,{'tag': '美食;中餐厅'， 'navi_location': {'lng': 111.74205902382， 'lat': 40.819066318506}， 'type': 'cater'， 'detail_url': 'http://api.map.baidu.com/place/detail?uid=064958406b472370c1f1cf93&output=html&source=placeapi_v2'， 'price': '67.0'， 'overall_rating': '4.6'， 'comment_num': '103'， 'children': []}
卢布里西餐厅,内蒙古自治区呼和浩特市赛罕区东二环路万正广场底商,111.753503,40.826943,内蒙古自治区,呼和浩特市,赛罕区,None,f53f7d5383373806c41e5145,{'tag': '美食;外国餐厅'， 'type': 'cater'， 'detail_url': 'http://api.map.baidu.com/place/detail?uid=f53f7d5383373806c41e5145&output=html&source=placeapi_v2'， 'price': '117.0'， 'overall_rating': '4.4'， 'comment_num': '152'， 'children': []}
浩翔贵宾楼(金桥店),赛罕区达尔登北路金桥小学斜对面路北维多利超市旁,111.727547,40.769956,内蒙古自治区,呼和浩特市,赛罕区,None,7821c672825892aeb6f42f6d,{'tag': '美食;中餐厅'， 'navi_location': {'lng': 111.72748419209， 'lat': 40.769882099393}， 'type': 'cater'， 'detail_url': 'http://api.map.baidu.com/place/detail?uid=7821c672825892aeb6f42f6d&output=html&source=placeapi_v2'， 'price': '69.0'， 'overall_rating': '3.4'， 'comment_num': '14'， 'children': []}
老绥元烧麦(桥华店),呼和浩特赛罕区大学东街(近桥华世纪村),111.722292,40.822375,内蒙古自治区,呼和浩特市,赛罕区,ea65e3e09c020be0223bf2f0,ea65e3e09c020be0223bf2f0,{'tag': '美食;中餐厅'， 'navi_location': {'lng': 111.72226860245， 'lat': 40.822709525641}， 'type': 'cater'， 'detail_url': 'http://api.map.baidu.com/place/detail?uid=ea65e3e09c020be0223bf2f0&output=html&source=placeapi_v2'， 'price': '30.0'， 'overall_rating': '4.3'， 'comment_num': '38'， 'children': []}
巨海城佐宴食府(巨海城店),内蒙古自治区呼和浩特市赛罕区丰州路巨海城10区东门包商银行旁边,111.740222,40.824122,内蒙古自治区,呼和浩特市,赛罕区,None,21102e8946ae70275bf6bed9,{'tag': '美食;中餐厅'， 'type': 'cater'， 'detail_url': 'http://api.map.baidu.com/place/detail?uid=21102e8946ae70275bf6bed9&output=html&source=placeapi_v2'， 'price': '85.0'， 'overall_rating': '4.2'， 'comment_num': '60'， 'children': []}
旺顺阁鱼头泡饼(鼓楼店),内蒙古自治区呼和浩特市新城区南马神庙街136号,111.699574,40.827752,内蒙古自治区,呼和浩特市,新城区,None,32d8482d50a677f3c72ba1d4,{'tag': '美食;中餐厅'， 'type': 'cater'， 'detail_url': 'http://api.map.baidu.com/place/detail?uid=32d8482d50a677f3c72ba1d4&output=html&source=placeapi_v2'， 'price': '103.0'， 'overall_rating': '4.0'， 'comment_num': '18'， 'children': []}
楚田辣丫头(桥华店),大学东街与展西路十字路口南200米巨华小学对面,111.727853,40.822648,内蒙古自治区,呼和浩特市,赛罕区,93df0dc370b22d32882fb519,93df0dc370b22d32882fb519,{'tag': '美食;中餐厅'， 'navi_location': {'lng': 111.7280481438， 'lat': 40.82260304759}， 'type': 'cater'， 'detail_url': 'http://api.map.baidu.com/place/detail?uid=93df0dc370b22d32882fb519&output=html&source=placeapi_v2'， 'price': '72.0'， 'overall_rating': '4.4'， 'comment_num': '39'， 'children': []}
泽成冰煮羊(护城河南街店),呼和浩特市新城区东护城河南街与乌兰察布西街交叉路口往西北约50米(兴源小区),111.705701,40.827696,内蒙古自治区,呼和浩特市,新城区,44939ad306dc7c30ca291561,44939ad306dc7c30ca291561,{'tag': '美食;中餐厅'， 'navi_location': {'lng': 111.7058462159， 'lat': 40.827803345449}， 'type': 'cater'， 'detail_url': 'http://api.map.baidu.com/place/detail?uid=44939ad306dc7c30ca291561&output=html&source=placeapi_v2'， 'price': '90.0'， 'overall_rating': '4.6'， 'comment_num': '56'， 'children': []}
盛武肥牛(桥华店),内蒙古自治区呼和浩特市赛罕区东影南路37号,111.721533,40.818898,内蒙古自治区,呼和浩特市,赛罕区,4420764609bb3572deee8b5e,4420764609bb3572deee8b5e,{'tag': '美食;中餐厅'， 'navi_location': {'lng': 111.72170895452， 'lat': 40.81873690019}， 'type': 'cater'， 'detail_url': 'http://api.map.baidu.com/place/detail?uid=4420764609bb3572deee8b5e&output=html&source=placeapi_v2'， 'price': '93.0'， 'overall_rating': '4.5'， 'comment_num': '155'， 'children': []}
阿健私房菜(金桥店),内蒙古自治区呼和浩特市赛罕区金桥世纪五路青城蕴秀园6号楼,111.709256,40.787711,内蒙古自治区,呼和浩特市,赛罕区,2d6cf0c58dcfb20ff50e77ef,2d6cf0c58dcfb20ff50e77ef,{'tag': '美食;中餐厅'， 'navi_location': {'lng': 111.70939579286， 'lat': 40.788078134221}， 'type': 'cater'， 'detail_url': 'http://api.map.baidu.com/place/detail?uid=2d6cf0c58dcfb20ff50e77ef&output=html&source=placeapi_v2'， 'price': '127.0'， 'overall_rating': '4.5'， 'comment_num': '10'， 'children': []}
奈曼食府,呼和浩特市与兴安南路交界处往南200米路西,111.709747,40.826021,内蒙古自治区,呼和浩特市,赛罕区,d6ee8724b06edcf9a8f0cdc0,d6ee8724b06edcf9a8f0cdc0,{'tag': '美食;中餐厅'， 'navi_location': {'lng': 111.70997246098， 'lat': 40.826021003119}， 'type': 'cater'， 'detail_url': 'http://api.map.baidu.com/place/detail?uid=d6ee8724b06edcf9a8f0cdc0&output=html&source=placeapi_v2'， 'price': '40.0'， 'overall_rating': '4.7'， 'comment_num': '199'， 'children': []}
车仔港式茶餐厅(东影南路店),东影南路33号北国风光酒店南,111.721212,40.819531,内蒙古自治区,呼和浩特市,赛罕区,daceea8ce371cbc795f08c8e,daceea8ce371cbc795f08c8e,{'tag': '美食;小吃快餐店'， 'navi_location': {'lng': 111.72133100146， 'lat': 40.819515240209}， 'type': 'cater'， 'detail_url': 'http://api.map.baidu.com/place/detail?uid=daceea8ce371cbc795f08c8e&output=html&source=placeapi_v2'， 'price': '65.0'， 'overall_rating': '4.5'， 'comment_num': '82'， 'children': []}
寂寞的豆芽(金宇文苑旗舰店),内蒙古自治区呼和浩特市赛罕区兴安南路111号,111.709933,40.823038,内蒙古自治区,呼和浩特市,赛罕区,fb20e1e8d3f5468cc51e5111,fb20e1e8d3f5468cc51e5111,{'tag': '美食;其他'， 'navi_location': {'lng': 111.71006947708， 'lat': 40.823322767946}， 'type': 'cater'， 'detail_url': 'http://api.map.baidu.com/place/detail?uid=fb20e1e8d3f5468cc51e5111&output=html&source=placeapi_v2'， 'price': '91.0'， 'overall_rating': '4.5'， 'comment_num': '68'， 'children': []}
阿健食尚海鲜肥牛火锅(金鼎蓉合店),内蒙古自治区呼和浩特市赛罕区世纪五路青城蕴秀园小区7号楼底商,111.709873,40.787994,内蒙古自治区,呼和浩特市,赛罕区,0ce65c2d7f7c09242d47337e,0ce65c2d7f7c09242d47337e,{'tag': '美食;中餐厅'， 'navi_location': {'lng': 111.70972537487， 'lat': 40.788461699046}， 'type': 'cater'， 'detail_url': 'http://api.map.baidu.com/place/detail?uid=0ce65c2d7f7c09242d47337e&output=html&source=placeapi_v2'， 'price': '179.0'， 'overall_rating': '4.7'， 'comment_num': '31'， 'children': []}
赛诺草原羊,内蒙古自治区呼和浩特市赛罕区东影南路39号巨华商业1号楼底层,111.722005,40.818239,内蒙古自治区,呼和浩特市,赛罕区,None,357497f1ac2c49716cc02c85,{'tag': '美食;其他'， 'navi_location': {'lng': 111.72212155702， 'lat': 40.818210783486}， 'type': 'cater'， 'detail_url': 'http://api.map.baidu.com/place/detail?uid=357497f1ac2c49716cc02c85&output=html&source=placeapi_v2'， 'price': '103.0'， 'overall_rating': '4.1'， 'comment_num': '40'， 'children': []}
很久乙前只是家串店(创业路店),创业路与大学东街交叉口东南侧130米路西,111.72787,40.822726,内蒙古自治区,呼和浩特市,赛罕区,08ee764963c429415a3ac8d8,08ee764963c429415a3ac8d8,{'tag': '美食;中餐厅'， 'navi_location': {'lng': 111.72800019225， 'lat': 40.822719146717}， 'type': 'cater'， 'detail_url': 'http://api.map.baidu.com/place/detail?uid=08ee764963c429415a3ac8d8&output=html&source=placeapi_v2'， 'price': '95.0'， 'overall_rating': '4.7'， 'comment_num': '100'， 'children': []}
锡林艾里生态涮,内蒙古自治区呼和浩特市赛罕区东影南路69号,111.72514,40.80994,内蒙古自治区,呼和浩特市,赛罕区,025cdd878bd3353d71455b08,025cdd878bd3353d71455b08,{'tag': '美食;中餐厅'， 'navi_location': {'lng': 111.7253111156， 'lat': 40.809951201804}， 'type': 'cater'， 'detail_url': 'http://api.map.baidu.com/place/detail?uid=025cdd878bd3353d71455b08&output=html&source=placeapi_v2'， 'price': '73.0'， 'overall_rating': '4.5'， 'comment_num': '36'， 'children': []}
塞上府铁锅菜(中海店),呼和浩特市赛罕区恒大华府南50米中海环宇二楼,111.739438,40.792878,内蒙古自治区,呼和浩特市,赛罕区,None,b2cf00055dc0641016b54bea,{'tag': '美食;中餐厅'， 'navi_location': {'lng': 111.7393170244， 'lat': 40.792239713583}， 'type': 'cater'， 'detail_url': 'http://api.map.baidu.com/place/detail?uid=b2cf00055dc0641016b54bea&output=html&source=placeapi_v2'， 'overall_rating': '4.8'， 'comment_num': '37'， 'children': []}
第一自助(中海金游城店),赛罕区南二环金游城4楼S7-404,111.74651,40.807226,内蒙古自治区,呼和浩特市,赛罕区,588bd423001a240d4c6d46bb,588bd423001a240d4c6d46bb,{'tag': '美食;中餐厅'， 'type': 'cater'， 'detail_url': 'http://api.map.baidu.com/place/detail?uid=588bd423001a240d4c6d46bb&output=html&source=placeapi_v2'， 'price': '48.0'， 'overall_rating': '3.8'， 'comment_num': '65'， 'children': []}
全来福农家庄园(金桥店),金桥路云豪湾商务酒店东邻,111.729376,40.763425,内蒙古自治区,呼和浩特市,赛罕区,33ec1b41f96b68f7601c6744,33ec1b41f96b68f7601c6744,{'tag': '美食;中餐厅'， 'navi_location': {'lng': 111.72945652604， 'lat': 40.763649372846}， 'type': 'cater'， 'detail_url': 'http://api.map.baidu.com/place/detail?uid=33ec1b41f96b68f7601c6744&output=html&source=placeapi_v2'， 'price': '45.0'， 'overall_rating': '4.6'， 'comment_num': '15'， 'children': []}
泽成冰煮羊(中海环宇店),内蒙古自治区呼和浩特市赛罕区滨河北路,111.740151,40.793488,内蒙古自治区,呼和浩特市,赛罕区,None,a4580b52a6cedca2eb12e4ba,{'tag': '美食;中餐厅'， 'navi_location': {'lng': 111.7402123134， 'lat': 40.793275261953}， 'type': 'cater'， 'detail_url': 'http://api.map.baidu.com/place/detail?uid=a4580b52a6cedca2eb12e4ba&output=html&source=placeapi_v2'， 'price': '101.0'， 'overall_rating': '4.5'， 'comment_num': '27'， 'children': []}
艾尚聚主题聚会餐厅,昭乌达路传媒大厦南70米,111.718637,40.783621,内蒙古自治区,呼和浩特市,赛罕区,None,ef03f74216e887f4841541e6,{'tag': '美食;中餐厅'， 'navi_location': {'lng': 111.71861124768， 'lat': 40.783749498481}， 'type': 'cater'， 'detail_url': 'http://api.map.baidu.com/place/detail?uid=ef03f74216e887f4841541e6&output=html&source=placeapi_v2'， 'price': '65.0'， 'overall_rating': '5.0'， 'comment_num': '6'， 'children': []}
六六的店(绿地店),敕勒川大街蓝海大厦B座101,111.760457,40.82278,内蒙古自治区,呼和浩特市,赛罕区,98272a8a535e2b58b45f1e92,98272a8a535e2b58b45f1e92,{'tag': '美食;中餐厅'， 'navi_location': {'lng': 111.76037799381， 'lat': 40.822851353412}， 'type': 'cater'， 'detail_url': 'http://api.map.baidu.com/place/detail?uid=98272a8a535e2b58b45f1e92&output=html&source=placeapi_v2'， 'price': '75.0'， 'overall_rating': '4.2'， 'comment_num': '37'， 'children': []}
辣员外重庆老火锅(昭乌达路店),昭乌达路40号,111.702471,40.816357,内蒙古自治区,呼和浩特市,赛罕区,f3d0e94b2c53f6d4b01e36ac,f3d0e94b2c53f6d4b01e36ac,{'tag': '美食;中餐厅'， 'navi_location': {'lng': 111.70213421271， 'lat': 40.816409946367}， 'type': 'cater'， 'detail_url': 'http://api.map.baidu.com/place/detail?uid=f3d0e94b2c53f6d4b01e36ac&output=html&source=placeapi_v2'， 'overall_rating': '4.4'， 'comment_num': '200'， 'children': []}
二大妈铁锅居(绿地店),内蒙古自治区呼和浩特市赛罕区敕勒川大街,111.759203,40.822568,内蒙古自治区,呼和浩特市,赛罕区,41191b1af6113a498e772725,41191b1af6113a498e772725,{'tag': '美食;中餐厅'， 'navi_location': {'lng': 111.75916328972， 'lat': 40.822748206835}， 'type': 'cater'， 'detail_url': 'http://api.map.baidu.com/place/detail?uid=41191b1af6113a498e772725&output=html&source=placeapi_v2'， 'price': '41.0'， 'overall_rating': '3.9'， 'comment_num': '96'， 'children': []}
蒙A海鲜烧烤(金桥店),内蒙古自治区呼和浩特市赛罕区包头大街,111.721306,40.791161,内蒙古自治区,呼和浩特市,赛罕区,None,07b2772eb87baf865d0d0263,{'tag': '美食;中餐厅'， 'type': 'cater'， 'detail_url': 'http://api.map.baidu.com/place/detail?uid=07b2772eb87baf865d0d0263&output=html&source=placeapi_v2'， 'price': '88.0'， 'overall_rating': '4.5'， 'comment_num': '151'， 'children': []}
快乐小羊火锅餐厅(金桥店),赛罕区昭乌达路与世纪七路交叉口广播电视台对面,111.717723,40.783512,内蒙古自治区,呼和浩特市,赛罕区,None,13218d34ae1e9fc552e5c523,{'tag': '美食;中餐厅'， 'navi_location': {'lng': 111.71770663876， 'lat': 40.78366085064}， 'type': 'cater'， 'detail_url': 'http://api.map.baidu.com/place/detail?uid=13218d34ae1e9fc552e5c523&output=html&source=placeapi_v2'， 'price': '112.0'， 'overall_rating': '4.1'， 'comment_num': '22'， 'children': []}
京食久,内蒙古自治区呼和浩特市赛罕区万正广场D座底商,111.753585,40.826638,内蒙古自治区,呼和浩特市,赛罕区,None,0dc740cb4d472c1d0ab93aed,{'tag': '美食;中餐厅'， 'type': 'cater'， 'detail_url': 'http://api.map.baidu.com/place/detail?uid=0dc740cb4d472c1d0ab93aed&output=html&source=placeapi_v2'， 'price': '102.0'， 'overall_rating': '3.9'， 'comment_num': '38'， 'children': []}
彭厨(巨海城店),学苑东街巨海城十区西区一号门面房,111.737466,40.821543,内蒙古自治区,呼和浩特市,赛罕区,None,c308ff6628ca7dc031870aa1,{'tag': '美食;中餐厅'， 'type': 'cater'， 'detail_url': 'http://api.map.baidu.com/place/detail?uid=c308ff6628ca7dc031870aa1&output=html&source=placeapi_v2'， 'overall_rating': '4.2'， 'comment_num': '13'， 'children': []}
俏啤小牛餐厅(中海店),丰州南路49号金游城底商,111.746376,40.807004,内蒙古自治区,呼和浩特市,赛罕区,None,362fbd2956f12b493be4a664,{'tag': '美食;中餐厅'， 'type': 'cater'， 'detail_url': 'http://api.map.baidu.com/place/detail?uid=362fbd2956f12b493be4a664&output=html&source=placeapi_v2'， 'price': '128.0'， 'overall_rating': '4.2'， 'comment_num': '22'， 'children': []}
蒙A蒙A海鲜烧烤(绿地店),呼和浩特市赛罕区如意南路(绿地公馆壹号东南侧约10米),111.763833,40.824117,内蒙古自治区,呼和浩特市,赛罕区,None,72e17d5e5e649b89b11e3622,{'tag': '美食;中餐厅'， 'type': 'cater'， 'detail_url': 'http://api.map.baidu.com/place/detail?uid=72e17d5e5e649b89b11e3622&output=html&source=placeapi_v2'， 'price': '47.0'， 'overall_rating': '4.4'， 'comment_num': '123'， 'children': []}
小丸子屋(制片厂巷),呼和浩特赛罕区制片厂西巷4号(近制片厂巷),111.707812,40.820478,内蒙古自治区,呼和浩特市,赛罕区,05dd7d5f30c24718ad080f30,05dd7d5f30c24718ad080f30,{'tag': '美食;中餐厅'， 'navi_location': {'lng': 111.70761720545， 'lat': 40.82065367364}， 'type': 'cater'， 'detail_url': 'http://api.map.baidu.com/place/detail?uid=05dd7d5f30c24718ad080f30&output=html&source=placeapi_v2'， 'price': '70.0'， 'overall_rating': '4.3'， 'comment_num': '33'， 'children': []}
青口季港式打边炉(东影南路店),内蒙古自治区呼和浩特市赛罕区东影南路37号,111.722113,40.819563,内蒙古自治区,呼和浩特市,赛罕区,None,12a574b6452958aea20464a0,{'tag': '美食;中餐厅'， 'type': 'cater'， 'detail_url': 'http://api.map.baidu.com/place/detail?uid=12a574b6452958aea20464a0&output=html&source=placeapi_v2'， 'overall_rating': '4.5'， 'comment_num': '63'， 'children': []}
格日勒阿妈奶茶馆(中海店),赛罕区南二环中海锦绣城西门,111.748057,40.8059,内蒙古自治区,呼和浩特市,赛罕区,3da9f3273787935597ec841b,3da9f3273787935597ec841b,{'tag': '美食;中餐厅'， 'navi_location': {'lng': 111.74803932926， 'lat': 40.805624653524}， 'type': 'cater'， 'detail_url': 'http://api.map.baidu.com/place/detail?uid=3da9f3273787935597ec841b&output=html&source=placeapi_v2'， 'price': '74.0'， 'overall_rating': '4.5'， 'comment_num': '187'， 'children': []}
鲜洋城(呼市总店),赛罕区东影南街35号巨华商业楼3号,111.72113,40.820162,内蒙古自治区,呼和浩特市,赛罕区,d2034eb26be7a12b1811d500,d2034eb26be7a12b1811d500,{'tag': '美食;中餐厅'， 'navi_location': {'lng': 111.72112570991， 'lat': 40.820261024048}， 'type': 'cater'， 'detail_url': 'http://api.map.baidu.com/place/detail?uid=d2034eb26be7a12b1811d500&output=html&source=placeapi_v2'， 'price': '70.0'， 'overall_rating': '4.6'， 'comment_num': '23'， 'children': []}
山光悦鸟日本料理(绿地店),内蒙古呼和浩特市赛罕区敕勒川大街16号绿地中央广场B3号楼1-2层2单元101,111.760357,40.823022,内蒙古自治区,呼和浩特市,赛罕区,None,b6bacc7107af7401f2193779,{'tag': '美食;外国餐厅'， 'navi_location': {'lng': 111.7603749791， 'lat': 40.822857406374}， 'type': 'cater'， 'detail_url': 'http://api.map.baidu.com/place/detail?uid=b6bacc7107af7401f2193779&output=html&source=placeapi_v2'， 'price': '139.0'， 'overall_rating': '4.6'， 'comment_num': '115'， 'children': []}
德顺源(绿地店),内蒙古自治区呼和浩特市赛罕区敕勒川大街绿地饕界美食街二楼西侧202号,111.761764,40.823626,内蒙古自治区,呼和浩特市,赛罕区,6c15261daaf0e69a87330446,6c15261daaf0e69a87330446,{'tag': '美食;中餐厅'， 'navi_location': {'lng': 111.76137564293， 'lat': 40.823588571608}， 'type': 'cater'， 'detail_url': 'http://api.map.baidu.com/place/detail?uid=6c15261daaf0e69a87330446&output=html&source=placeapi_v2'， 'price': '52.0'， 'overall_rating': '4.0'， 'comment_num': '27'， 'children': []}
麦当劳(凯元广场餐厅),呼和浩特市赛罕区昭乌达路与包头大街交汇处,111.713466,40.788787,内蒙古自治区,呼和浩特市,赛罕区,0af55e3949fa32400b69d9aa,0af55e3949fa32400b69d9aa,{'tag': '美食;小吃快餐店'， 'navi_location': {'lng': 111.71352958192， 'lat': 40.788973566044}， 'type': 'cater'， 'detail_url': 'http://api.map.baidu.com/place/detail?uid=0af55e3949fa32400b69d9aa&output=html&source=placeapi_v2'， 'price': '27.0'， 'overall_rating': '4.9'， 'comment_num': '94'， 'children': []}
丽江印象斑鱼府,呼和浩特市赛罕区万豪名园东门,111.720788,40.789486,内蒙古自治区,呼和浩特市,赛罕区,dc30ca310a47647d88f15db1,dc30ca310a47647d88f15db1,{'tag': '美食;中餐厅'， 'navi_location': {'lng': 111.72079201816， 'lat': 40.789800788485}， 'type': 'cater'， 'detail_url': 'http://api.map.baidu.com/place/detail?uid=dc30ca310a47647d88f15db1&output=html&source=placeapi_v2'， 'price': '67.0'， 'overall_rating': '4.4'， 'comment_num': '49'， 'children': []}
丽江人家斑鱼火锅(巨海城店),内蒙古自治区呼和浩特市赛罕区巨海城十区8栋,111.740543,40.821992,内蒙古自治区,呼和浩特市,赛罕区,5e30324556ee7bfba11de960,5e30324556ee7bfba11de960,{'tag': '美食;中餐厅'， 'navi_location': {'lng': 111.74049185799， 'lat': 40.821924301329}， 'type': 'cater'， 'detail_url': 'http://api.map.baidu.com/place/detail?uid=5e30324556ee7bfba11de960&output=html&source=placeapi_v2'， 'price': '90.0'， 'overall_rating': '4.3'， 'comment_num': '35'， 'children': []}
蒙牧烤排,乌兰察布东街97号天辰银筑1层(万戴国际酒店斜对面),111.712195,40.828762,内蒙古自治区,呼和浩特市,赛罕区,bc963633372f182330169bfa,bc963633372f182330169bfa,{'tag': '美食;中餐厅'， 'navi_location': {'lng': 111.71226498875， 'lat': 40.828612430396}， 'type': 'cater'， 'detail_url': 'http://api.map.baidu.com/place/detail?uid=bc963633372f182330169bfa&output=html&source=placeapi_v2'， 'price': '75.0'， 'overall_rating': '4.2'， 'comment_num': '103'， 'children': []}
红炉果木烤鸭(金桥店),万豪长隆湾西门(德庄火锅旁边),111.721233,40.790446,内蒙古自治区,呼和浩特市,赛罕区,None,a874de9ad4ec33976fa3cce3,{'tag': '美食;小吃快餐店'， 'navi_location': {'lng': 111.72094458726， 'lat': 40.790316603979}， 'type': 'cater'， 'detail_url': 'http://api.map.baidu.com/place/detail?uid=a874de9ad4ec33976fa3cce3&output=html&source=placeapi_v2'， 'price': '96.0'， 'overall_rating': '4.8'， 'comment_num': '5'， 'children': []}
慢渡餐酒音乐小馆,内蒙古自治区呼和浩特市新城区乌兰察布西路169号,111.702858,40.826297,内蒙古自治区,呼和浩特市,新城区,None,2d625071f8c48f9a9fec2bf2,{'tag': '美食;中餐厅'， 'type': 'cater'， 'detail_url': 'http://api.map.baidu.com/place/detail?uid=2d625071f8c48f9a9fec2bf2&output=html&source=placeapi_v2'， 'price': '37.0'， 'overall_rating': '4.8'， 'comment_num': '98'， 'children': []}
牛莽莽牛杂火锅(金隅时代城店),内蒙古自治区呼和浩特市赛罕区鄂尔多斯东街金隅时代城,111.763718,40.817856,内蒙古自治区,呼和浩特市,赛罕区,04ed71c4cd9c54315cbe86ec,04ed71c4cd9c54315cbe86ec,{'tag': '美食;中餐厅'， 'navi_location': {'lng': 111.7638295908， 'lat': 40.81793241476}， 'type': 'cater'， 'detail_url': 'http://api.map.baidu.com/place/detail?uid=04ed71c4cd9c54315cbe86ec&output=html&source=placeapi_v2'， 'price': '76.0'， 'overall_rating': '4.2'， 'comment_num': '39'， 'children': []}
源玺源烧麦馆(巨海店),丰州路嘉友城市花园10号楼103号,111.740124,40.824449,内蒙古自治区,呼和浩特市,赛罕区,1a5394c61a73b30fadb22adb,1a5394c61a73b30fadb22adb,{'tag': '美食;中餐厅'， 'type': 'cater'， 'detail_url': 'http://api.map.baidu.com/place/detail?uid=1a5394c61a73b30fadb22adb&output=html&source=placeapi_v2'， 'price': '20.0'， 'overall_rating': '4.7'， 'comment_num': '30'， 'children': []}
海港大酒店,内蒙古自治区呼和浩特市赛罕区昭乌达路70号海德酒店1楼(近科尔沁火锅店),111.708907,40.802862,内蒙古自治区,呼和浩特市,赛罕区,cbb27e5676314f572ee67bba,4cc1d6b1c8d2283ccac3dbc5,{'tag': '美食;中餐厅'， 'navi_location': {'lng': 111.70855709711， 'lat': 40.802615211435}， 'type': 'cater'， 'detail_url': 'http://api.map.baidu.com/place/detail?uid=4cc1d6b1c8d2283ccac3dbc5&output=html&source=placeapi_v2'， 'price': '150.0'， 'overall_rating': '4.6'， 'comment_num': '58'， 'children': []}
好利来(大学东街店),内蒙古自治区呼和浩特市赛罕区大学东街94号,111.717199,40.821842,内蒙古自治区,呼和浩特市,赛罕区,9b985aab9fa5fc04354aae6f,9b985aab9fa5fc04354aae6f,{'tag': '美食;蛋糕甜品店'， 'navi_location': {'lng': 111.71725184106， 'lat': 40.821606285335}， 'type': 'cater'， 'detail_url': 'http://api.map.baidu.com/place/detail?uid=9b985aab9fa5fc04354aae6f&output=html&source=placeapi_v2'， 'price': '72.0'， 'overall_rating': '4.5'， 'image_num': '1'， 'comment_num': '45'， 'children': []}
铁锅一居(金桥店),内蒙古自治区呼和浩特市赛罕区金桥开发区昭乌达路宇泰商务广场C座1层,111.716525,40.785294,内蒙古自治区,呼和浩特市,赛罕区,5211d21956407d417dc8765e,5211d21956407d417dc8765e,{'tag': '美食;中餐厅'， 'navi_location': {'lng': 111.71609113063， 'lat': 40.785021510125}， 'type': 'cater'， 'detail_url': 'http://api.map.baidu.com/place/detail?uid=5211d21956407d417dc8765e&output=html&source=placeapi_v2'， 'price': '50.0'， 'overall_rating': '4.3'， 'comment_num': '31'， 'children': []}
速度披萨BBQ(呼和浩特总店),内蒙古自治区呼和浩特市赛罕区丰州路44号,111.740087,40.82205,内蒙古自治区,呼和浩特市,赛罕区,82eea078e6d1117478f796ac,82eea078e6d1117478f796ac,{'tag': '美食;外国餐厅'， 'type': 'cater'， 'detail_url': 'http://api.map.baidu.com/place/detail?uid=82eea078e6d1117478f796ac&output=html&source=placeapi_v2'， 'price': '102.0'， 'overall_rating': '4.2'， 'comment_num': '39'， 'children': []}
九田家果木烤肉(金桥店),内蒙古自治区呼和浩特市赛罕区金桥开发区鸿都大厦1楼,111.71554,40.7875,内蒙古自治区,呼和浩特市,赛罕区,e6294ba98270307a102935cc,e6294ba98270307a102935cc,{'tag': '美食;外国餐厅'， 'navi_location': {'lng': 111.71541329624， 'lat': 40.787465353752}， 'type': 'cater'， 'detail_url': 'http://api.map.baidu.com/place/detail?uid=e6294ba98270307a102935cc&output=html&source=placeapi_v2'， 'price': '116.0'， 'overall_rating': '3.9'， 'comment_num': '43'， 'children': []}
不老神鸡(桥靠店),呼和浩特市赛罕区桃李巷北口,111.7035,40.821631,内蒙古自治区,呼和浩特市,赛罕区,df9a11f93bd11a9e90114c1a,df9a11f93bd11a9e90114c1a,{'tag': '美食;中餐厅'， 'type': 'cater'， 'detail_url': 'http://api.map.baidu.com/place/detail?uid=df9a11f93bd11a9e90114c1a&output=html&source=placeapi_v2'， 'price': '32.0'， 'overall_rating': '4.6'， 'comment_num': '86'， 'children': []}
吧唧嘴自助水饺,内蒙古自治区呼和浩特市赛罕区呼伦贝尔南路559号,111.69881,40.796362,内蒙古自治区,呼和浩特市,赛罕区,None,fd334c5922fe99eed2f49e49,{'tag': '美食;中餐厅'， 'navi_location': {'lng': 111.69846929332， 'lat': 40.796224645131}， 'type': 'cater'， 'detail_url': 'http://api.map.baidu.com/place/detail?uid=fd334c5922fe99eed2f49e49&output=html&source=placeapi_v2'， 'price': '15.0'， 'overall_rating': '3.8'， 'comment_num': '55'， 'children': []}
魔王无双日式料理,赛罕区腾飞南路48号,111.763355,40.813608,内蒙古自治区,呼和浩特市,赛罕区,36e2622b743dac6a9de321e0,36e2622b743dac6a9de321e0,{'tag': '美食;外国餐厅'， 'navi_location': {'lng': 111.76346666639， 'lat': 40.81350287188}， 'type': 'cater'， 'detail_url': 'http://api.map.baidu.com/place/detail?uid=36e2622b743dac6a9de321e0&output=html&source=placeapi_v2'， 'price': '190.0'， 'overall_rating': '4.7'， 'comment_num': '63'， 'children': []}
肯德基(鹏欣金游城餐厅),呼和浩特市赛罕区南二环路鹏欣金游城购物中心商场1-2层,111.747,40.805443,内蒙古自治区,呼和浩特市,赛罕区,57b8a6133b9d895429fc4894,57b8a6133b9d895429fc4894,{'tag': '美食;小吃快餐店'， 'navi_location': {'lng': 111.7476396417， 'lat': 40.805225780179}， 'type': 'cater'， 'detail_url': 'http://api.map.baidu.com/place/detail?uid=57b8a6133b9d895429fc4894&output=html&source=placeapi_v2'， 'price': '28.0'， 'overall_rating': '4.4'， 'comment_num': '12'， 'children': []}
德克士(昭乌达路餐厅),呼和浩特市赛罕区昭乌达路奥都电子城一层,111.699793,40.820286,内蒙古自治区,呼和浩特市,赛罕区,9ee992a272c379f6ae31e58d,9ee992a272c379f6ae31e58d,{'tag': '美食;小吃快餐店'， 'navi_location': {'lng': 111.70026864687， 'lat': 40.820280515055}， 'type': 'cater'， 'detail_url': 'http://api.map.baidu.com/place/detail?uid=9ee992a272c379f6ae31e58d&output=html&source=placeapi_v2'， 'price': '32.0'， 'overall_rating': '4.5'， 'comment_num': '200'， 'children': []}
围炉三月中式烤肉,内蒙古自治区呼和浩特市赛罕区展览馆西路9号,111.72743,40.825036,内蒙古自治区,呼和浩特市,赛罕区,None,815b17495f09cd738bb98808,{'tag': '美食;其他'， 'type': 'cater'， 'detail_url': 'http://api.map.baidu.com/place/detail?uid=815b17495f09cd738bb98808&output=html&source=placeapi_v2'， 'price': '96.0'， 'overall_rating': '4.6'， 'comment_num': '150'， 'children': []}
福春居饺子楼,创业路蒙吉利综合楼1楼,111.726742,40.825304,内蒙古自治区,呼和浩特市,赛罕区,4eb3b533b9168d0843024543,4eb3b533b9168d0843024543,{'tag': '美食;小吃快餐店'， 'navi_location': {'lng': 111.72695439396， 'lat': 40.825493371426}， 'type': 'cater'， 'detail_url': 'http://api.map.baidu.com/place/detail?uid=4eb3b533b9168d0843024543&output=html&source=placeapi_v2'， 'price': '53.0'， 'overall_rating': '4.2'， 'comment_num': '55'， 'children': []}
麦当劳(七巧国儿童中心餐厅),内蒙古自治区呼和浩特市赛罕区包头东街5号,111.725886,40.792661,内蒙古自治区,呼和浩特市,赛罕区,0536d92c81a67324047ce876,0536d92c81a67324047ce876,{'tag': '美食;小吃快餐店'， 'type': 'cater'， 'detail_url': 'http://api.map.baidu.com/place/detail?uid=0536d92c81a67324047ce876&output=html&source=placeapi_v2'， 'price': '27.0'， 'overall_rating': '5.0'， 'comment_num': '166'， 'children': []}
戈壁牛羊时尚爆锅牛肉(万悦城店),呼和浩特市赛罕区大学东街与丰州南路交叉路口往东北约50米(维多利万悦城),111.740313,40.827158,内蒙古自治区,呼和浩特市,赛罕区,None,17b846259852d616c42ba11c,{'tag': '美食;中餐厅'， 'type': 'cater'， 'detail_url': 'http://api.map.baidu.com/place/detail?uid=17b846259852d616c42ba11c&output=html&source=placeapi_v2'， 'price': '67.0'， 'overall_rating': '4.9'， 'comment_num': '200'， 'children': []}
麦当劳(维多利万悦城餐厅),内蒙古自治区呼和浩特市赛罕区丰州路与大学东路交汇处维多利万悦城一层,111.740834,40.827197,内蒙古自治区,呼和浩特市,赛罕区,None,b9fbbf8f0c50a611901fc9c0,{'tag': '美食;小吃快餐店'， 'type': 'cater'， 'detail_url': 'http://api.map.baidu.com/place/detail?uid=b9fbbf8f0c50a611901fc9c0&output=html&source=placeapi_v2'， 'price': '35.0'， 'overall_rating': '4.9'， 'comment_num': '94'， 'children': []}
德克士(金桥维多利餐厅),内蒙古自治区呼和浩特市赛罕区金桥路祥泰广场内,111.727285,40.770318,内蒙古自治区,呼和浩特市,赛罕区,None,347008be75accdc0e9f85361,{'tag': '美食;小吃快餐店'， 'navi_location': {'lng': 111.72715607714， 'lat': 40.769911384166}， 'type': 'cater'， 'detail_url': 'http://api.map.baidu.com/place/detail?uid=347008be75accdc0e9f85361&output=html&source=placeapi_v2'， 'price': '37.0'， 'overall_rating': '4.9'， 'comment_num': '56'， 'children': []}
指上弹饼,赛罕区昭乌达路东侧凯旋广场2号楼220号,111.700805,40.81985,内蒙古自治区,呼和浩特市,赛罕区,None,0e4d20f282cbbe602ce67bdb,{'tag': '美食;中餐厅'， 'type': 'cater'， 'detail_url': 'http://api.map.baidu.com/place/detail?uid=0e4d20f282cbbe602ce67bdb&output=html&source=placeapi_v2'， 'price': '22.0'， 'overall_rating': '4.8'， 'comment_num': '32'， 'children': []}
枫林日料餐厅,包头东街万豪长隆湾北门东100米路南万豪长隆湾泽园七巧国,111.724719,40.792606,内蒙古自治区,呼和浩特市,赛罕区,None,d2461cf95e4ebe61260bd0d2,{'tag': '美食;外国餐厅'， 'type': 'cater'， 'detail_url': 'http://api.map.baidu.com/place/detail?uid=d2461cf95e4ebe61260bd0d2&output=html&source=placeapi_v2'， 'price': '121.0'， 'overall_rating': '4.3'， 'comment_num': '33'， 'children': []}
七仔牛果木烤肉(黑牛店),东影南路39号,111.722059,40.818236,内蒙古自治区,呼和浩特市,赛罕区,None,1df5f2f6d42a4d65343a7162,{'tag': '美食;外国餐厅'， 'type': 'cater'， 'detail_url': 'http://api.map.baidu.com/place/detail?uid=1df5f2f6d42a4d65343a7162&output=html&source=placeapi_v2'， 'price': '103.0'， 'overall_rating': '4.4'， 'comment_num': '35'， 'children': []}
不老神鸡(招待店),内蒙古自治区呼和浩特市赛罕区乌兰察布西街2号,111.708629,40.82752,内蒙古自治区,呼和浩特市,赛罕区,86aee14feb13928d4054d75a,86aee14feb13928d4054d75a,{'tag': '美食;中餐厅'， 'type': 'cater'， 'detail_url': 'http://api.map.baidu.com/place/detail?uid=86aee14feb13928d4054d75a&output=html&source=placeapi_v2'， 'price': '37.0'， 'overall_rating': '4.7'， 'comment_num': '39'， 'children': []}
实在饺子楼(雅园店),内蒙古自治区呼和浩特市赛罕区前达门路(新华联雅园西门北50米),111.760025,40.815437,内蒙古自治区,呼和浩特市,赛罕区,615b6976f12d1a7ba8175a76,615b6976f12d1a7ba8175a76,{'tag': '美食;小吃快餐店'， 'navi_location': {'lng': 111.7599968365， 'lat': 40.815184661874}， 'type': 'cater'， 'detail_url': 'http://api.map.baidu.com/place/detail?uid=615b6976f12d1a7ba8175a76&output=html&source=placeapi_v2'， 'price': '38.0'， 'overall_rating': '4.4'， 'comment_num': '27'， 'children': []}
TheArlo's艾洛家亲子餐厅,邻里荟B座,111.748873,40.814717,内蒙古自治区,呼和浩特市,赛罕区,None,7dfeae4b352fb0aee011030d,{'tag': '美食;小吃快餐店'， 'type': 'cater'， 'detail_url': 'http://api.map.baidu.com/place/detail?uid=7dfeae4b352fb0aee011030d&output=html&source=placeapi_v2'， 'price': '133.0'， 'overall_rating': '4.7'， 'comment_num': '28'， 'children': []}
李先生(大学东路店),内蒙古自治区呼和浩特市赛罕区大学东路6号,111.70225,40.817847,内蒙古自治区,呼和浩特市,赛罕区,3dc9befd73578c0fbea24036,3dc9befd73578c0fbea24036,{'tag': '美食;小吃快餐店'， 'navi_location': {'lng': 111.70226806383， 'lat': 40.817603971228}， 'type': 'cater'， 'detail_url': 'http://api.map.baidu.com/place/detail?uid=3dc9befd73578c0fbea24036&output=html&source=placeapi_v2'， 'price': '26.0'， 'overall_rating': '4.5'， 'comment_num': '65'， 'children': []}
麦迹披萨(师大店),呼和浩特市赛罕区学苑西街北大门,111.699269,40.811277,内蒙古自治区,呼和浩特市,赛罕区,2889b0e015421e01940319b5,2889b0e015421e01940319b5,{'tag': '美食;外国餐厅'， 'navi_location': {'lng': 111.69914785444， 'lat': 40.811410872099}， 'type': 'cater'， 'detail_url': 'http://api.map.baidu.com/place/detail?uid=2889b0e015421e01940319b5&output=html&source=placeapi_v2'， 'price': '60.0'， 'overall_rating': '4.2'， 'comment_num': '38'， 'children': []}
实在饺子楼(学苑店),赛罕区学苑西街一号,111.704506,40.81297,内蒙古自治区,呼和浩特市,赛罕区,a4a340dbc21024314107c1a1,a4a340dbc21024314107c1a1,{'tag': '美食;小吃快餐店'， 'navi_location': {'lng': 111.70448947451， 'lat': 40.812844163745}， 'type': 'cater'， 'detail_url': 'http://api.map.baidu.com/place/detail?uid=a4a340dbc21024314107c1a1&output=html&source=placeapi_v2'， 'price': '63.0'， 'overall_rating': '4.5'， 'comment_num': '55'， 'children': []}
50Americanbar美式餐吧,呼和浩特市赛罕区学苑东街绿地腾飞大厦F座底商,111.765051,40.826113,内蒙古自治区,呼和浩特市,赛罕区,None,3e78b6534e367ac2eaf85376,{'tag': '美食;外国餐厅'， 'type': 'cater'， 'detail_url': 'http://api.map.baidu.com/place/detail?uid=3e78b6534e367ac2eaf85376&output=html&source=placeapi_v2'， 'price': '118.0'， 'overall_rating': '4.5'， 'comment_num': '41'， 'children': []}
慕玛披萨Muapizza(乌兰察布路店),内蒙古自治区呼和浩特市新城区乌兰察布西街6号,111.705674,40.827158,内蒙古自治区,呼和浩特市,新城区,None,67a6559b523b7b048c55ec73,{'tag': '美食;外国餐厅'， 'type': 'cater'， 'detail_url': 'http://api.map.baidu.com/place/detail?uid=67a6559b523b7b048c55ec73&output=html&source=placeapi_v2'， 'price': '18.0'， 'overall_rating': '4.5'， 'comment_num': '32'， 'children': []}
大韩门(金宇文苑店),赛罕区内蒙古呼和浩特市赛罕区金宇文苑小区1号楼,111.707353,40.820894,内蒙古自治区,呼和浩特市,赛罕区,06ba85a29585547a21f01760,06ba85a29585547a21f01760,{'tag': '美食;外国餐厅'， 'navi_location': {'lng': 111.70749852222， 'lat': 40.820957802195}， 'type': 'cater'， 'detail_url': 'http://api.map.baidu.com/place/detail?uid=06ba85a29585547a21f01760&output=html&source=placeapi_v2'， 'price': '50.0'， 'overall_rating': '4.1'， 'comment_num': '106'， 'children': []}
憨胖妈重庆小面(农大东区店),呼和浩特市赛罕区大学东街与望兴园巷交叉路口西南侧(内蒙古农业大学东校区北侧),111.717351,40.821385,内蒙古自治区,呼和浩特市,赛罕区,2383d59b7a34cfae8c1a8930,2383d59b7a34cfae8c1a8930,{'tag': '美食;小吃快餐店'， 'type': 'cater'， 'detail_url': 'http://api.map.baidu.com/place/detail?uid=2383d59b7a34cfae8c1a8930&output=html&source=placeapi_v2'， 'price': '10.0'， 'overall_rating': '4.7'， 'comment_num': '27'， 'children': []}
芝士工厂(绿地店),敕勒川大道绿地塞尚公馆B座4号楼104号,111.760677,40.823094,内蒙古自治区,呼和浩特市,赛罕区,5bc6d178b6345db628b97cb6,5bc6d178b6345db628b97cb6,{'tag': '美食;蛋糕甜品店'， 'navi_location': {'lng': 111.76097322362， 'lat': 40.822927482079}， 'type': 'cater'， 'detail_url': 'http://api.map.baidu.com/place/detail?uid=5bc6d178b6345db628b97cb6&output=html&source=placeapi_v2'， 'price': '112.0'， 'overall_rating': '4.3'， 'comment_num': '43'， 'children': []}
海鹏丰镇月饼(金宇店),内蒙古自治区呼和浩特市赛罕区兴安南路173号,111.710874,40.823182,内蒙古自治区,呼和浩特市,赛罕区,None,091871f71dc0072903ec01fa,{'tag': '美食;蛋糕甜品店'， 'navi_location': {'lng': 111.71102976445， 'lat': 40.823107230088}， 'type': 'cater'， 'detail_url': 'http://api.map.baidu.com/place/detail?uid=091871f71dc0072903ec01fa&output=html&source=placeapi_v2'， 'price': '18.0'， 'overall_rating': '4.4'， 'comment_num': '27'， 'children': []}
汤姆家的优质牛排西餐厅(巨海邻里荟店),赛罕区鄂尔多斯大街与丰州路交叉口邻里荟购物中心4楼,111.745279,40.814211,内蒙古自治区,呼和浩特市,赛罕区,None,90aa756f8e00c628734b8799,{'tag': '美食;外国餐厅'， 'type': 'cater'， 'detail_url': 'http://api.map.baidu.com/place/detail?uid=90aa756f8e00c628734b8799&output=html&source=placeapi_v2'， 'price': '69.0'， 'overall_rating': '4.9'， 'comment_num': '40'， 'children': []}
乐田烘焙(师大店),内蒙古自治区呼和浩特市赛罕区内蒙古师范大学家属区东二区34,111.70208,40.812301,内蒙古自治区,呼和浩特市,赛罕区,0466d505d832df119c09f716,0466d505d832df119c09f716,{'tag': '美食;蛋糕甜品店'， 'type': 'cater'， 'detail_url': 'http://api.map.baidu.com/place/detail?uid=0466d505d832df119c09f716&output=html&source=placeapi_v2'， 'price': '22.0'， 'overall_rating': '4.6'， 'comment_num': '35'， 'children': []}
沪上阿姨(呼和浩特附中东巷店),附中东巷路西大学西街10号,111.699851,40.815324,内蒙古自治区,呼和浩特市,赛罕区,None,8394c6f4205c13329cec2bc5,{'tag': '美食;蛋糕甜品店'， 'navi_location': {'lng': 111.70007171764， 'lat': 40.815272259641}， 'type': 'cater'， 'detail_url': 'http://api.map.baidu.com/place/detail?uid=8394c6f4205c13329cec2bc5&output=html&source=placeapi_v2'， 'price': '14.0'， 'overall_rating': '4.1'， 'comment_num': '59'， 'children': []}
睦记禾谷特色炒饭,银河北街中海蓝湾财富广场C-120,111.728634,40.791426,内蒙古自治区,呼和浩特市,赛罕区,None,247210ec90bf897048cc4aa8,{'tag': '美食;小吃快餐店'， 'type': 'cater'， 'detail_url': 'http://api.map.baidu.com/place/detail?uid=247210ec90bf897048cc4aa8&output=html&source=placeapi_v2'， 'price': '17.0'， 'overall_rating': '5.0'， 'comment_num': '25'， 'children': []}
世成蛋糕(师大店),赛罕区前进巷老百姓饭店南50米(内蒙古师范大学西门),111.697352,40.809105,内蒙古自治区,呼和浩特市,赛罕区,None,3703d7e070179c914557261c,{'tag': '美食;蛋糕甜品店'， 'type': 'cater'， 'detail_url': 'http://api.map.baidu.com/place/detail?uid=3703d7e070179c914557261c&output=html&source=placeapi_v2'， 'price': '18.0'， 'overall_rating': '4.5'， 'comment_num': '76'， 'children': []}
鲜果时间(师大店),附中东巷4号,111.701358,40.812701,内蒙古自治区,呼和浩特市,赛罕区,7e59d3efda16cbf00bb93a7f,7e59d3efda16cbf00bb93a7f,{'tag': '美食;蛋糕甜品店'， 'navi_location': {'lng': 111.69991521844， 'lat': 40.815642131345}， 'type': 'cater'， 'detail_url': 'http://api.map.baidu.com/place/detail?uid=7e59d3efda16cbf00bb93a7f&output=html&source=placeapi_v2'， 'price': '9.0'， 'overall_rating': '4.7'， 'comment_num': '60'， 'children': []}
u度coffee(巨海城店),呼和浩特市赛罕区丰州南路与巨海城北巷交叉路口往西北约50米(巨华巨海城9区),111.741801,40.819733,内蒙古自治区,呼和浩特市,赛罕区,eb1a2682563a601b94031931,eb1a2682563a601b94031931,{'tag': '美食;咖啡厅'， 'navi_location': {'lng': 111.74200329205， 'lat': 40.819767228924}， 'type': 'cater'， 'detail_url': 'http://api.map.baidu.com/place/detail?uid=eb1a2682563a601b94031931&output=html&source=placeapi_v2'， 'price': '79.0'， 'overall_rating': '4.1'， 'comment_num': '19'， 'children': []}
Souler灵魂药剂师,内蒙古自治区呼和浩特市赛罕区博雅园(东影南路东),111.719677,40.826257,内蒙古自治区,呼和浩特市,赛罕区,927faf72a06fc4215810930f,927faf72a06fc4215810930f,{'tag': '美食;酒吧'， 'navi_location': {'lng': 111.71951780862， 'lat': 40.826180301851}， 'type': 'cater'， 'detail_url': 'http://api.map.baidu.com/place/detail?uid=927faf72a06fc4215810930f&output=html&source=placeapi_v2'， 'price': '168.0'， 'overall_rating': '4.6'， 'comment_num': '34'， 'children': []}
iMoment一刻咖啡,赛罕区敕勒川大街51号金隅朗峰C座4层,111.763556,40.819639,内蒙古自治区,呼和浩特市,赛罕区,4d9880bbdb94afb6eb12e446,4d9880bbdb94afb6eb12e446,{'tag': '美食;咖啡厅'， 'type': 'cater'， 'detail_url': 'http://api.map.baidu.com/place/detail?uid=4d9880bbdb94afb6eb12e446&output=html&source=placeapi_v2'， 'price': '80.0'， 'overall_rating': '4.9'， 'comment_num': '36'， 'children': []}
后宫BOX CLUB,呼和浩特赛罕区昭乌达路30号,111.701242,40.819205,内蒙古自治区,呼和浩特市,赛罕区,606289fd6731094da2046412,606289fd6731094da2046412,{'tag': '美食;酒吧'， 'type': 'cater'， 'detail_url': 'http://api.map.baidu.com/place/detail?uid=606289fd6731094da2046412&output=html&source=placeapi_v2'， 'price': '260.0'， 'overall_rating': '3.0'， 'comment_num': '9'， 'children': []}
上岛咖啡(中海店),呼和浩特市赛罕区丰州南路中海锦绣城底商,111.747645,40.806936,内蒙古自治区,呼和浩特市,赛罕区,3731f3fb0a3f42d45fbe86a9,3731f3fb0a3f42d45fbe86a9,{'tag': '美食;咖啡厅'， 'navi_location': {'lng': 111.74729815265， 'lat': 40.80671764946}， 'type': 'cater'， 'detail_url': 'http://api.map.baidu.com/place/detail?uid=3731f3fb0a3f42d45fbe86a9&output=html&source=placeapi_v2'， 'price': '78.0'， 'overall_rating': '3.9'， 'comment_num': '200'， 'children': []}
60颗豆咖啡(街边店),内蒙古自治区呼和浩特市赛罕区大学东街128号,111.702646,40.817481,内蒙古自治区,呼和浩特市,赛罕区,None,1e235fff2e2ad789ed74f849,{'tag': '美食;咖啡厅'， 'type': 'cater'， 'detail_url': 'http://api.map.baidu.com/place/detail?uid=1e235fff2e2ad789ed74f849&output=html&source=placeapi_v2'， 'price': '37.0'， 'overall_rating': '4.8'， 'comment_num': '39'， 'children': []}
北京北京酒吧(东护城河南街店),内蒙古自治区呼和浩特市新城区东护城河南街3号,111.706223,40.827277,内蒙古自治区,呼和浩特市,新城区,9aec968f376cb601c036448a,9aec968f376cb601c036448a,{'tag': '美食;酒吧'， 'navi_location': {'lng': 111.70617505949， 'lat': 40.827126334156}， 'type': 'cater'， 'detail_url': 'http://api.map.baidu.com/place/detail?uid=9aec968f376cb601c036448a&output=html&source=placeapi_v2'， 'price': '150.0'， 'overall_rating': '4.3'， 'comment_num': '16'， 'children': []}
MR.Bar音乐清吧,内蒙古自治区呼和浩特市赛罕区东影南路乌兰小区东门,111.719948,40.823774,内蒙古自治区,呼和浩特市,赛罕区,52fec73ae9f5d14f96ca077a,52fec73ae9f5d14f96ca077a,{'tag': '美食;酒吧'， 'type': 'cater'， 'detail_url': 'http://api.map.baidu.com/place/detail?uid=52fec73ae9f5d14f96ca077a&output=html&source=placeapi_v2'， 'price': '100.0'， 'overall_rating': '5.0'， 'comment_num': '28'， 'children': []}
树,金宇紫光45号楼,111.709653,40.823487,内蒙古自治区,呼和浩特市,赛罕区,d4034eb3cf97608bc036443b,d4034eb3cf97608bc036443b,{'tag': '美食;酒吧'， 'type': 'cater'， 'detail_url': 'http://api.map.baidu.com/place/detail?uid=d4034eb3cf97608bc036443b&output=html&source=placeapi_v2'， 'price': '70.0'， 'overall_rating': '5.0'， 'comment_num': '24'， 'children': []}
德顺源(博物馆店),呼伦贝尔北路星火巷12号博物馆旁,111.682701,40.831664,内蒙古自治区,呼和浩特市,新城区,70f4213c0408cfd559bbbcc7,70f4213c0408cfd559bbbcc7,{'tag': '美食;中餐厅'， 'navi_location': {'lng': 111.68247791555， 'lat': 40.831799919665}， 'type': 'cater'， 'detail_url': 'http://api.map.baidu.com/place/detail?uid=70f4213c0408cfd559bbbcc7&output=html&source=placeapi_v2'， 'price': '75.0'， 'overall_rating': '3.7'， 'comment_num': '99'， 'children': []}
老绥元烧麦(车站东街店),车站东街路北万豪酒店一楼,111.677353,40.835023,内蒙古自治区,呼和浩特市,新城区,5cde06cb3fb37f7b095cb3df,5cde06cb3fb37f7b095cb3df,{'tag': '美食;中餐厅'， 'navi_location': {'lng': 111.67737235576， 'lat': 40.834862508528}， 'type': 'cater'， 'detail_url': 'http://api.map.baidu.com/place/detail?uid=5cde06cb3fb37f7b095cb3df&output=html&source=placeapi_v2'， 'price': '37.0'， 'overall_rating': '4.4'， 'comment_num': '58'， 'children': []}
西贝莜面村(体育场店),内蒙古自治区呼和浩特市新城区成吉思汗大街新体育场西区,111.662588,40.85811,内蒙古自治区,呼和浩特市,新城区,b1c556e8587f7415b4265536,b1c556e8587f7415b4265536,{'tag': '美食;中餐厅'， 'navi_location': {'lng': 111.66234284669， 'lat': 40.857985091789}， 'type': 'cater'， 'detail_url': 'http://api.map.baidu.com/place/detail?uid=b1c556e8587f7415b4265536&output=html&source=placeapi_v2'， 'price': '99.0'， 'overall_rating': '4.5'， 'comment_num': '89'， 'children': []}
老绥元烧麦(工大店),爱民街205号,111.686723,40.850302,内蒙古自治区,呼和浩特市,新城区,0b0b697a5f42bab4ad080f10,0b0b697a5f42bab4ad080f10,{'tag': '美食;中餐厅'， 'navi_location': {'lng': 111.68706962931， 'lat': 40.850450977868}， 'type': 'cater'， 'detail_url': 'http://api.map.baidu.com/place/detail?uid=0b0b697a5f42bab4ad080f10&output=html&source=placeapi_v2'， 'price': '44.0'， 'overall_rating': '4.1'， 'comment_num': '36'， 'children': []}
佐炖道(鼓楼店),内蒙古自治区呼和浩特市新城区新华大街49号,111.688512,40.830645,内蒙古自治区,呼和浩特市,新城区,c4632ac494e020984f554703,c4632ac494e020984f554703,{'tag': '美食;中餐厅'， 'navi_location': {'lng': 111.68852508097， 'lat': 40.830382598406}， 'type': 'cater'， 'detail_url': 'http://api.map.baidu.com/place/detail?uid=c4632ac494e020984f554703&output=html&source=placeapi_v2'， 'price': '107.0'， 'overall_rating': '3.6'， 'comment_num': '61'， 'children': []}
乌兰花现羊杂,内蒙古自治区呼和浩特市回民区交通厅公路局住宅小区(文化宫路东),111.669584,40.829731,内蒙古自治区,呼和浩特市,回民区,cb730e4497442f488b2fb526,cb730e4497442f488b2fb526,{'tag': '美食;中餐厅'， 'navi_location': {'lng': 111.66944104932， 'lat': 40.82973033256}， 'type': 'cater'， 'detail_url': 'http://api.map.baidu.com/place/detail?uid=cb730e4497442f488b2fb526&output=html&source=placeapi_v2'， 'price': '13.0'， 'overall_rating': '4.8'， 'comment_num': '15'， 'children': []}
旺顺阁鱼头泡饼(赛马场店),内蒙古自治区呼和浩特市新城区呼伦贝尔北路26号,111.676726,40.857508,内蒙古自治区,呼和浩特市,新城区,8154a6f74b03cf8651e5c533,8154a6f74b03cf8651e5c533,{'tag': '美食;中餐厅'， 'navi_location': {'lng': 111.67624721014， 'lat': 40.857403569436}， 'type': 'cater'， 'detail_url': 'http://api.map.baidu.com/place/detail?uid=8154a6f74b03cf8651e5c533&output=html&source=placeapi_v2'， 'price': '87.0'， 'overall_rating': '4.6'， 'comment_num': '69'， 'children': []}
阿尔卑斯自助餐(西万达店),成吉思汗西街72号回民区万达广场4层4005,111.614421,40.837946,内蒙古自治区,呼和浩特市,回民区,a7b38e4dff12c3ab1ce999fc,a7b38e4dff12c3ab1ce999fc,{'tag': '美食;其他'， 'navi_location': {'lng': 111.61404784493， 'lat': 40.838448180269}， 'type': 'cater'， 'detail_url': 'http://api.map.baidu.com/place/detail?uid=a7b38e4dff12c3ab1ce999fc&output=html&source=placeapi_v2'， 'price': '71.0'， 'overall_rating': '3.9'， 'comment_num': '161'， 'children': []}
川把式串串香(军招店),内蒙古自治区呼和浩特市新城区呼伦贝尔北路42,111.678122,40.846019,内蒙古自治区,呼和浩特市,新城区,None,0b653c5031d1dbca1d5800bf,{'tag': '美食;中餐厅'， 'type': 'cater'， 'detail_url': 'http://api.map.baidu.com/place/detail?uid=0b653c5031d1dbca1d5800bf&output=html&source=placeapi_v2'， 'price': '60.0'， 'overall_rating': '4.7'， 'comment_num': '52'， 'children': []}
半亩地(麻花板社区店),兴安北路苏雅拉巷公园世家住宅区2号商业房,111.689621,40.859436,内蒙古自治区,呼和浩特市,新城区,4b1bfd0dc03106ac09b93ac8,4b1bfd0dc03106ac09b93ac8,{'tag': '美食;中餐厅'， 'navi_location': {'lng': 111.68940511315， 'lat': 40.859327826883}， 'type': 'cater'， 'detail_url': 'http://api.map.baidu.com/place/detail?uid=4b1bfd0dc03106ac09b93ac8&output=html&source=placeapi_v2'， 'overall_rating': '4.6'， 'comment_num': '16'， 'children': []}
鑫和盛宴大酒店,呼和浩特市新城区海拉尔大街46号,111.66983,40.84172,内蒙古自治区,呼和浩特市,新城区,1bf55a4a6383a53aca1b9537,1bf55a4a6383a53aca1b9537,{'tag': '美食;中餐厅'， 'navi_location': {'lng': 111.67003162411， 'lat': 40.842162847597}， 'type': 'cater'， 'detail_url': 'http://api.map.baidu.com/place/detail?uid=1bf55a4a6383a53aca1b9537&output=html&source=placeapi_v2'， 'price': '61.0'， 'overall_rating': '4.5'， 'comment_num': '18'， 'children': []}
一捞一世界火锅(文苑大厦店),哲里木路25号文苑大厦B座2层,111.68533,40.858354,内蒙古自治区,呼和浩特市,新城区,1b78c0d00a1482d6f02d83bc,1b78c0d00a1482d6f02d83bc,{'tag': '美食;中餐厅'， 'navi_location': {'lng': 111.68472517949， 'lat': 40.85825111465}， 'type': 'cater'， 'detail_url': 'http://api.map.baidu.com/place/detail?uid=1b78c0d00a1482d6f02d83bc&output=html&source=placeapi_v2'， 'price': '118.0'， 'overall_rating': '4.0'， 'comment_num': '20'， 'children': []}
群群骨头馆,内蒙古自治区呼和浩特市新城区哲里木路47号,111.68651,40.851039,内蒙古自治区,呼和浩特市,新城区,9b1da16119e08459734b8707,9b1da16119e08459734b8707,{'tag': '美食;中餐厅'， 'type': 'cater'， 'detail_url': 'http://api.map.baidu.com/place/detail?uid=9b1da16119e08459734b8707&output=html&source=placeapi_v2'， 'price': '54.0'， 'overall_rating': '4.5'， 'comment_num': '24'， 'children': []}
丽园海鲜(体育场店),成吉思汗大街体育场北区,111.663398,40.859388,内蒙古自治区,呼和浩特市,新城区,None,45b9137ebafbc0c7593ac87e,{'tag': '美食;中餐厅'， 'type': 'cater'， 'detail_url': 'http://api.map.baidu.com/place/detail?uid=45b9137ebafbc0c7593ac87e&output=html&source=placeapi_v2'， 'price': '199.0'， 'overall_rating': '4.3'， 'comment_num': '24'， 'children': []}
东北味道(呼和佳地店),内蒙古自治区呼和浩特市新城区哲里木路永盛成超市(工大店)旁边,111.684698,40.856519,内蒙古自治区,呼和浩特市,新城区,018af6367e4bc6dc4e2fdf0b,018af6367e4bc6dc4e2fdf0b,{'tag': '美食;中餐厅'， 'navi_location': {'lng': 111.68478275908， 'lat': 40.856516150714}， 'type': 'cater'， 'detail_url': 'http://api.map.baidu.com/place/detail?uid=018af6367e4bc6dc4e2fdf0b&output=html&source=placeapi_v2'， 'price': '56.0'， 'overall_rating': '3.8'， 'comment_num': '35'， 'children': []}
九田家韩餐烤肉(金茂店),内蒙古自治区呼和浩特市新城区成吉思汗大街金茂中心2号106,111.690161,40.863861,内蒙古自治区,呼和浩特市,新城区,4954f3efb82ae6f8bea8227d,4954f3efb82ae6f8bea8227d,{'tag': '美食;外国餐厅'， 'navi_location': {'lng': 111.68885895058， 'lat': 40.863807461592}， 'type': 'cater'， 'detail_url': 'http://api.map.baidu.com/place/detail?uid=4954f3efb82ae6f8bea8227d&output=html&source=placeapi_v2'， 'price': '74.0'， 'overall_rating': '3.9'， 'comment_num': '50'， 'children': []}
老绥元烧麦(山水小区店),内蒙古自治区呼和浩特市新城区成吉思汗大街山水路12号山水小区南门西侧,111.687752,40.86885,内蒙古自治区,呼和浩特市,新城区,14dce4a34e6467c178f796c6,14dce4a34e6467c178f796c6,{'tag': '美食;中餐厅'， 'navi_location': {'lng': 111.68749979728， 'lat': 40.868782488731}， 'type': 'cater'， 'detail_url': 'http://api.map.baidu.com/place/detail?uid=14dce4a34e6467c178f796c6&output=html&source=placeapi_v2'， 'price': '38.0'， 'overall_rating': '4.6'， 'comment_num': '27'， 'children': []}
巴盟小媳妇铁锅居(战备路店),呼和浩特市回民区战备路北口,111.669373,40.831225,内蒙古自治区,呼和浩特市,回民区,741d78f5e8c7878df119377b,741d78f5e8c7878df119377b,{'tag': '美食;中餐厅'， 'type': 'cater'， 'detail_url': 'http://api.map.baidu.com/place/detail?uid=741d78f5e8c7878df119377b&output=html&source=placeapi_v2'， 'price': '29.0'， 'overall_rating': '4.4'， 'comment_num': '34'， 'children': []}
扎木私房菜,呼和浩特市新城区财神庙街13号,111.689293,40.832744,内蒙古自治区,呼和浩特市,新城区,5e1507f273864edea80dd8e7,5e1507f273864edea80dd8e7,{'tag': '美食;中餐厅'， 'type': 'cater'， 'detail_url': 'http://api.map.baidu.com/place/detail?uid=5e1507f273864edea80dd8e7&output=html&source=placeapi_v2'， 'price': '50.0'， 'overall_rating': '4.4'， 'comment_num': '25'， 'children': []}
大东北(新城北街店),新城区新城北街元贞永街5号(草原明珠后巷),111.695398,40.833908,内蒙古自治区,呼和浩特市,新城区,dffd46425f8d4aab3c9a5e30,dffd46425f8d4aab3c9a5e30,{'tag': '美食;中餐厅'， 'navi_location': {'lng': 111.69538298418， 'lat': 40.833770756761}， 'type': 'cater'， 'detail_url': 'http://api.map.baidu.com/place/detail?uid=dffd46425f8d4aab3c9a5e30&output=html&source=placeapi_v2'， 'price': '44.0'， 'overall_rating': '4.3'， 'comment_num': '17'， 'children': []}
沸腾天下(兴安路店),内蒙古自治区呼和浩特市新城区兴安北路48号,111.695604,40.86282,内蒙古自治区,呼和浩特市,新城区,c218e454ffa8b0d2cb213d45,c218e454ffa8b0d2cb213d45,{'tag': '美食;中餐厅'， 'navi_location': {'lng': 111.69583709109， 'lat': 40.86281710728}， 'type': 'cater'， 'detail_url': 'http://api.map.baidu.com/place/detail?uid=c218e454ffa8b0d2cb213d45&output=html&source=placeapi_v2'， 'price': '88.0'， 'overall_rating': '4.0'， 'comment_num': '34'， 'children': []}
金麦庄饺子楼(光明路店),呼和浩特市回民区光明大街与新华桥北街交叉路口东北侧(兰太广场),111.657575,40.831167,内蒙古自治区,呼和浩特市,回民区,09e7dedcb91f5af9e9f8530a,09e7dedcb91f5af9e9f8530a,{'tag': '美食;小吃快餐店'， 'navi_location': {'lng': 111.65764114081， 'lat': 40.830945554111}， 'type': 'cater'， 'detail_url': 'http://api.map.baidu.com/place/detail?uid=09e7dedcb91f5af9e9f8530a&output=html&source=placeapi_v2'， 'price': '55.0'， 'overall_rating': '3.5'， 'comment_num': '26'， 'children': []}
智盛楼海鲜烤鸭,呼和浩特市回民区成吉思汗西街与工农兵路交叉路口往东北约100米(广龙苑小区),111.64494,40.856023,内蒙古自治区,呼和浩特市,回民区,None,feedc4fa529de0a3ede4a537,{'tag': '美食;中餐厅'， 'type': 'cater'， 'detail_url': 'http://api.map.baidu.com/place/detail?uid=feedc4fa529de0a3ede4a537&output=html&source=placeapi_v2'， 'overall_rating': '4.8'， 'comment_num': '16'， 'children': []}
袁记串串香(光明路店),内蒙古自治区呼和浩特市回民区光明路兰太广场9号,111.656773,40.830999,内蒙古自治区,呼和浩特市,回民区,d1aba69dc835341c9222e0a9,d1aba69dc835341c9222e0a9,{'tag': '美食;中餐厅'， 'navi_location': {'lng': 111.65764114081， 'lat': 40.830945554111}， 'type': 'cater'， 'detail_url': 'http://api.map.baidu.com/place/detail?uid=d1aba69dc835341c9222e0a9&output=html&source=placeapi_v2'， 'overall_rating': '3.4'， 'comment_num': '16'， 'children': []}
恒裕甲鱼庄,内蒙古自治区呼和浩特市新城区艺术厅北街3号,111.687067,40.83186,内蒙古自治区,呼和浩特市,新城区,34f68ab0b20ea9138f55ec32,34f68ab0b20ea9138f55ec32,{'tag': '美食;中餐厅'， 'navi_location': {'lng': 111.68687098971， 'lat': 40.831901648913}， 'type': 'cater'， 'detail_url': 'http://api.map.baidu.com/place/detail?uid=34f68ab0b20ea9138f55ec32&output=html&source=placeapi_v2'， 'price': '214.0'， 'overall_rating': '4.5'， 'comment_num': '14'， 'children': []}
小鱼海鲜餐厅(哲里木路店),内蒙古自治区呼和浩特市新城区哲理木路高速公路管理局南200米,111.681416,40.866891,内蒙古自治区,呼和浩特市,新城区,e4a48f35fd30b76c97031950,e4a48f35fd30b76c97031950,{'tag': '美食;中餐厅'， 'navi_location': {'lng': 111.68064201264， 'lat': 40.86662629965}， 'type': 'cater'， 'detail_url': 'http://api.map.baidu.com/place/detail?uid=e4a48f35fd30b76c97031950&output=html&source=placeapi_v2'， 'price': '82.0'， 'overall_rating': '4.6'， 'comment_num': '16'， 'children': []}
新城区呼和佳地风情丽江斑鱼火锅(哲里木路店),新海拉尔东路街道呼伦贝尔北路26号呼和佳地东门,111.683773,40.859034,内蒙古自治区,呼和浩特市,新城区,b55b5bfacc57919a704b87de,b55b5bfacc57919a704b87de,{'tag': '美食;中餐厅'， 'type': 'cater'， 'detail_url': 'http://api.map.baidu.com/place/detail?uid=b55b5bfacc57919a704b87de&output=html&source=placeapi_v2'， 'price': '48.0'， 'overall_rating': '4.4'， 'comment_num': '29'， 'children': []}
辣员外重庆老火锅(阿尔泰店),内蒙古自治区呼和浩特市新城区兴安北路56号邮苑小区南区1栋,111.694538,40.860177,内蒙古自治区,呼和浩特市,新城区,dfed06261f6715677ec87667,dfed06261f6715677ec87667,{'tag': '美食;中餐厅'， 'navi_location': {'lng': 111.69461681492， 'lat': 40.860148739435}， 'type': 'cater'， 'detail_url': 'http://api.map.baidu.com/place/detail?uid=dfed06261f6715677ec87667&output=html&source=placeapi_v2'， 'price': '146.0'， 'overall_rating': '4.5'， 'comment_num': '110'， 'children': []}
罕格尔传统蒙古火锅店(八一店),呼和浩特市新城区海拉尔大街与气象局西路交叉路口向东南约150米(鑫和银座),111.670238,40.842007,内蒙古自治区,呼和浩特市,新城区,None,f42cb3f4d336aaee441a32b2,{'tag': '美食;中餐厅'， 'type': 'cater'， 'detail_url': 'http://api.map.baidu.com/place/detail?uid=f42cb3f4d336aaee441a32b2&output=html&source=placeapi_v2'， 'price': '78.0'， 'overall_rating': '4.6'， 'comment_num': '10'， 'children': []}
楚田辣丫头时尚火锅胜利店(胜利路店),内蒙古自治区呼和浩特市新城区呼铁胜利路小区东北(胜利街北),111.686449,40.840409,内蒙古自治区,呼和浩特市,新城区,d24e48eb29b16cb7afee7af5,d24e48eb29b16cb7afee7af5,{'tag': '美食;中餐厅'， 'navi_location': {'lng': 111.68645226436， 'lat': 40.840165208185}， 'type': 'cater'， 'detail_url': 'http://api.map.baidu.com/place/detail?uid=d24e48eb29b16cb7afee7af5&output=html&source=placeapi_v2'， 'price': '95.0'， 'overall_rating': '3.1'， 'comment_num': '14'， 'children': []}
苏袁麻辣烫,总局街付茶馆巷西街办事处社区服务中心1号楼1单元金字塔小学对面,111.691229,40.83357,内蒙古自治区,呼和浩特市,新城区,a1372df8f28f8a92ede4a5f8,a1372df8f28f8a92ede4a5f8,{'tag': '美食;小吃快餐店'， 'navi_location': {'lng': 111.69135058686， 'lat': 40.833571672648}， 'type': 'cater'， 'detail_url': 'http://api.map.baidu.com/place/detail?uid=a1372df8f28f8a92ede4a5f8&output=html&source=placeapi_v2'， 'price': '24.0'， 'overall_rating': '4.1'， 'comment_num': '38'， 'children': []}
蒙A海鲜烧烤(阳光诺卡店),比塞塔商街与赛马场北路交叉口西北100米,111.688903,40.86121,内蒙古自治区,呼和浩特市,新城区,a50f01eb6070c0c1f7eafc09,a50f01eb6070c0c1f7eafc09,{'tag': '美食;中餐厅'， 'type': 'cater'， 'detail_url': 'http://api.map.baidu.com/place/detail?uid=a50f01eb6070c0c1f7eafc09&output=html&source=placeapi_v2'， 'price': '114.0'， 'overall_rating': '3.8'， 'comment_num': '8'， 'children': []}
木火大铁锅炖鱼村(呼和佳地店),呼和浩特市新城区哲里木路与赛马场北路交叉路口西南侧(呼和佳地),111.683852,40.85905,内蒙古自治区,呼和浩特市,新城区,346b9f7da8c2e9432cb17e30,346b9f7da8c2e9432cb17e30,{'tag': '美食;中餐厅'， 'navi_location': {'lng': 111.68397064948， 'lat': 40.85907384709}， 'type': 'cater'， 'detail_url': 'http://api.map.baidu.com/place/detail?uid=346b9f7da8c2e9432cb17e30&output=html&source=placeapi_v2'， 'price': '74.0'， 'overall_rating': '4.5'， 'comment_num': '26'， 'children': []}
真正豆腐坊(工大店),爱民路与哲里木路相交的十字路口西北角邻街处综合一、二层,111.686389,40.84961,内蒙古自治区,呼和浩特市,新城区,50f7d146d44737c472210b00,50f7d146d44737c472210b00,{'tag': '美食;中餐厅'， 'navi_location': {'lng': 111.68644160956， 'lat': 40.849396147608}， 'type': 'cater'， 'detail_url': 'http://api.map.baidu.com/place/detail?uid=50f7d146d44737c472210b00&output=html&source=placeapi_v2'， 'price': '16.0'， 'overall_rating': '4.6'， 'comment_num': '19'， 'children': []}
旺饺1号自助水饺餐厅,内蒙古自治区呼和浩特市新城区车站西街132号,111.666204,40.834922,内蒙古自治区,呼和浩特市,新城区,None,ce46ef7aefd687bd6fc02c56,{'tag': '美食;中餐厅'， 'type': 'cater'， 'detail_url': 'http://api.map.baidu.com/place/detail?uid=ce46ef7aefd687bd6fc02c56&output=html&source=placeapi_v2'， 'overall_rating': '3.8'， 'comment_num': '50'， 'children': []}
不老神鸡(气象店),新气象局西路与公主府街交口往南30米路东,111.668569,40.844146,内蒙古自治区,呼和浩特市,新城区,None,8b440f65cb747f21f72310b1,{'tag': '美食;中餐厅'， 'type': 'cater'， 'detail_url': 'http://api.map.baidu.com/place/detail?uid=8b440f65cb747f21f72310b1&output=html&source=placeapi_v2'， 'price': '31.0'， 'overall_rating': '4.4'， 'comment_num': '32'， 'children': []}
老佛爷炭火蛙锅(比塞塔店),内蒙古自治区呼和浩特市新城区比塞塔商街30号楼302商铺,111.688881,40.861386,内蒙古自治区,呼和浩特市,新城区,None,d8b922591b721b1eb75f1e53,{'tag': '美食;中餐厅'， 'type': 'cater'， 'detail_url': 'http://api.map.baidu.com/place/detail?uid=d8b922591b721b1eb75f1e53&output=html&source=placeapi_v2'， 'price': '120.0'， 'overall_rating': '4.0'， 'comment_num': '21'， 'children': []}
年青时代K歌餐饮,呼和浩特市新城区兴安北路69号,111.697079,40.856135,内蒙古自治区,呼和浩特市,新城区,49574f77508a9f980b69d91a,49574f77508a9f980b69d91a,{'tag': '美食;中餐厅'， 'navi_location': {'lng': 111.69678064964， 'lat': 40.855997202259}， 'type': 'cater'， 'detail_url': 'http://api.map.baidu.com/place/detail?uid=49574f77508a9f980b69d91a&output=html&source=placeapi_v2'， 'price': '69.0'， 'overall_rating': '4.5'， 'comment_num': '13'， 'children': []}
川把式串串香(体育场店),新城区赛马场北路天府花园小区北门底商体育场斜对面(希籽咖啡西100米路南),111.66125,40.855702,内蒙古自治区,呼和浩特市,新城区,None,4fe9391d1555f9bef6e73b64,{'tag': '美食;中餐厅'， 'type': 'cater'， 'detail_url': 'http://api.map.baidu.com/place/detail?uid=4fe9391d1555f9bef6e73b64&output=html&source=placeapi_v2'， 'price': '64.0'， 'overall_rating': '4.4'， 'comment_num': '42'， 'children': []}
丛林狼酱骨头(阳光诺卡店),内蒙古自治区呼和浩特市新城区阳光诺卡小区二期商业30号楼1010号商铺,111.688858,40.861458,内蒙古自治区,呼和浩特市,新城区,9856c56d5fbe89052afc48b5,9856c56d5fbe89052afc48b5,{'tag': '美食;中餐厅'， 'navi_location': {'lng': 111.68903305836， 'lat': 40.861351435752}， 'type': 'cater'， 'detail_url': 'http://api.map.baidu.com/place/detail?uid=9856c56d5fbe89052afc48b5&output=html&source=placeapi_v2'， 'price': '30.0'， 'overall_rating': '4.4'， 'comment_num': '24'， 'children': []}
巨华国际大酒店-天穹旋转餐厅,新城区成吉思汗大街20号巨华国际大酒店内,111.673997,40.861006,内蒙古自治区,呼和浩特市,新城区,81a486f8a5523c8af6eafcbc,c4a27ff2f4c98d164c6d466b,{'tag': '美食;中餐厅'， 'navi_location': {'lng': 111.67465504716， 'lat': 40.861098402242}， 'type': 'cater'， 'detail_url': 'http://api.map.baidu.com/place/detail?uid=c4a27ff2f4c98d164c6d466b&output=html&source=placeapi_v2'， 'price': '210.0'， 'overall_rating': '4.6'， 'comment_num': '15'， 'children': []}
鸿蒙食府,内蒙古自治区呼和浩特市新城区海拉尔大街16号,111.696874,40.845612,内蒙古自治区,呼和浩特市,新城区,None,c6d5bb7dcdfdeea8354aaeaa,{'tag': '美食;中餐厅'， 'type': 'cater'， 'detail_url': 'http://api.map.baidu.com/place/detail?uid=c6d5bb7dcdfdeea8354aaeaa&output=html&source=placeapi_v2'， 'overall_rating': '4.7'， 'comment_num': '9'， 'children': []}
川把式串串香(西万达店),内蒙古自治区呼和浩特市回民区成吉思汗西街99号万达金街内(万达广场7号门对面),111.614675,40.837127,内蒙古自治区,呼和浩特市,回民区,None,640a62720912757cc7effb4c,{'tag': '美食;中餐厅'， 'type': 'cater'， 'detail_url': 'http://api.map.baidu.com/place/detail?uid=640a62720912757cc7effb4c&output=html&source=placeapi_v2'， 'price': '52.0'， 'overall_rating': '4.9'， 'comment_num': '11'， 'children': []}
陆雨饺子(餐饮部),内蒙古自治区呼和浩特市新城区火车站东街金航宾馆二楼,111.67939,40.835274,内蒙古自治区,呼和浩特市,新城区,da7d81b1f7b507a145e27460,da7d81b1f7b507a145e27460,{'tag': '美食;小吃快餐店'， 'type': 'cater'， 'detail_url': 'http://api.map.baidu.com/place/detail?uid=da7d81b1f7b507a145e27460&output=html&source=placeapi_v2'， 'price': '53.0'， 'overall_rating': '4.3'， 'comment_num': '33'， 'children': []}
浩翔草原城(阿尔泰店),兴安北路51号附近,111.695673,40.859477,内蒙古自治区,呼和浩特市,新城区,7fed8704a5e69083fe0eb0f2,7fed8704a5e69083fe0eb0f2,{'tag': '美食;中餐厅'， 'navi_location': {'lng': 111.69534484033， 'lat': 40.859402798049}， 'type': 'cater'， 'detail_url': 'http://api.map.baidu.com/place/detail?uid=7fed8704a5e69083fe0eb0f2&output=html&source=placeapi_v2'， 'price': '131.0'， 'overall_rating': '4.5'， 'comment_num': '10'， 'children': []}
额尔吉传统铜锅涮(工厂店),内蒙古自治区呼和浩特市回民区成吉思汗大街西万达对面恒大雅苑西门对面,111.614216,40.841394,内蒙古自治区,呼和浩特市,回民区,cf45c06642ceff704207c125,cf45c06642ceff704207c125,{'tag': '美食;中餐厅'， 'type': 'cater'， 'detail_url': 'http://api.map.baidu.com/place/detail?uid=cf45c06642ceff704207c125&output=html&source=placeapi_v2'， 'price': '16.0'， 'overall_rating': '4.2'， 'comment_num': '20'， 'children': []}
寂寞的豆芽(工大店),内蒙古自治区呼和浩特市新城区哲里木路比萨塔商街109号，东方文苑南门,111.687844,40.858274,内蒙古自治区,呼和浩特市,新城区,9f5ea2574dd064711d1d117a,9f5ea2574dd064711d1d117a,{'tag': '美食;其他'， 'navi_location': {'lng': 111.68805327744， 'lat': 40.858041357248}， 'type': 'cater'， 'detail_url': 'http://api.map.baidu.com/place/detail?uid=9f5ea2574dd064711d1d117a&output=html&source=placeapi_v2'， 'price': '86.0'， 'overall_rating': '4.2'， 'comment_num': '50'， 'children': []}
辣椒炒肉(体育场店),呼和浩特市新城区城市维也纳西门北20,111.663571,40.854783,内蒙古自治区,呼和浩特市,新城区,5f9cc6659d0ffd3842afe674,5f9cc6659d0ffd3842afe674,{'tag': '美食;中餐厅'， 'navi_location': {'lng': 111.66328080443， 'lat': 40.85478485332}， 'type': 'cater'， 'detail_url': 'http://api.map.baidu.com/place/detail?uid=5f9cc6659d0ffd3842afe674&output=html&source=placeapi_v2'， 'price': '48.0'， 'overall_rating': '4.5'， 'comment_num': '16'， 'children': []}
辣员外重庆老火锅(西万达店),呼和浩特市回民区成吉思汗西街万达广场4层,111.614079,40.83782,内蒙古自治区,呼和浩特市,回民区,None,91b88b8e8cc985bbeb12e453,{'tag': '美食;中餐厅'， 'navi_location': {'lng': 111.61606137158， 'lat': 40.839218941313}， 'type': 'cater'， 'detail_url': 'http://api.map.baidu.com/place/detail?uid=91b88b8e8cc985bbeb12e453&output=html&source=placeapi_v2'， 'price': '77.0'， 'overall_rating': '4.3'， 'comment_num': '87'， 'children': []}
德顺源(气象局西巷店),呼和浩特市新城区气象局西路与公主府街交叉路口西北侧(绿华宾馆),111.667936,40.845025,内蒙古自治区,呼和浩特市,新城区,2285e8d368fae01404fef51c,2285e8d368fae01404fef51c,{'tag': '美食;中餐厅'， 'navi_location': {'lng': 111.66811770787， 'lat': 40.845064050897}， 'type': 'cater'， 'detail_url': 'http://api.map.baidu.com/place/detail?uid=2285e8d368fae01404fef51c&output=html&source=placeapi_v2'， 'price': '63.0'， 'overall_rating': '4.2'， 'comment_num': '34'， 'children': []}
真正豆腐坊(车站西街店),车站西街帝豪酒店首层,111.668537,40.835096,内蒙古自治区,呼和浩特市,新城区,b388f9fdbbfdc258b35c6a18,b388f9fdbbfdc258b35c6a18,{'tag': '美食;中餐厅'， 'type': 'cater'， 'detail_url': 'http://api.map.baidu.com/place/detail?uid=b388f9fdbbfdc258b35c6a18&output=html&source=placeapi_v2'， 'price': '25.0'， 'overall_rating': '4.2'， 'comment_num': '15'， 'children': []}
老绥元烧麦(阿尔泰店),兴安北路49号邮苑小区第栋1、2联体商业房7号,111.694079,40.860655,内蒙古自治区,呼和浩特市,新城区,None,6878f6e1aa88f2fd49fd3fe4,{'tag': '美食;中餐厅'， 'navi_location': {'lng': 111.69416792716， 'lat': 40.860740366182}， 'type': 'cater'， 'detail_url': 'http://api.map.baidu.com/place/detail?uid=6878f6e1aa88f2fd49fd3fe4&output=html&source=placeapi_v2'， 'price': '30.0'， 'overall_rating': '4.6'， 'comment_num': '16'， 'children': []}
尚吾家45°鱼,兴安北路与育才巷交叉口(阿尔泰游乐园北侧，草原城底商),111.695716,40.859153,内蒙古自治区,呼和浩特市,新城区,a182feb8dcd55bd6c9e33c0e,a182feb8dcd55bd6c9e33c0e,{'tag': '美食;中餐厅'， 'type': 'cater'， 'detail_url': 'http://api.map.baidu.com/place/detail?uid=a182feb8dcd55bd6c9e33c0e&output=html&source=placeapi_v2'， 'price': '48.0'， 'overall_rating': '4.1'， 'comment_num': '20'， 'children': []}
老街坊(铜锅涮总店),呼和浩特市新城区比塞塔商街与赛马场北路交叉口北100米,111.689417,40.860801,内蒙古自治区,呼和浩特市,新城区,7a87af51581602fe0b69d99e,7a87af51581602fe0b69d99e,{'tag': '美食;中餐厅'， 'navi_location': {'lng': 111.68916108396， 'lat': 40.860904309809}， 'type': 'cater'， 'detail_url': 'http://api.map.baidu.com/place/detail?uid=7a87af51581602fe0b69d99e&output=html&source=placeapi_v2'， 'price': '61.0'， 'overall_rating': '4.1'， 'comment_num': '15'， 'children': []}
有身份的羊精品精品涮肉坊,内蒙古自治区呼和浩特市新城区兴安北路山水酒店1楼,111.696143,40.862457,内蒙古自治区,呼和浩特市,新城区,1a30760bf862867c2ce67b5a,1a30760bf862867c2ce67b5a,{'tag': '美食;中餐厅'， 'navi_location': {'lng': 111.6958198093， 'lat': 40.86251814781}， 'type': 'cater'， 'detail_url': 'http://api.map.baidu.com/place/detail?uid=1a30760bf862867c2ce67b5a&output=html&source=placeapi_v2'， 'price': '50.0'， 'overall_rating': '4.4'， 'comment_num': '20'， 'children': []}
唐食语粥(西万达店),内蒙古自治区呼和浩特市回民区成吉思汗大街万达广场4楼4050号,111.614497,40.838151,内蒙古自治区,呼和浩特市,回民区,None,af6641391a1a3605f4e73bf5,{'tag': '美食;小吃快餐店'， 'type': 'cater'， 'detail_url': 'http://api.map.baidu.com/place/detail?uid=af6641391a1a3605f4e73bf5&output=html&source=placeapi_v2'， 'price': '42.0'， 'overall_rating': '4.7'， 'comment_num': '39'， 'children': []}
田林川蒜瓣鱼,鼓楼立交桥草原明珠后巷元贞永街9号,111.695782,40.833937,内蒙古自治区,呼和浩特市,新城区,5b25f4463ddd63f310293537,5b25f4463ddd63f310293537,{'tag': '美食;中餐厅'， 'type': 'cater'， 'detail_url': 'http://api.map.baidu.com/place/detail?uid=5b25f4463ddd63f310293537&output=html&source=placeapi_v2'， 'price': '37.0'， 'overall_rating': '4.2'， 'comment_num': '30'， 'children': []}
希籽烘焙(滨海店),呼和浩特市新城区哲里木路滨海商业广场B区1044,111.68421,40.861531,内蒙古自治区,呼和浩特市,新城区,4b89a8e9122f907f6b49f3a4,4b89a8e9122f907f6b49f3a4,{'tag': '美食;蛋糕甜品店'， 'navi_location': {'lng': 111.68370560813， 'lat': 40.861415515569}， 'type': 'cater'， 'detail_url': 'http://api.map.baidu.com/place/detail?uid=4b89a8e9122f907f6b49f3a4&output=html&source=placeapi_v2'， 'price': '63.0'， 'overall_rating': '4.2'， 'comment_num': '31'， 'children': []}
老绥元烧麦(车站西街店),呼和浩特市新城区车站西街金太广场(北京华联金太店)1层,111.666896,40.835025,内蒙古自治区,呼和浩特市,新城区,e0cd2e9399f3668dc72ba1b5,e0cd2e9399f3668dc72ba1b5,{'tag': '美食;中餐厅'， 'type': 'cater'， 'detail_url': 'http://api.map.baidu.com/place/detail?uid=e0cd2e9399f3668dc72ba1b5&output=html&source=placeapi_v2'， 'price': '30.0'， 'overall_rating': '4.6'， 'comment_num': '43'， 'children': []}
坛老徐有料酸菜鱼(体育场店),气象局西路城市维也纳西门底商6号,111.664059,40.854009,内蒙古自治区,呼和浩特市,新城区,None,046020e15945a4081d580055,{'tag': '美食;中餐厅'， 'type': 'cater'， 'detail_url': 'http://api.map.baidu.com/place/detail?uid=046020e15945a4081d580055&output=html&source=placeapi_v2'， 'price': '56.0'， 'overall_rating': '4.7'， 'comment_num': '37'， 'children': []}
不老神鸡(二五三店),内蒙古自治区呼和浩特市新城区爱民街59号,111.680599,40.848398,内蒙古自治区,呼和浩特市,新城区,714080f218e06e520782c26b,714080f218e06e520782c26b,{'tag': '美食;中餐厅'， 'type': 'cater'， 'detail_url': 'http://api.map.baidu.com/place/detail?uid=714080f218e06e520782c26b&output=html&source=placeapi_v2'， 'price': '37.0'， 'overall_rating': '4.8'， 'comment_num': '21'， 'children': []}
比格比萨(滨海广场店),成吉思汗大街滨海友谊商业广场3层,111.684314,40.862067,内蒙古自治区,呼和浩特市,新城区,6fea0c0029952073abf729d7,6fea0c0029952073abf729d7,{'tag': '美食;外国餐厅'， 'type': 'cater'， 'detail_url': 'http://api.map.baidu.com/place/detail?uid=6fea0c0029952073abf729d7&output=html&source=placeapi_v2'， 'price': '59.0'， 'overall_rating': '4.8'， 'comment_num': '131'， 'children': []}
徽商大酒店餐厅,哲里木路2号,111.681178,40.871495,内蒙古自治区,呼和浩特市,新城区,96320af8389b44de4f6d4677,96320af8389b44de4f6d4677,{'tag': '美食;中餐厅'， 'type': 'cater'， 'detail_url': 'http://api.map.baidu.com/place/detail?uid=96320af8389b44de4f6d4677&output=html&source=placeapi_v2'， 'price': '35.0'， 'overall_rating': '4.4'， 'comment_num': '23'， 'children': []}
李先生(车站店),内蒙古自治区呼和浩特市新城区国贸大厦C座1027号,111.671475,40.834855,内蒙古自治区,呼和浩特市,新城区,f9fd6062536205060f0e6b18,f9fd6062536205060f0e6b18,{'tag': '美食;小吃快餐店'， 'type': 'cater'， 'detail_url': 'http://api.map.baidu.com/place/detail?uid=f9fd6062536205060f0e6b18&output=html&source=placeapi_v2'， 'price': '27.0'， 'overall_rating': '3.9'， 'comment_num': '34'， 'children': []}
阳百捞自助水饺火锅(创美戴斯店),光明路街道24号创美戴斯酒店2楼,111.649988,40.82988,内蒙古自治区,呼和浩特市,回民区,None,a680defa7ba23164343a714a,{'tag': '美食;中餐厅'， 'type': 'cater'， 'detail_url': 'http://api.map.baidu.com/place/detail?uid=a680defa7ba23164343a714a&output=html&source=placeapi_v2'， 'price': '27.0'， 'overall_rating': '4.5'， 'comment_num': '29'， 'children': []}
不老神鸡(中山里店),内蒙古自治区呼和浩特市新城区美新花园西区11/12,111.67226,40.840075,内蒙古自治区,呼和浩特市,新城区,027a601400c6b19fa5da3953,027a601400c6b19fa5da3953,{'tag': '美食;中餐厅'， 'navi_location': {'lng': 111.67209561487， 'lat': 40.8399827123}， 'type': 'cater'， 'detail_url': 'http://api.map.baidu.com/place/detail?uid=027a601400c6b19fa5da3953&output=html&source=placeapi_v2'， 'price': '31.0'， 'overall_rating': '4.3'， 'comment_num': '31'， 'children': []}
华香面粥(车站西店),呼和浩特新城区车站西街14号,111.669914,40.835007,内蒙古自治区,呼和浩特市,新城区,e8b4ea15e38f7c34d4851fc5,e8b4ea15e38f7c34d4851fc5,{'tag': '美食;小吃快餐店'， 'type': 'cater'， 'detail_url': 'http://api.map.baidu.com/place/detail?uid=e8b4ea15e38f7c34d4851fc5&output=html&source=placeapi_v2'， 'price': '18.0'， 'overall_rating': '4.1'， 'comment_num': '18'， 'children': []}
肯德基(滨海友谊餐厅),哲里木路与成吉思汗大街交口处滨海友谊购物中心商场一层,111.685793,40.863163,内蒙古自治区,呼和浩特市,新城区,7732ba7cfc97c37388b98856,7732ba7cfc97c37388b98856,{'tag': '美食;小吃快餐店'， 'type': 'cater'， 'detail_url': 'http://api.map.baidu.com/place/detail?uid=7732ba7cfc97c37388b98856&output=html&source=placeapi_v2'， 'price': '29.0'， 'overall_rating': '3.9'， 'comment_num': '10'， 'children': []}
和玺源稍麦,内蒙古自治区呼和浩特市新城区海天巷4,111.697005,40.847525,内蒙古自治区,呼和浩特市,新城区,7b35ac09ed4f5219475726bc,7b35ac09ed4f5219475726bc,{'tag': '美食;中餐厅'， 'type': 'cater'， 'detail_url': 'http://api.map.baidu.com/place/detail?uid=7b35ac09ed4f5219475726bc&output=html&source=placeapi_v2'， 'price': '22.0'， 'overall_rating': '4.7'， 'comment_num': '15'， 'children': []}
老绥元烧麦(党委店),哲里木路118号新城区医院底店,111.692258,40.837368,内蒙古自治区,呼和浩特市,新城区,9edf679924f070d7f5c59cde,9edf679924f070d7f5c59cde,{'tag': '美食;小吃快餐店'， 'navi_location': {'lng': 111.69235339854， 'lat': 40.837421869675}， 'type': 'cater'， 'detail_url': 'http://api.map.baidu.com/place/detail?uid=9edf679924f070d7f5c59cde&output=html&source=placeapi_v2'， 'price': '46.0'， 'overall_rating': '4.4'， 'comment_num': '73'， 'children': []}
麦当劳(回民区万达广场餐厅),呼和浩特市回民区成吉思汗西街万达广场步行街一层1001号,111.613957,40.838085,内蒙古自治区,呼和浩特市,回民区,None,fa0f347d41bcdacb51e5c5c5,{'tag': '美食;小吃快餐店'， 'type': 'cater'， 'detail_url': 'http://api.map.baidu.com/place/detail?uid=fa0f347d41bcdacb51e5c5c5&output=html&source=placeapi_v2'， 'price': '26.0'， 'overall_rating': '5.0'， 'comment_num': '57'， 'children': []}
额尔敦全羊馆,呼和浩特市新城区成吉思汗大街体育场东门01,111.665079,40.858534,内蒙古自治区,呼和浩特市,新城区,None,2136576d4246b076ed74f815,{'tag': '美食;中餐厅'， 'type': 'cater'， 'detail_url': 'http://api.map.baidu.com/place/detail?uid=2136576d4246b076ed74f815&output=html&source=placeapi_v2'， 'price': '89.0'， 'overall_rating': '4.8'， 'comment_num': '152'， 'children': []}
山光悦鸟日本料理(比塞塔商业街店),新城区比塞塔商业街32-107号,111.688924,40.861102,内蒙古自治区,呼和浩特市,新城区,None,936322e8f145a6ec223bf2df,{'tag': '美食;外国餐厅'， 'type': 'cater'， 'detail_url': 'http://api.map.baidu.com/place/detail?uid=936322e8f145a6ec223bf2df&output=html&source=placeapi_v2'， 'price': '152.0'， 'overall_rating': '4.6'， 'comment_num': '73'， 'children': []}
洛有有新中式餐厅,内蒙古自治区呼和浩特市新城区新华大街49号,111.688475,40.830651,内蒙古自治区,呼和浩特市,新城区,None,75cb130d3618fe058d77274a,{'tag': '美食;小吃快餐店'， 'type': 'cater'， 'detail_url': 'http://api.map.baidu.com/place/detail?uid=75cb130d3618fe058d77274a&output=html&source=placeapi_v2'， 'overall_rating': '4.2'， 'comment_num': '11'， 'children': []}
必胜客(滨海友谊餐厅),呼和浩特市新城区成吉思汗大街滨海友谊广场DE区二层,111.685898,40.86317,内蒙古自治区,呼和浩特市,新城区,ca7ab3dce5825c7642d63edf,ca7ab3dce5825c7642d63edf,{'tag': '美食;外国餐厅'， 'navi_location': {'lng': 111.68577962307， 'lat': 40.863365504475}， 'type': 'cater'， 'detail_url': 'http://api.map.baidu.com/place/detail?uid=ca7ab3dce5825c7642d63edf&output=html&source=placeapi_v2'， 'price': '74.0'， 'overall_rating': '4.7'， 'comment_num': '38'， 'children': []}
川夫人毛肚火锅(西万达店),成吉思汗大街西万达四楼4026号,111.615055,40.838479,内蒙古自治区,呼和浩特市,回民区,None,53d6614ebb6a398c441a32e4,{'tag': '美食;中餐厅'， 'type': 'cater'， 'detail_url': 'http://api.map.baidu.com/place/detail?uid=53d6614ebb6a398c441a32e4&output=html&source=placeapi_v2'， 'price': '80.0'， 'overall_rating': '4.2'， 'comment_num': '28'， 'children': []}
张大宝熏鸡,呼和浩特市新城区海天巷与百益巷交叉路口北侧(内蒙古商品交易中心),111.697003,40.849492,内蒙古自治区,呼和浩特市,新城区,349e5c772a5ed89a3a04b1bd,349e5c772a5ed89a3a04b1bd,{'tag': '美食;小吃快餐店'， 'navi_location': {'lng': 111.69676742299， 'lat': 40.849549859174}， 'type': 'cater'， 'detail_url': 'http://api.map.baidu.com/place/detail?uid=349e5c772a5ed89a3a04b1bd&output=html&source=placeapi_v2'， 'overall_rating': '3.7'， 'comment_num': '8'， 'children': []}
德克士(呼和浩特市火车站餐厅),呼和浩特市新城区车站西街海亮国贸大厦1-2层,111.671528,40.834756,内蒙古自治区,呼和浩特市,新城区,e96b4420601bc22482288a43,e96b4420601bc22482288a43,{'tag': '美食;小吃快餐店'， 'navi_location': {'lng': 111.67205533844， 'lat': 40.834537230868}， 'type': 'cater'， 'detail_url': 'http://api.map.baidu.com/place/detail?uid=e96b4420601bc22482288a43&output=html&source=placeapi_v2'， 'price': '38.0'， 'overall_rating': '4.2'， 'comment_num': '34'， 'children': []}
同德果木烤鸭(新世纪店),内蒙古自治区呼和浩特市新城区西护城河巷218号,111.683645,40.831474,内蒙古自治区,呼和浩特市,新城区,5b3acd639cc9a589922ca3b9,5b3acd639cc9a589922ca3b9,{'tag': '美食;中餐厅'， 'type': 'cater'， 'detail_url': 'http://api.map.baidu.com/place/detail?uid=5b3acd639cc9a589922ca3b9&output=html&source=placeapi_v2'， 'price': '74.0'， 'overall_rating': '4.6'， 'comment_num': '61'， 'children': []}
塞汗部落铁帽烤肉(山水总店),山水路山水商务广场A1005-2号,111.687874,40.868764,内蒙古自治区,呼和浩特市,新城区,None,faa978cbdad5fbe899005070,{'tag': '美食;其他'， 'type': 'cater'， 'detail_url': 'http://api.map.baidu.com/place/detail?uid=faa978cbdad5fbe899005070&output=html&source=placeapi_v2'， 'price': '38.0'， 'overall_rating': '4.8'， 'comment_num': '200'， 'children': []}
意林(光明路店),内蒙古自治区呼和浩特市回民区光明大街兰太广场对面,111.65691,40.830531,内蒙古自治区,呼和浩特市,回民区,6848804b02f766eacf06a40e,6848804b02f766eacf06a40e,{'tag': '美食;蛋糕甜品店'， 'type': 'cater'， 'detail_url': 'http://api.map.baidu.com/place/detail?uid=6848804b02f766eacf06a40e&output=html&source=placeapi_v2'， 'price': '20.0'， 'overall_rating': '3.5'， 'comment_num': '3'， 'children': []}
戈壁牛羊时尚爆锅牛肉(西万达店),万达广场4层,111.614911,40.838121,内蒙古自治区,呼和浩特市,回民区,7f1c88ceb59567a5c72ba17a,7f1c88ceb59567a5c72ba17a,{'tag': '美食;中餐厅'， 'navi_location': {'lng': 111.616281， 'lat': 40.839937976514}， 'type': 'cater'， 'detail_url': 'http://api.map.baidu.com/place/detail?uid=7f1c88ceb59567a5c72ba17a&output=html&source=placeapi_v2'， 'price': '100.0'， 'overall_rating': '4.7'， 'comment_num': '179'， 'children': []}
麦当劳(车站西街餐厅),呼和浩特市新城区车站西街国际商贸城C区1层,111.67168,40.834777,内蒙古自治区,呼和浩特市,新城区,None,1dd636c6f74b3330d3ff2304,{'tag': '美食;小吃快餐店'， 'type': 'cater'， 'detail_url': 'http://api.map.baidu.com/place/detail?uid=1dd636c6f74b3330d3ff2304&output=html&source=placeapi_v2'， 'price': '26.0'， 'overall_rating': '5.0'， 'comment_num': '75'， 'children': []}
麦当劳(呼和浩特火车站餐厅),内蒙古自治区呼和浩特市新城区火车站二层西候车厅内,111.671214,40.836126,内蒙古自治区,呼和浩特市,新城区,88005495f4ca371f5e17c3e9,88005495f4ca371f5e17c3e9,{'tag': '美食;小吃快餐店'， 'type': 'cater'， 'detail_url': 'http://api.map.baidu.com/place/detail?uid=88005495f4ca371f5e17c3e9&output=html&source=placeapi_v2'， 'price': '33.0'， 'overall_rating': '4.9'， 'comment_num': '85'， 'children': []}
意林(军招店),内蒙古自治区呼和浩特市新城区八一市场北门大隆惠仓超市,111.674786,40.847906,内蒙古自治区,呼和浩特市,新城区,0e8262a2feae1048a80dd804,0e8262a2feae1048a80dd804,{'tag': '美食;蛋糕甜品店'， 'type': 'cater'， 'detail_url': 'http://api.map.baidu.com/place/detail?uid=0e8262a2feae1048a80dd804&output=html&source=placeapi_v2'， 'price': '17.0'， 'overall_rating': '4.0'， 'comment_num': '1'， 'children': []}
风干牛肉,内蒙古自治区呼和浩特市新城区爱民街55号,111.684492,40.84928,内蒙古自治区,呼和浩特市,新城区,98f7f51bc28f8175b21e366f,98f7f51bc28f8175b21e366f,{'tag': '美食;小吃快餐店'， 'navi_location': {'lng': 111.68449185182， 'lat': 40.849279928766}， 'type': 'cater'， 'detail_url': 'http://api.map.baidu.com/place/detail?uid=98f7f51bc28f8175b21e366f&output=html&source=placeapi_v2'， 'price': '50.0'， 'overall_rating': '4.7'， 'comment_num': '18'， 'children': []}
绝味鸭脖(战备路店),呼和浩特市回民区战备路135号,111.669286,40.829644,内蒙古自治区,呼和浩特市,回民区,45f23eed1858f1c38d772763,45f23eed1858f1c38d772763,{'tag': '美食;小吃快餐店'， 'type': 'cater'， 'detail_url': 'http://api.map.baidu.com/place/detail?uid=45f23eed1858f1c38d772763&output=html&source=placeapi_v2'， 'price': '28.0'， 'overall_rating': '4.5'， 'comment_num': '20'， 'children': []}
爱辣啵啵鱼(工大店),呼和浩特市新城区苏雅拉巷与哲里木路交叉路口往东约100米(东方文苑),111.686152,40.857962,内蒙古自治区,呼和浩特市,新城区,None,acd235585eb4d4f1c4f50d53,{'tag': '美食;小吃快餐店'， 'type': 'cater'， 'detail_url': 'http://api.map.baidu.com/place/detail?uid=acd235585eb4d4f1c4f50d53&output=html&source=placeapi_v2'， 'price': '40.0'， 'overall_rating': '4.3'， 'comment_num': '35'， 'children': []}
金仕顿海鲜自助餐,内蒙古自治区呼和浩特市新城区海拉尔东路15号(金仕顿大酒店3楼),111.689423,40.845791,内蒙古自治区,呼和浩特市,新城区,4de1521aef246b08f02d8356,4de1521aef246b08f02d8356,{'tag': '美食;外国餐厅'， 'type': 'cater'， 'detail_url': 'http://api.map.baidu.com/place/detail?uid=4de1521aef246b08f02d8356&output=html&source=placeapi_v2'， 'price': '87.0'， 'overall_rating': '4.5'， 'comment_num': '40'， 'children': []}
德克士(呼和浩特火车站二餐厅),呼和浩特市新城区车站西街火车西站候车厅1层,111.672459,40.836602,内蒙古自治区,呼和浩特市,新城区,4cb29e02eb24b9bd9fec2bf4,4cb29e02eb24b9bd9fec2bf4,{'tag': '美食;小吃快餐店'， 'type': 'cater'， 'detail_url': 'http://api.map.baidu.com/place/detail?uid=4cb29e02eb24b9bd9fec2bf4&output=html&source=placeapi_v2'， 'price': '39.0'， 'overall_rating': '4.3'， 'comment_num': '22'， 'children': []}
杨国福麻辣烫(八一店),内蒙古自治区呼和浩特市新城区八一路东田造型对面,111.674644,40.84528,内蒙古自治区,呼和浩特市,新城区,3100d6d571a75dd8b42655d4,3100d6d571a75dd8b42655d4,{'tag': '美食;小吃快餐店'， 'navi_location': {'lng': 111.6747959931， 'lat': 40.845242023042}， 'type': 'cater'， 'detail_url': 'http://api.map.baidu.com/place/detail?uid=3100d6d571a75dd8b42655d4&output=html&source=placeapi_v2'， 'price': '24.0'， 'overall_rating': '4.8'， 'comment_num': '25'， 'children': []}
弗爵士起司蛋糕甜品(工大店),爱民街53号,111.685821,40.849155,内蒙古自治区,呼和浩特市,新城区,edebd59ae143e76ce9f853fa,edebd59ae143e76ce9f853fa,{'tag': '美食;蛋糕甜品店'， 'type': 'cater'， 'detail_url': 'http://api.map.baidu.com/place/detail?uid=edebd59ae143e76ce9f853fa&output=html&source=placeapi_v2'， 'price': '10.0'， 'overall_rating': '4.8'， 'comment_num': '23'， 'children': []}
DQ(西万达店),成吉思汗西街万达广场4楼4038号,111.614614,40.83815,内蒙古自治区,呼和浩特市,回民区,None,e6230528ee746ab84afc8dd0,{'tag': '美食;蛋糕甜品店'， 'type': 'cater'， 'detail_url': 'http://api.map.baidu.com/place/detail?uid=e6230528ee746ab84afc8dd0&output=html&source=placeapi_v2'， 'price': '27.0'， 'overall_rating': '4.1'， 'comment_num': '19'， 'children': []}
优麦佳烘焙(财大南街店),内蒙古自治区呼和浩特市回民区厂汉板商业街1号楼24号正北方向130米,111.639346,40.857102,内蒙古自治区,呼和浩特市,回民区,605ac01281fc26368c55ec5a,605ac01281fc26368c55ec5a,{'tag': '美食;蛋糕甜品店'， 'type': 'cater'， 'detail_url': 'http://api.map.baidu.com/place/detail?uid=605ac01281fc26368c55ec5a&output=html&source=placeapi_v2'， 'price': '30.0'， 'overall_rating': '4.6'， 'comment_num': '15'， 'children': []}
与芳鲜奶(北垣街店),星火巷星火小区3号楼A座,111.682653,40.833773,内蒙古自治区,呼和浩特市,新城区,50ef5b2468cc2ee10e0e6b90,ced41925039864fa0ab93a39,{'tag': '美食;蛋糕甜品店'， 'type': 'cater'， 'detail_url': 'http://api.map.baidu.com/place/detail?uid=ced41925039864fa0ab93a39&output=html&source=placeapi_v2'， 'price': '8.0'， 'overall_rating': '4.7'， 'comment_num': '23'， 'children': []}
麦克烘焙(西万达店),成吉思汗西街西万达万达华府A2-1033号商铺,111.612008,40.837419,内蒙古自治区,呼和浩特市,回民区,None,c6610dadadcee6349fec2b75,{'tag': '美食;蛋糕甜品店'， 'type': 'cater'， 'detail_url': 'http://api.map.baidu.com/place/detail?uid=c6610dadadcee6349fec2b75&output=html&source=placeapi_v2'， 'price': '25.0'， 'overall_rating': '4.3'， 'comment_num': '42'， 'children': []}
西堤岛咖啡(呼和浩特店),新华大街61号,111.68453,40.829747,内蒙古自治区,呼和浩特市,新城区,22e11407ab49a7add5b74e10,22e11407ab49a7add5b74e10,{'tag': '美食;咖啡厅'， 'navi_location': {'lng': 111.68447837993， 'lat': 40.829640975392}， 'type': 'cater'， 'detail_url': 'http://api.map.baidu.com/place/detail?uid=22e11407ab49a7add5b74e10&output=html&source=placeapi_v2'， 'price': '199.0'， 'overall_rating': '3.8'， 'comment_num': '62'， 'children': []}
希籽咖啡(体育场店),呼和浩特市新城区赛马场北路与气象局西路交叉路口往西南约100米(金程酒店),111.662275,40.855812,内蒙古自治区,呼和浩特市,新城区,75517c5a9ce1e304deee8b38,75517c5a9ce1e304deee8b38,{'tag': '美食;咖啡厅'， 'navi_location': {'lng': 111.66250388682， 'lat': 40.855918149616}， 'type': 'cater'， 'detail_url': 'http://api.map.baidu.com/place/detail?uid=75517c5a9ce1e304deee8b38&output=html&source=placeapi_v2'， 'price': '73.0'， 'overall_rating': '4.2'， 'comment_num': '38'， 'children': []}
上岛咖啡(鼓楼店),新城区哲里木路嘉誉阳光酒店一楼(鼓楼立交桥北100米路西),111.693764,40.833909,内蒙古自治区,呼和浩特市,新城区,b8dca4f3b46aa99b2b06ce75,b8dca4f3b46aa99b2b06ce75,{'tag': '美食;咖啡厅'， 'navi_location': {'lng': 111.69364522565， 'lat': 40.834132039931}， 'type': 'cater'， 'detail_url': 'http://api.map.baidu.com/place/detail?uid=b8dca4f3b46aa99b2b06ce75&output=html&source=placeapi_v2'， 'price': '64.0'， 'overall_rating': '4.2'， 'comment_num': '24'， 'children': []}
金太阳大饭店,内蒙古自治区呼和浩特市回民区通道北街181号,111.660595,40.830721,内蒙古自治区,呼和浩特市,回民区,15e1e85eabe081bb58109331,15e1e85eabe081bb58109331,{'tag': '酒店;其他'， 'navi_location': {'lng': 111.66111861079， 'lat': 40.830953551019}， 'type': 'hotel'， 'detail_url': 'http://api.map.baidu.com/place/detail?uid=15e1e85eabe081bb58109331&output=html&source=placeapi_v2'， 'price': '170.0'， 'overall_rating': '4.4'， 'service_rating': '4.3'， 'facility_rating': '4.3'， 'hygiene_rating': '4.3'， 'image_num': '100'， 'comment_num': '103'， 'favorite_num': '0'， 'checkin_num': '0'， 'children': []}
湾奈酒吧,内蒙古呼和浩特市新城区成吉思汗大街财富港一层105号,111.687212,40.863443,内蒙古自治区,呼和浩特市,新城区,None,f3899a95cd6c9a4bd518b7e9,{'tag': '美食;酒吧'， 'navi_location': {'lng': 111.68756657012， 'lat': 40.863837730061}， 'type': 'cater'， 'detail_url': 'http://api.map.baidu.com/place/detail?uid=f3899a95cd6c9a4bd518b7e9&output=html&source=placeapi_v2'， 'overall_rating': '4.8'， 'comment_num': '21'， 'children': []}
春秋酒馆,内蒙古自治区呼和浩特市新城区新华大街132号,111.691152,40.830213,内蒙古自治区,呼和浩特市,新城区,614b8e5011b1d9d44151c029,614b8e5011b1d9d44151c029,{'tag': '美食;酒吧'， 'type': 'cater'， 'detail_url': 'http://api.map.baidu.com/place/detail?uid=614b8e5011b1d9d44151c029&output=html&source=placeapi_v2'， 'price': '76.0'， 'overall_rating': '4.9'， 'comment_num': '19'， 'children': []}
老绥元烧麦(如意店),呼和浩特市赛罕区亿峰岛东门,111.752722,40.84744,内蒙古自治区,呼和浩特市,赛罕区,e71bef15763adf0732870abb,e71bef15763adf0732870abb,{'tag': '美食;中餐厅'， 'navi_location': {'lng': 111.75289768346， 'lat': 40.847745701458}， 'type': 'cater'， 'detail_url': 'http://api.map.baidu.com/place/detail?uid=e71bef15763adf0732870abb&output=html&source=placeapi_v2'， 'price': '43.0'， 'overall_rating': '4.2'， 'comment_num': '90'， 'children': []}
泽成冰煮羊(东岸国际直营店),内蒙古自治区呼和浩特市赛罕区科尔沁快速路如意开发区东岸国际香槟街法国马康克洛酒庄旁边,111.781344,40.836138,内蒙古自治区,呼和浩特市,赛罕区,99749aa5c8ccb9ff8d772708,99749aa5c8ccb9ff8d772708,{'tag': '美食;中餐厅'， 'navi_location': {'lng': 111.78163653923， 'lat': 40.836217106533}， 'type': 'cater'， 'detail_url': 'http://api.map.baidu.com/place/detail?uid=99749aa5c8ccb9ff8d772708&output=html&source=placeapi_v2'， 'price': '112.0'， 'overall_rating': '4.5'， 'comment_num': '83'， 'children': []}
浩翔餐饮(一家村店),爱民街金谷农村合作银行东北30米,111.740796,40.860336,内蒙古自治区,呼和浩特市,新城区,4dc067fcb4db65b0d62ce2a4,4dc067fcb4db65b0d62ce2a4,{'tag': '美食;中餐厅'， 'navi_location': {'lng': 111.74086566986， 'lat': 40.86025185747}， 'type': 'cater'， 'detail_url': 'http://api.map.baidu.com/place/detail?uid=4dc067fcb4db65b0d62ce2a4&output=html&source=placeapi_v2'， 'price': '65.0'， 'overall_rating': '3.9'， 'comment_num': '25'， 'children': []}
额尔敦手扒肉(腾飞北路店),腾飞北路名都和景底商,111.744778,40.86471,内蒙古自治区,呼和浩特市,新城区,None,7463d1c72b0f41187ec87602,{'tag': '美食;中餐厅'， 'type': 'cater'， 'detail_url': 'http://api.map.baidu.com/place/detail?uid=7463d1c72b0f41187ec87602&output=html&source=placeapi_v2'， 'price': '98.0'， 'overall_rating': '4.9'， 'comment_num': '149'， 'children': []}
北国之春生态园(乌兰察布店),内蒙古自治区呼和浩特市赛罕区乌兰察布东路246号楼4楼,111.735446,40.832513,内蒙古自治区,呼和浩特市,赛罕区,005861086b8129a546e27410,005861086b8129a546e27410,{'tag': '美食;中餐厅'， 'navi_location': {'lng': 111.73584150643， 'lat': 40.832196828665}， 'type': 'cater'， 'detail_url': 'http://api.map.baidu.com/place/detail?uid=005861086b8129a546e27410&output=html&source=placeapi_v2'， 'overall_rating': '4.4'， 'comment_num': '78'， 'children': []}
格日勒阿妈奶茶馆(东影北街店),新城区东影北街与新华东街交汇口向北100米路东(长乐宫北),111.71464,40.838961,内蒙古自治区,呼和浩特市,新城区,b292b3aafc94454fbe484232,b292b3aafc94454fbe484232,{'tag': '美食;中餐厅'， 'navi_location': {'lng': 111.71454702071， 'lat': 40.83892921223}， 'type': 'cater'， 'detail_url': 'http://api.map.baidu.com/place/detail?uid=b292b3aafc94454fbe484232&output=html&source=placeapi_v2'， 'price': '68.0'， 'overall_rating': '4.4'， 'comment_num': '92'， 'children': []}
老贝尔杂碎馆,内蒙古自治区呼和浩特市新城区电动住宅区6,111.70687,40.838951,内蒙古自治区,呼和浩特市,新城区,00586108a7d2edbc46e27434,00586108a7d2edbc46e27434,{'tag': '美食;中餐厅'， 'navi_location': {'lng': 111.70695658888， 'lat': 40.838820897771}， 'type': 'cater'， 'detail_url': 'http://api.map.baidu.com/place/detail?uid=00586108a7d2edbc46e27434&output=html&source=placeapi_v2'， 'price': '24.0'， 'overall_rating': '4.5'， 'comment_num': '141'， 'children': []}
西贝爱丽格斯(东岸国际店),呼和浩特市赛罕区如意开发区东岸国际东门香槟街,111.780806,40.837242,内蒙古自治区,呼和浩特市,赛罕区,2a0153e422230b4ed1f49eda,2a0153e422230b4ed1f49eda,{'tag': '美食;中餐厅'， 'navi_location': {'lng': 111.78091275472， 'lat': 40.837300434438}， 'type': 'cater'， 'detail_url': 'http://api.map.baidu.com/place/detail?uid=2a0153e422230b4ed1f49eda&output=html&source=placeapi_v2'， 'price': '186.0'， 'overall_rating': '4.6'， 'comment_num': '75'， 'children': []}
半亩地莜面小厨团结小区(总店),呼和浩特市新城区新华东街57号,111.735228,40.842162,内蒙古自治区,呼和浩特市,新城区,fb94c4567a531d38b5f42f12,fb94c4567a531d38b5f42f12,{'tag': '美食;小吃快餐店'， 'navi_location': {'lng': 111.73518715375， 'lat': 40.842037929038}， 'type': 'cater'， 'detail_url': 'http://api.map.baidu.com/place/detail?uid=fb94c4567a531d38b5f42f12&output=html&source=placeapi_v2'， 'price': '59.0'， 'overall_rating': '4.1'， 'comment_num': '19'， 'children': []}
厚厨(鼓楼店),内蒙古自治区呼和浩特市新城区护城河南街金钱豹大酒店向南走400米路东(维多利国际广场),111.704429,40.831676,内蒙古自治区,呼和浩特市,新城区,fe36d58b898324a84c3a59b0,fe36d58b898324a84c3a59b0,{'tag': '美食;中餐厅'， 'navi_location': {'lng': 111.70393082373， 'lat': 40.831723425702}， 'type': 'cater'， 'detail_url': 'http://api.map.baidu.com/place/detail?uid=fe36d58b898324a84c3a59b0&output=html&source=placeapi_v2'， 'price': '66.0'， 'overall_rating': '4.2'， 'comment_num': '72'， 'children': []}
满都拉图蒙牛馆,内蒙古自治区呼和浩特市赛罕区五纬路如意开发区讨号板新村,111.759424,40.831699,内蒙古自治区,呼和浩特市,赛罕区,f203a6a5c42f1acf48fd3f20,f203a6a5c42f1acf48fd3f20,{'tag': '美食;中餐厅'， 'navi_location': {'lng': 111.75932516269， 'lat': 40.831791893246}， 'type': 'cater'， 'detail_url': 'http://api.map.baidu.com/place/detail?uid=f203a6a5c42f1acf48fd3f20&output=html&source=placeapi_v2'， 'price': '98.0'， 'overall_rating': '4.6'， 'comment_num': '29'， 'children': []}
大鸭梨烤鸭店(呼市兴安北路店),内蒙古自治区呼和浩特市新城区兴安北路11号(近润宇装饰城),111.699812,40.8501,内蒙古自治区,呼和浩特市,新城区,3be122e1d8c2524b1ef74d36,3be122e1d8c2524b1ef74d36,{'tag': '美食;中餐厅'， 'navi_location': {'lng': 111.69944516302， 'lat': 40.849971651376}， 'type': 'cater'， 'detail_url': 'http://api.map.baidu.com/place/detail?uid=3be122e1d8c2524b1ef74d36&output=html&source=placeapi_v2'， 'price': '103.0'， 'overall_rating': '4.7'， 'comment_num': '200'， 'children': []}
宴宾楼,如意和大街8号附近,111.780764,40.836792,内蒙古自治区,呼和浩特市,赛罕区,f9e1f9919d33413b41d63e77,f9e1f9919d33413b41d63e77,{'tag': '美食;中餐厅'， 'navi_location': {'lng': 111.7813984182， 'lat': 40.836792649838}， 'type': 'cater'， 'detail_url': 'http://api.map.baidu.com/place/detail?uid=f9e1f9919d33413b41d63e77&output=html&source=placeapi_v2'， 'price': '83.0'， 'overall_rating': '3.9'， 'comment_num': '21'， 'children': []}
格日勒阿妈奶茶馆(东岸店),如意开发区东岸国际二期东北门,111.781543,40.83602,内蒙古自治区,呼和浩特市,赛罕区,75fe66d7e62c85700ab93a85,75fe66d7e62c85700ab93a85,{'tag': '美食;中餐厅'， 'navi_location': {'lng': 111.78126346038， 'lat': 40.835703697778}， 'type': 'cater'， 'detail_url': 'http://api.map.baidu.com/place/detail?uid=75fe66d7e62c85700ab93a85&output=html&source=placeapi_v2'， 'price': '68.0'， 'overall_rating': '4.4'， 'comment_num': '43'， 'children': []}
老绥元烧麦(乌兰察布东街店),内蒙古自治区呼和浩特市赛罕区乌兰察布东街中国建设银行西,111.724446,40.83115,内蒙古自治区,呼和浩特市,赛罕区,6886cdaa3ad333024054d798,6886cdaa3ad333024054d798,{'tag': '美食;中餐厅'， 'navi_location': {'lng': 111.72434035916， 'lat': 40.831263814667}， 'type': 'cater'， 'detail_url': 'http://api.map.baidu.com/place/detail?uid=6886cdaa3ad333024054d798&output=html&source=placeapi_v2'， 'price': '34.0'， 'overall_rating': '4.5'， 'comment_num': '36'， 'children': []}
额尔敦传统涮(加州华府店),新城区北二环快速路展东路出口加州华府二期西门口,111.72295,40.871403,内蒙古自治区,呼和浩特市,新城区,861201057935dd3c0482c29d,861201057935dd3c0482c29d,{'tag': '美食;中餐厅'， 'navi_location': {'lng': 111.7225471616， 'lat': 40.871386890837}， 'type': 'cater'， 'detail_url': 'http://api.map.baidu.com/place/detail?uid=861201057935dd3c0482c29d&output=html&source=placeapi_v2'， 'price': '104.0'， 'overall_rating': '4.7'， 'comment_num': '73'， 'children': []}
拾来运转一锅鲜,呼和浩特市赛罕区如意区归国留学生创业园区富恒国际,111.758684,40.83448,内蒙古自治区,呼和浩特市,赛罕区,e06a561e952cf3a73de2314d,e06a561e952cf3a73de2314d,{'tag': '美食;中餐厅'， 'navi_location': {'lng': 111.75862110676， 'lat': 40.834589225415}， 'type': 'cater'， 'detail_url': 'http://api.map.baidu.com/place/detail?uid=e06a561e952cf3a73de2314d&output=html&source=placeapi_v2'， 'price': '66.0'， 'overall_rating': '4.3'， 'comment_num': '14'， 'children': []}
女神大酒店(展东路店),内蒙古自治区呼和浩特市赛罕区展览馆东路22号,111.727495,40.839102,内蒙古自治区,呼和浩特市,赛罕区,f633606ae81969570b69d933,f633606ae81969570b69d933,{'tag': '美食;中餐厅'， 'navi_location': {'lng': 111.72719721761， 'lat': 40.838963645167}， 'type': 'cater'， 'detail_url': 'http://api.map.baidu.com/place/detail?uid=f633606ae81969570b69d933&output=html&source=placeapi_v2'， 'price': '80.0'， 'overall_rating': '4.0'， 'comment_num': '56'， 'children': []}
六本木日本料理(万达店),万达广场2期4组团1号楼,111.739863,40.837605,内蒙古自治区,呼和浩特市,赛罕区,3cad1ecb99c1722d1d580067,3cad1ecb99c1722d1d580067,{'tag': '美食;外国餐厅'， 'navi_location': {'lng': 111.74004709525， 'lat': 40.837649327705}， 'type': 'cater'， 'detail_url': 'http://api.map.baidu.com/place/detail?uid=3cad1ecb99c1722d1d580067&output=html&source=placeapi_v2'， 'price': '139.0'， 'overall_rating': '4.2'， 'comment_num': '31'， 'children': []}
蒙浩炭火烤羊腿,内蒙古自治区呼和浩特市赛罕区新华东街26-35,111.74109,40.841427,内蒙古自治区,呼和浩特市,赛罕区,77348a3e957f29adab175a83,77348a3e957f29adab175a83,{'tag': '美食;其他'， 'type': 'cater'， 'detail_url': 'http://api.map.baidu.com/place/detail?uid=77348a3e957f29adab175a83&output=html&source=placeapi_v2'， 'price': '87.0'， 'overall_rating': '4.4'， 'comment_num': '50'， 'children': []}
阿牧郎番茄火锅(乌兰察布路店),内蒙古自治区呼和浩特市赛罕区乌兰察布东街昭君花园x座,111.717199,40.829453,内蒙古自治区,呼和浩特市,赛罕区,None,bbae1d16577370f0774ff101,{'tag': '美食;中餐厅'， 'type': 'cater'， 'detail_url': 'http://api.map.baidu.com/place/detail?uid=bbae1d16577370f0774ff101&output=html&source=placeapi_v2'， 'price': '85.0'， 'overall_rating': '4.5'， 'comment_num': '26'， 'children': []}
肯德基(呼和浩特万达广场餐厅),呼和浩特市赛罕区新华东街26号万达广场1层,111.742759,40.842444,内蒙古自治区,呼和浩特市,赛罕区,564bc4bfdf3a660c2cb96de7,564bc4bfdf3a660c2cb96de7,{'tag': '美食;小吃快餐店'， 'navi_location': {'lng': 111.74096601418， 'lat': 40.842722151649}， 'indoor_floor': 'F2'， 'type': 'cater'， 'detail_url': 'http://api.map.baidu.com/place/detail?uid=564bc4bfdf3a660c2cb96de7&output=html&source=placeapi_v2'， 'price': '22.0'， 'overall_rating': '4.5'， 'comment_num': '16'， 'children': []}
德顺源(海腾名苑店),内蒙古自治区呼和浩特市新城区鸿祥食府(爱民街南),111.714696,40.853675,内蒙古自治区,呼和浩特市,新城区,6c359b41410564d24d55471f,6c359b41410564d24d55471f,{'tag': '美食;中餐厅'， 'navi_location': {'lng': 111.71567374285， 'lat': 40.851024454841}， 'type': 'cater'， 'detail_url': 'http://api.map.baidu.com/place/detail?uid=6c359b41410564d24d55471f&output=html&source=placeapi_v2'， 'price': '53.0'， 'overall_rating': '3.7'， 'comment_num': '15'， 'children': []}
袁记串串香(万达店),内蒙古自治区呼和浩特市赛罕区新华东街26号,111.743658,40.839992,内蒙古自治区,呼和浩特市,赛罕区,cd0561644333b3279d09f72b,cd0561644333b3279d09f72b,{'tag': '美食;中餐厅'， 'navi_location': {'lng': 111.74361796117， 'lat': 40.839876877048}， 'type': 'cater'， 'detail_url': 'http://api.map.baidu.com/place/detail?uid=cd0561644333b3279d09f72b&output=html&source=placeapi_v2'， 'price': '54.0'， 'overall_rating': '4.3'， 'comment_num': '8'， 'children': []}
谭记叁拾三間堂意境私房菜,新华东街62号维多利摩尔城A座L9层,111.716882,40.836749,内蒙古自治区,呼和浩特市,赛罕区,259f56600d84f22a8bb988b3,fe1b4e03516982f8220220f6,{'tag': '美食;中餐厅'， 'navi_location': {'lng': 111.71711947844， 'lat': 40.83726908591}， 'type': 'cater'， 'detail_url': 'http://api.map.baidu.com/place/detail?uid=fe1b4e03516982f8220220f6&output=html&source=placeapi_v2'， 'price': '84.0'， 'overall_rating': '4.2'， 'comment_num': '200'， 'children': []}
浩翔餐饮(喜悦广场店),呼和浩特市新城区喜悦广场西南角,111.699167,40.870756,内蒙古自治区,呼和浩特市,新城区,None,a7e9acd152f87fae9a68b4bf,{'tag': '美食;中餐厅'， 'navi_location': {'lng': 111.69925981205， 'lat': 40.870556002201}， 'type': 'cater'， 'detail_url': 'http://api.map.baidu.com/place/detail?uid=a7e9acd152f87fae9a68b4bf&output=html&source=placeapi_v2'， 'overall_rating': '4.1'， 'comment_num': '17'， 'children': []}
万达文华酒店(中餐厅),新华大街26号万达广场西50米富力万达文华酒店二楼,111.738192,40.841951,内蒙古自治区,呼和浩特市,赛罕区,None,023648d1f10ce1411188240e,{'tag': '美食;中餐厅'， 'type': 'cater'， 'detail_url': 'http://api.map.baidu.com/place/detail?uid=023648d1f10ce1411188240e&output=html&source=placeapi_v2'， 'price': '230.0'， 'overall_rating': '4.4'， 'comment_num': '10'， 'children': []}
海丰酒店,内蒙古自治区呼和浩特市赛罕区如意和大街海关大厦旁,111.779763,40.839395,内蒙古自治区,呼和浩特市,赛罕区,None,1cd72ddbf8a85fe332f71d62,{'tag': '美食;中餐厅'， 'type': 'cater'， 'detail_url': 'http://api.map.baidu.com/place/detail?uid=1cd72ddbf8a85fe332f71d62&output=html&source=placeapi_v2'， 'price': '100.0'， 'overall_rating': '5.0'， 'comment_num': '4'， 'children': []}
呷哺呷哺(摩尔城店),内蒙古自治区呼和浩特市赛罕区新华东街62号摩尔城A座负一层,111.716625,40.836651,内蒙古自治区,呼和浩特市,赛罕区,None,97999b2191067757c1f1cf19,{'tag': '美食;中餐厅'， 'type': 'cater'， 'detail_url': 'http://api.map.baidu.com/place/detail?uid=97999b2191067757c1f1cf19&output=html&source=placeapi_v2'， 'price': '52.0'， 'overall_rating': '4.7'， 'comment_num': '78'， 'children': []}
三狼龙虾(呼市总店),内蒙古自治区呼和浩特市赛罕区兴安南路4号,111.7086,40.830314,内蒙古自治区,呼和浩特市,赛罕区,None,292aad8c8a61c513734b8732,{'tag': '美食;中餐厅'， 'navi_location': {'lng': 111.70833978084， 'lat': 40.830034741993}， 'type': 'cater'， 'detail_url': 'http://api.map.baidu.com/place/detail?uid=292aad8c8a61c513734b8732&output=html&source=placeapi_v2'， 'price': '108.0'， 'overall_rating': '3.9'， 'comment_num': '39'， 'children': []}
辣员外重庆老火锅,中专路街道新华东街万达广场二期期底商二区一段1033号,111.742167,40.839349,内蒙古自治区,呼和浩特市,赛罕区,dcd3cd1359fa7a5f250bd0c3,dcd3cd1359fa7a5f250bd0c3,{'tag': '美食;中餐厅'， 'navi_location': {'lng': 111.74177045665， 'lat': 40.83935455768}， 'type': 'cater'， 'detail_url': 'http://api.map.baidu.com/place/detail?uid=dcd3cd1359fa7a5f250bd0c3&output=html&source=placeapi_v2'， 'overall_rating': '4.5'， 'comment_num': '162'， 'children': []}
汗昭格烤全羊,赛罕区如意开发区如意和大街18号商业街,111.780737,40.837527,内蒙古自治区,呼和浩特市,赛罕区,aac1f3ca658b7793b35c6a85,aac1f3ca658b7793b35c6a85,{'tag': '美食;中餐厅'， 'navi_location': {'lng': 111.78079049713， 'lat': 40.837575064636}， 'type': 'cater'， 'detail_url': 'http://api.map.baidu.com/place/detail?uid=aac1f3ca658b7793b35c6a85&output=html&source=placeapi_v2'， 'price': '146.0'， 'overall_rating': '5.0'， 'comment_num': '9'， 'children': []}
泰阁暹罗餐厅(万达店),新华东街万达广场西巷东馨园别墅C座3号,111.737934,40.840739,内蒙古自治区,呼和浩特市,赛罕区,ece1bf71540d97460ab93ac9,ece1bf71540d97460ab93ac9,{'tag': '美食;中餐厅'， 'navi_location': {'lng': 111.73814260493， 'lat': 40.840884035511}， 'type': 'cater'， 'detail_url': 'http://api.map.baidu.com/place/detail?uid=ece1bf71540d97460ab93ac9&output=html&source=placeapi_v2'， 'price': '116.0'， 'overall_rating': '4.5'， 'comment_num': '38'， 'children': []}
七仔牛(润宇总店),兴安北路11号,111.700418,40.848657,内蒙古自治区,呼和浩特市,新城区,cbbf6afe8cbbc64f210220c9,cbbf6afe8cbbc64f210220c9,{'tag': '美食;中餐厅'， 'navi_location': {'lng': 111.70010887203， 'lat': 40.848507518733}， 'type': 'cater'， 'detail_url': 'http://api.map.baidu.com/place/detail?uid=cbbf6afe8cbbc64f210220c9&output=html&source=placeapi_v2'， 'price': '83.0'， 'overall_rating': '4.3'， 'comment_num': '45'， 'children': []}
肉蟹煲,赛罕区新华东街维多利摩尔城8楼,111.716594,40.83683,内蒙古自治区,呼和浩特市,赛罕区,None,c666a1d388fcf79d0f3dda74,{'tag': '美食;中餐厅'， 'type': 'cater'， 'detail_url': 'http://api.map.baidu.com/place/detail?uid=c666a1d388fcf79d0f3dda74&output=html&source=placeapi_v2'， 'price': '64.0'， 'overall_rating': '3.8'， 'comment_num': '92'， 'children': []}
云南仙湖生态石锅鱼,呼和浩特市赛罕区耕耘大厦西巷,111.755079,40.844496,内蒙古自治区,呼和浩特市,赛罕区,2a7b8e107a9080a8d518b78d,2a7b8e107a9080a8d518b78d,{'tag': '美食;中餐厅'， 'navi_location': {'lng': 111.75482041388， 'lat': 40.844328325483}， 'type': 'cater'， 'detail_url': 'http://api.map.baidu.com/place/detail?uid=2a7b8e107a9080a8d518b78d&output=html&source=placeapi_v2'， 'price': '69.0'， 'overall_rating': '4.8'， 'comment_num': '104'， 'children': []}
渝乡川菜馆(万达店),新华东街26-29号万达广场,111.740954,40.841449,内蒙古自治区,呼和浩特市,赛罕区,4547a6013929165aebf85363,672c056b654634da29fc481c,{'tag': '美食;中餐厅'， 'type': 'cater'， 'detail_url': 'http://api.map.baidu.com/place/detail?uid=672c056b654634da29fc481c&output=html&source=placeapi_v2'， 'price': '26.0'， 'overall_rating': '4.7'， 'comment_num': '200'， 'children': []}
东北阿满海鲜烧烤,内蒙古自治区呼和浩特市新城区展东路幸福小区大门南20米,111.723974,40.848433,内蒙古自治区,呼和浩特市,新城区,6a6cf7266b920ce55a3ac8ec,6a6cf7266b920ce55a3ac8ec,{'tag': '美食;中餐厅'， 'navi_location': {'lng': 111.72372079326， 'lat': 40.848465378656}， 'type': 'cater'， 'detail_url': 'http://api.map.baidu.com/place/detail?uid=6a6cf7266b920ce55a3ac8ec&output=html&source=placeapi_v2'， 'overall_rating': '4.2'， 'comment_num': '12'， 'children': []}
辣喔诱火锅(摩尔城店),新华东街62号维多利摩尔城A座L9层,111.716496,40.836928,内蒙古自治区,呼和浩特市,赛罕区,5993d21bffdcfbdd276e9827,5993d21bffdcfbdd276e9827,{'tag': '美食;中餐厅'， 'navi_location': {'lng': 111.71711947844， 'lat': 40.83726908591}， 'type': 'cater'， 'detail_url': 'http://api.map.baidu.com/place/detail?uid=5993d21bffdcfbdd276e9827&output=html&source=placeapi_v2'， 'price': '98.0'， 'overall_rating': '4.1'， 'comment_num': '116'， 'children': []}
鱼小渝荔枝烤鱼(万达店),新华东街26-29,111.741251,40.841166,内蒙古自治区,呼和浩特市,赛罕区,a18492ac529a6faaee74f833,a18492ac529a6faaee74f833,{'tag': '美食;中餐厅'， 'type': 'cater'， 'detail_url': 'http://api.map.baidu.com/place/detail?uid=a18492ac529a6faaee74f833&output=html&source=placeapi_v2'， 'price': '88.0'， 'overall_rating': '4.3'， 'comment_num': '63'， 'children': []}
必胜客(呼和浩特万达餐厅),呼和浩特市赛罕区新华东街万达广场1-2层,111.739373,40.841773,内蒙古自治区,呼和浩特市,赛罕区,36129eba0bd35363cc06a462,36129eba0bd35363cc06a462,{'tag': '美食;外国餐厅'， 'indoor_floor': 'F1'， 'type': 'cater'， 'detail_url': 'http://api.map.baidu.com/place/detail?uid=36129eba0bd35363cc06a462&output=html&source=placeapi_v2'， 'price': '66.0'， 'overall_rating': '4.3'， 'comment_num': '59'， 'children': []}
乌兰恰特美食城,东二环路乌兰恰特电影城2层,111.745725,40.846071,内蒙古自治区,呼和浩特市,新城区,cb6eca9a9fd3584117948e58,cb6eca9a9fd3584117948e58,{'tag': '美食;中餐厅'， 'type': 'cater'， 'detail_url': 'http://api.map.baidu.com/place/detail?uid=cb6eca9a9fd3584117948e58&output=html&source=placeapi_v2'， 'price': '36.0'， 'overall_rating': '4.4'， 'comment_num': '48'， 'children': []}
LAMAMA无国界餐厅(万达店),万达广场一期五号楼农业银行旁,111.739477,40.839618,内蒙古自治区,呼和浩特市,赛罕区,636486561042fc54b120a878,636486561042fc54b120a878,{'tag': '美食;中餐厅'， 'navi_location': {'lng': 111.73933694499， 'lat': 40.8396451801}， 'type': 'cater'， 'detail_url': 'http://api.map.baidu.com/place/detail?uid=636486561042fc54b120a878&output=html&source=placeapi_v2'， 'price': '127.0'， 'overall_rating': '4.7'， 'comment_num': '123'， 'children': []}
好利来(长乐宫店),新华东街与东影北路交汇口西50米路北(长乐宫对面聚合广场一楼),111.714351,40.837387,内蒙古自治区,呼和浩特市,新城区,34e48508c17513e2d8d8910c,34e48508c17513e2d8d8910c,{'tag': '美食;蛋糕甜品店'， 'navi_location': {'lng': 111.7142613371， 'lat': 40.837175092157}， 'type': 'cater'， 'detail_url': 'http://api.map.baidu.com/place/detail?uid=34e48508c17513e2d8d8910c&output=html&source=placeapi_v2'， 'price': '31.0'， 'overall_rating': '4.3'， 'comment_num': '43'， 'children': []}
呷哺呷哺(喜悦汇店),新城区呼和浩特新城区兴安北路众和商务中心3037号喜悦广场二层,111.699224,40.871028,内蒙古自治区,呼和浩特市,新城区,None,cc63e60cb220071182a00c6a,{'tag': '美食;中餐厅'， 'navi_location': {'lng': 111.69665287017， 'lat': 40.871262892624}， 'type': 'cater'， 'detail_url': 'http://api.map.baidu.com/place/detail?uid=cc63e60cb220071182a00c6a&output=html&source=placeapi_v2'， 'price': '56.0'， 'overall_rating': '4.6'， 'comment_num': '62'， 'children': []}
不老神鸡(团结小区店),迎新中路5号,111.73035,40.841241,内蒙古自治区,呼和浩特市,新城区,8ab0dfc4b2fdf517d8eced55,8ab0dfc4b2fdf517d8eced55,{'tag': '美食;中餐厅'， 'type': 'cater'， 'detail_url': 'http://api.map.baidu.com/place/detail?uid=8ab0dfc4b2fdf517d8eced55&output=html&source=placeapi_v2'， 'price': '24.0'， 'overall_rating': '4.6'， 'comment_num': '113'， 'children': []}
福人居肥牛城(如意店),呼和浩特市赛罕区如意路与双拥街交叉路口往南约100米(如意住宅小区),111.752225,40.848568,内蒙古自治区,呼和浩特市,赛罕区,36216f2dde00cf163904b1a5,36216f2dde00cf163904b1a5,{'tag': '美食;中餐厅'， 'navi_location': {'lng': 111.75249339927， 'lat': 40.848615026631}， 'type': 'cater'， 'detail_url': 'http://api.map.baidu.com/place/detail?uid=36216f2dde00cf163904b1a5&output=html&source=placeapi_v2'， 'price': '74.0'， 'overall_rating': '4.4'， 'comment_num': '40'， 'children': []}
意林(会展店),内蒙古自治区呼和浩特市赛罕区四纬路2号附近,111.755891,40.834781,内蒙古自治区,呼和浩特市,赛罕区,8f5365606e7cec39d2f49ed3,8f5365606e7cec39d2f49ed3,{'tag': '美食;蛋糕甜品店'， 'navi_location': {'lng': 111.75589677701， 'lat': 40.834681670065}， 'type': 'cater'， 'detail_url': 'http://api.map.baidu.com/place/detail?uid=8f5365606e7cec39d2f49ed3&output=html&source=placeapi_v2'， 'price': '21.0'， 'overall_rating': '4.4'， 'comment_num': '17'， 'children': []}
延边烧烤(展览馆东路店),内蒙古自治区呼和浩特市赛罕区展览馆东路36号,111.729338,40.833868,内蒙古自治区,呼和浩特市,赛罕区,19bce557ad7289b3deee8bf7,19bce557ad7289b3deee8bf7,{'tag': '美食;中餐厅'， 'type': 'cater'， 'detail_url': 'http://api.map.baidu.com/place/detail?uid=19bce557ad7289b3deee8bf7&output=html&source=placeapi_v2'， 'price': '30.0'， 'overall_rating': '4.5'， 'comment_num': '41'， 'children': []}
香川日本料理,内蒙古自治区呼和浩特市赛罕区如意开发区如意南路锦颐优选酒店楼下,111.757756,40.832556,内蒙古自治区,呼和浩特市,赛罕区,None,820aba2c8038d077b1077da2,{'tag': '美食;外国餐厅'， 'type': 'cater'， 'detail_url': 'http://api.map.baidu.com/place/detail?uid=820aba2c8038d077b1077da2&output=html&source=placeapi_v2'， 'price': '165.0'， 'overall_rating': '4.7'， 'comment_num': '122'， 'children': []}
九田家自然原味烤肉(摩尔城店),赛罕区新华东街摩尔城A座十楼西南角,111.717154,40.836984,内蒙古自治区,呼和浩特市,赛罕区,None,0707a6cbc0cc6136931fc9ac,{'tag': '美食;中餐厅'， 'type': 'cater'， 'detail_url': 'http://api.map.baidu.com/place/detail?uid=0707a6cbc0cc6136931fc9ac&output=html&source=placeapi_v2'， 'price': '101.0'， 'overall_rating': '4.1'， 'comment_num': '62'， 'children': []}
大铁锅炖鱼村,呼和浩特市赛罕区如意小区东门28号,111.751822,40.849289,内蒙古自治区,呼和浩特市,赛罕区,74c933fbe629d6239e82ea36,74c933fbe629d6239e82ea36,{'tag': '美食;中餐厅'， 'type': 'cater'， 'detail_url': 'http://api.map.baidu.com/place/detail?uid=74c933fbe629d6239e82ea36&output=html&source=placeapi_v2'， 'price': '39.0'， 'overall_rating': '4.5'， 'comment_num': '37'， 'children': []}
三江源活鱼现烤(摩尔城店),新华东街62号维多利摩尔城A座L8层,111.716672,40.836687,内蒙古自治区,呼和浩特市,赛罕区,493ddb599cf852a6095cb3fc,493ddb599cf852a6095cb3fc,{'tag': '美食;中餐厅'， 'navi_location': {'lng': 111.71711947844， 'lat': 40.83726908591}， 'type': 'cater'， 'detail_url': 'http://api.map.baidu.com/place/detail?uid=493ddb599cf852a6095cb3fc&output=html&source=placeapi_v2'， 'price': '78.0'， 'overall_rating': '4.4'， 'comment_num': '109'， 'children': []}
麦当劳(摩尔城餐厅),内蒙古自治区呼和浩特市赛罕区新华东街62号维多利摩尔城1层,111.716591,40.836371,内蒙古自治区,呼和浩特市,赛罕区,98df3a6337d9d38cb6f42f2d,98df3a6337d9d38cb6f42f2d,{'tag': '美食;小吃快餐店'， 'navi_location': {'lng': 111.7170177642， 'lat': 40.837621237085}， 'type': 'cater'， 'detail_url': 'http://api.map.baidu.com/place/detail?uid=98df3a6337d9d38cb6f42f2d&output=html&source=placeapi_v2'， 'price': '34.0'， 'overall_rating': '4.8'， 'comment_num': '118'， 'children': []}
不老神鸡(丽苑店),内蒙古自治区呼和浩特市新城区丽苑31号楼,111.703753,40.853019,内蒙古自治区,呼和浩特市,新城区,f633606a3a3a5b4d0b69d9f4,f633606a3a3a5b4d0b69d9f4,{'tag': '美食;中餐厅'， 'type': 'cater'， 'detail_url': 'http://api.map.baidu.com/place/detail?uid=f633606a3a3a5b4d0b69d9f4&output=html&source=placeapi_v2'， 'price': '31.0'， 'overall_rating': '4.4'， 'comment_num': '34'， 'children': []}
川人百味(万达影城店),呼和浩特市赛罕区新华东街26号呼和浩特万达广场F3,111.741892,40.841668,内蒙古自治区,呼和浩特市,赛罕区,bff8fa7d91717db9c8213d63,bff8fa7d91717db9c8213d63,{'tag': '美食;中餐厅'， 'navi_location': {'lng': 111.74306874526， 'lat': 40.842826396493}， 'indoor_floor': 'F3'， 'type': 'cater'， 'detail_url': 'http://api.map.baidu.com/place/detail?uid=bff8fa7d91717db9c8213d63&output=html&source=placeapi_v2'， 'price': '66.0'， 'overall_rating': '4.6'， 'comment_num': '200'， 'children': []}
德克士(呼市摩尔城餐厅),新华大街与东影南路交汇处维多利摩尔城C座1层,111.716047,40.835698,内蒙古自治区,呼和浩特市,赛罕区,e0e06a5bab3e5ac54151c02c,e0e06a5bab3e5ac54151c02c,{'tag': '美食;小吃快餐店'， 'navi_location': {'lng': 111.71620637301， 'lat': 40.835976239051}， 'type': 'cater'， 'detail_url': 'http://api.map.baidu.com/place/detail?uid=e0e06a5bab3e5ac54151c02c&output=html&source=placeapi_v2'， 'price': '26.0'， 'overall_rating': '4.9'， 'comment_num': '55'， 'children': []}
尚吾家蒜瓣鱼(摩尔城店),新华东街摩尔城A座8楼0805号商铺,111.716811,40.837276,内蒙古自治区,呼和浩特市,赛罕区,c6a42d0b660602a73686f42a,c6a42d0b660602a73686f42a,{'tag': '美食;中餐厅'， 'type': 'cater'， 'detail_url': 'http://api.map.baidu.com/place/detail?uid=c6a42d0b660602a73686f42a&output=html&source=placeapi_v2'， 'price': '58.0'， 'overall_rating': '4.0'， 'comment_num': '124'， 'children': []}
麦当劳(呼和浩特火车东站餐厅),南店村呼和浩特火车东站一层,111.771854,40.855406,内蒙古自治区,呼和浩特市,赛罕区,5a274e693083147414948e99,5a274e693083147414948e99,{'tag': '美食;小吃快餐店'， 'navi_location': {'lng': 111.77176172457， 'lat': 40.855091391722}， 'type': 'cater'， 'detail_url': 'http://api.map.baidu.com/place/detail?uid=5a274e693083147414948e99&output=html&source=placeapi_v2'， 'price': '32.0'， 'overall_rating': '4.8'， 'comment_num': '86'， 'children': []}
苏氏牛肉面(长乐宫店),内蒙古自治区呼和浩特市赛罕区新华东街中银城市广场旁,111.720137,40.837831,内蒙古自治区,呼和浩特市,赛罕区,86c732f903a0a101260bd099,86c732f903a0a101260bd099,{'tag': '美食;小吃快餐店'， 'navi_location': {'lng': 111.72011978111， 'lat': 40.838053982953}， 'type': 'cater'， 'detail_url': 'http://api.map.baidu.com/place/detail?uid=86c732f903a0a101260bd099&output=html&source=placeapi_v2'， 'price': '24.0'， 'overall_rating': '3.6'， 'comment_num': '7'， 'children': []}
麦当劳(新华东街餐厅),呼和浩特市赛罕区新华东街26号呼和浩特万达广场F1,111.739636,40.841844,内蒙古自治区,呼和浩特市,赛罕区,2b25a97971e84861c72ba151,2b25a97971e84861c72ba151,{'tag': '美食;小吃快餐店'， 'indoor_floor': 'F1'， 'type': 'cater'， 'detail_url': 'http://api.map.baidu.com/place/detail?uid=2b25a97971e84861c72ba151&output=html&source=placeapi_v2'， 'price': '32.0'， 'overall_rating': '4.9'， 'comment_num': '179'， 'children': []}
欢乐牧场(摩尔城店),呼和浩特市赛罕区新华东街维多利·摩尔城8层,111.716619,40.836849,内蒙古自治区,呼和浩特市,赛罕区,aa67a4e0f954d05490114cf9,aa67a4e0f954d05490114cf9,{'tag': '美食;其他'， 'navi_location': {'lng': 111.71539320204， 'lat': 40.836649732207}， 'type': 'cater'， 'detail_url': 'http://api.map.baidu.com/place/detail?uid=aa67a4e0f954d05490114cf9&output=html&source=placeapi_v2'， 'price': '64.0'， 'overall_rating': '4.0'， 'comment_num': '160'， 'children': []}
野葡萄时尚自助餐厅(万达广场店),新华东街万达广场3楼,111.740447,40.842515,内蒙古自治区,呼和浩特市,赛罕区,45a1af4cbaf001d81ce9997c,45a1af4cbaf001d81ce9997c,{'tag': '美食;外国餐厅'， 'type': 'cater'， 'detail_url': 'http://api.map.baidu.com/place/detail?uid=45a1af4cbaf001d81ce9997c&output=html&source=placeapi_v2'， 'price': '62.0'， 'overall_rating': '3.2'， 'comment_num': '86'， 'children': []}
杨翔豆皮涮牛肚(维多利摩尔城店),新华东街62号维多利摩尔城A座L10层,111.717091,40.837033,内蒙古自治区,呼和浩特市,赛罕区,None,f50f5933251e8f7abfa822f0,{'tag': '美食;中餐厅'， 'type': 'cater'， 'detail_url': 'http://api.map.baidu.com/place/detail?uid=f50f5933251e8f7abfa822f0&output=html&source=placeapi_v2'， 'price': '65.0'， 'overall_rating': '4.4'， 'comment_num': '200'， 'children': []}
乡土居(万达影城店),呼和浩特市赛罕区新华东街26号呼和浩特万达广场F3,111.740521,40.841666,内蒙古自治区,呼和浩特市,赛罕区,cf3694d85ddb4600bda24047,cf3694d85ddb4600bda24047,{'tag': '美食;中餐厅'， 'navi_location': {'lng': 111.74306874526， 'lat': 40.842826396493}， 'indoor_floor': 'F3'， 'type': 'cater'， 'detail_url': 'http://api.map.baidu.com/place/detail?uid=cf3694d85ddb4600bda24047&output=html&source=placeapi_v2'， 'price': '56.0'， 'overall_rating': '4.0'， 'comment_num': '65'， 'children': []}
九田家果木烤肉(东影南路店),内蒙古自治区呼和浩特市赛罕区东影南路嬉水广场北200米巨华朗域对面,111.716196,40.833553,内蒙古自治区,呼和浩特市,赛罕区,eda46b575e5f7c8d593ac827,eda46b575e5f7c8d593ac827,{'tag': '美食;外国餐厅'， 'navi_location': {'lng': 111.71645240305， 'lat': 40.833644357938}， 'type': 'cater'， 'detail_url': 'http://api.map.baidu.com/place/detail?uid=eda46b575e5f7c8d593ac827&output=html&source=placeapi_v2'， 'price': '119.0'， 'overall_rating': '3.8'， 'comment_num': '66'， 'children': []}
拿渡麻辣香锅(摩尔城店),呼和浩特赛罕区维多利摩尔城A座7楼,111.716961,40.837281,内蒙古自治区,呼和浩特市,赛罕区,ab80f795b4366bd443afe6cf,ab80f795b4366bd443afe6cf,{'tag': '美食;中餐厅'， 'type': 'cater'， 'detail_url': 'http://api.map.baidu.com/place/detail?uid=ab80f795b4366bd443afe6cf&output=html&source=placeapi_v2'， 'price': '61.0'， 'overall_rating': '4.2'， 'comment_num': '120'， 'children': []}
叁加壹串串里(万达总店),万达广场A区4段107号,111.740357,40.840737,内蒙古自治区,呼和浩特市,赛罕区,c26b64f8d9dc89dd24e0a048,c26b64f8d9dc89dd24e0a048,{'tag': '美食;中餐厅'， 'type': 'cater'， 'detail_url': 'http://api.map.baidu.com/place/detail?uid=c26b64f8d9dc89dd24e0a048&output=html&source=placeapi_v2'， 'price': '44.0'， 'overall_rating': '4.1'， 'comment_num': '63'， 'children': []}
听说炭烧蛙,新华东街26号万达广场3F层308-309,111.740491,40.841583,内蒙古自治区,呼和浩特市,赛罕区,None,62c9f909cb44529297ec84cf,{'tag': '美食;中餐厅'， 'navi_location': {'lng': 111.74091981343， 'lat': 40.842713708769}， 'type': 'cater'， 'detail_url': 'http://api.map.baidu.com/place/detail?uid=62c9f909cb44529297ec84cf&output=html&source=placeapi_v2'， 'price': '76.0'， 'overall_rating': '3.7'， 'comment_num': '73'， 'children': []}
谷食粮铁锅居(维多利摩尔城A座),新华东街摩尔城A座7楼,111.716413,40.836659,内蒙古自治区,呼和浩特市,赛罕区,3bd8e5959984b6bf58f6bee9,3bd8e5959984b6bf58f6bee9,{'tag': '美食;中餐厅'， 'navi_location': {'lng': 111.71711947844， 'lat': 40.83726908591}， 'type': 'cater'， 'detail_url': 'http://api.map.baidu.com/place/detail?uid=3bd8e5959984b6bf58f6bee9&output=html&source=placeapi_v2'， 'price': '65.0'， 'overall_rating': '4.1'， 'comment_num': '62'， 'children': []}
欢悦螺蛳粉店,新华东街26号万达广场A区1段商业1-2层108号,111.738857,40.840743,内蒙古自治区,呼和浩特市,赛罕区,None,3f77ddf3d187afd949fd3f84,{'tag': '美食;小吃快餐店'， 'type': 'cater'， 'detail_url': 'http://api.map.baidu.com/place/detail?uid=3f77ddf3d187afd949fd3f84&output=html&source=placeapi_v2'， 'price': '26.0'， 'overall_rating': '4.4'， 'image_num': '1'， 'comment_num': '90'， 'children': []}
蜀江烤鱼(万达影城店),呼和浩特市赛罕区新华东街26号呼和浩特万达广场F3,111.74084,40.841436,内蒙古自治区,呼和浩特市,赛罕区,9be681215509f700bd484263,9be681215509f700bd484263,{'tag': '美食;中餐厅'， 'navi_location': {'lng': 111.74042574271， 'lat': 40.842619552785}， 'indoor_floor': 'F3'， 'type': 'cater'， 'detail_url': 'http://api.map.baidu.com/place/detail?uid=9be681215509f700bd484263&output=html&source=placeapi_v2'， 'price': '92.0'， 'overall_rating': '3.7'， 'comment_num': '109'， 'children': []}
聚鑫铁帽烤肉,内蒙古自治区呼和浩特市赛罕区讨号板商业街中段40号,111.762469,40.830721,内蒙古自治区,呼和浩特市,赛罕区,None,63b5f2378b0e89e37cc876b0,{'tag': '美食;其他'， 'type': 'cater'， 'detail_url': 'http://api.map.baidu.com/place/detail?uid=63b5f2378b0e89e37cc876b0&output=html&source=placeapi_v2'， 'price': '59.0'， 'overall_rating': '4.7'， 'comment_num': '98'， 'children': []}
戈壁牛羊时尚爆锅牛肉(摩尔城店),赛罕区维多利摩尔城A座10楼盛唐祥源对面,111.716961,40.837283,内蒙古自治区,呼和浩特市,赛罕区,663182fb9b182ca983a00c5d,663182fb9b182ca983a00c5d,{'tag': '美食;中餐厅'， 'type': 'cater'， 'detail_url': 'http://api.map.baidu.com/place/detail?uid=663182fb9b182ca983a00c5d&output=html&source=placeapi_v2'， 'price': '71.0'， 'overall_rating': '4.7'， 'comment_num': '200'， 'children': []}
龙门花甲时尚海鲜(万达店),内蒙古自治区呼和浩特市赛罕区新华东街26-198,111.740628,40.840753,内蒙古自治区,呼和浩特市,赛罕区,None,30396c61707d030ee8e582a5,{'tag': '美食;中餐厅'， 'type': 'cater'， 'detail_url': 'http://api.map.baidu.com/place/detail?uid=30396c61707d030ee8e582a5&output=html&source=placeapi_v2'， 'price': '20.0'， 'overall_rating': '4.5'， 'comment_num': '36'， 'children': []}
河套铁锅焖面烩菜,内蒙古自治区呼和浩特市赛罕区丰州路与新华东街电视广播大学住宅小区西门对面,111.734349,40.839891,内蒙古自治区,呼和浩特市,赛罕区,5ee12b507951443b8a36ee72,5ee12b507951443b8a36ee72,{'tag': '美食;中餐厅'， 'navi_location': {'lng': 111.73482786209， 'lat': 40.838548922706}， 'type': 'cater'， 'detail_url': 'http://api.map.baidu.com/place/detail?uid=5ee12b507951443b8a36ee72&output=html&source=placeapi_v2'， 'price': '20.0'， 'overall_rating': '4.0'， 'comment_num': '80'， 'children': []}
黄记煌三汁焖锅(万达广场店),敕勒川路街道新华东街26-37号(万达广场三楼),111.739969,40.841512,内蒙古自治区,呼和浩特市,赛罕区,a6f8ae5a6967ce21b020a8c6,a6f8ae5a6967ce21b020a8c6,{'tag': '美食;中餐厅'， 'type': 'cater'， 'detail_url': 'http://api.map.baidu.com/place/detail?uid=a6f8ae5a6967ce21b020a8c6&output=html&source=placeapi_v2'， 'price': '75.0'， 'overall_rating': '4.1'， 'comment_num': '172'， 'children': []}
一间美式厨房,内蒙古自治区呼和浩特市赛罕区东影南路1号,111.716104,40.834145,内蒙古自治区,呼和浩特市,赛罕区,None,2c3eeb0ff5513aabeee4a514,{'tag': '美食;外国餐厅'， 'type': 'cater'， 'detail_url': 'http://api.map.baidu.com/place/detail?uid=2c3eeb0ff5513aabeee4a514&output=html&source=placeapi_v2'， 'price': '118.0'， 'overall_rating': '4.1'， 'comment_num': '95'， 'children': []}
万立国际酒店(兴安南路店)(餐饮部),内蒙古自治区呼和浩特市新城区兴安南路5号维多利国际广场南边万立国际酒店内,111.706716,40.832728,内蒙古自治区,呼和浩特市,新城区,084e378701af65c993114c69,084e378701af65c993114c69,{'tag': '美食;其他'， 'navi_location': {'lng': 111.70704794385， 'lat': 40.832685517316}， 'type': 'cater'， 'detail_url': 'http://api.map.baidu.com/place/detail?uid=084e378701af65c993114c69&output=html&source=placeapi_v2'， 'price': '177.0'， 'overall_rating': '4.5'， 'comment_num': '102'， 'children': []}
玛喜达韩国年糕料理(摩尔城店),新华东街62号维多利摩尔城A座L7层,111.716376,40.836792,内蒙古自治区,呼和浩特市,赛罕区,be3251ee6817b8d604026f35,be3251ee6817b8d604026f35,{'tag': '美食;外国餐厅'， 'navi_location': {'lng': 111.71711947844， 'lat': 40.83726908591}， 'type': 'cater'， 'detail_url': 'http://api.map.baidu.com/place/detail?uid=be3251ee6817b8d604026f35&output=html&source=placeapi_v2'， 'price': '53.0'， 'overall_rating': '4.1'， 'comment_num': '200'， 'children': []}
必胜客(长乐宫餐厅),呼和浩特市赛罕区东影南路358号长乐宫购物中心2层,111.714716,40.836369,内蒙古自治区,呼和浩特市,赛罕区,373cf757ae4f66774354d71b,373cf757ae4f66774354d71b,{'tag': '美食;外国餐厅'， 'navi_location': {'lng': 111.71429913959， 'lat': 40.83673270811}， 'indoor_floor': 'F1'， 'type': 'cater'， 'detail_url': 'http://api.map.baidu.com/place/detail?uid=373cf757ae4f66774354d71b&output=html&source=placeapi_v2'， 'price': '97.0'， 'overall_rating': '4.8'， 'comment_num': '70'， 'children': []}
阿尔卑斯比萨牛排自助(喜悦汇店),兴安北路维多利喜悦广场三层01号,111.698125,40.870667,内蒙古自治区,呼和浩特市,新城区,None,ef906b3fc3178f36b4f42ff4,{'tag': '美食;外国餐厅'， 'type': 'cater'， 'detail_url': 'http://api.map.baidu.com/place/detail?uid=ef906b3fc3178f36b4f42ff4&output=html&source=placeapi_v2'， 'price': '64.0'， 'overall_rating': '4.0'， 'comment_num': '132'， 'children': []}
比格比萨(摩尔城店),新华东街62号维多利摩尔城A座9层,111.7156,40.837183,内蒙古自治区,呼和浩特市,赛罕区,89d3998deaa81a980aa8d416,89d3998deaa81a980aa8d416,{'tag': '美食;外国餐厅'， 'navi_location': {'lng': 111.71530337149， 'lat': 40.836881709845}， 'type': 'cater'， 'detail_url': 'http://api.map.baidu.com/place/detail?uid=89d3998deaa81a980aa8d416&output=html&source=placeapi_v2'， 'price': '51.0'， 'overall_rating': '4.4'， 'comment_num': '123'， 'children': []}
韩多福炸鸡烤肉韩餐,新华东街62号维多利摩尔城A座L8层,111.716402,40.836464,内蒙古自治区,呼和浩特市,赛罕区,None,d5b297854e26218daeb22aaa,{'tag': '美食;外国餐厅'， 'type': 'cater'， 'detail_url': 'http://api.map.baidu.com/place/detail?uid=d5b297854e26218daeb22aaa&output=html&source=placeapi_v2'， 'price': '73.0'， 'overall_rating': '3.9'， 'comment_num': '110'， 'children': []}
莫萨里拉比萨(万达店),内蒙古自治区呼和浩特市赛罕区万达步行街26-222号,111.741264,40.840307,内蒙古自治区,呼和浩特市,赛罕区,00c16b814cbcb58f8836eead,00c16b814cbcb58f8836eead,{'tag': '美食;外国餐厅'， 'type': 'cater'， 'detail_url': 'http://api.map.baidu.com/place/detail?uid=00c16b814cbcb58f8836eead&output=html&source=placeapi_v2'， 'price': '69.0'， 'overall_rating': '4.3'， 'comment_num': '41'， 'children': []}
唐食语粥(摩尔城店),维多利摩尔城A座7楼A0713~A0714号,111.716248,40.837067,内蒙古自治区,呼和浩特市,赛罕区,4b135a0f5d034a094c3a5970,4b135a0f5d034a094c3a5970,{'tag': '美食;小吃快餐店'， 'navi_location': {'lng': 111.7168215078， 'lat': 40.837188737814}， 'type': 'cater'， 'detail_url': 'http://api.map.baidu.com/place/detail?uid=4b135a0f5d034a094c3a5970&output=html&source=placeapi_v2'， 'price': '46.0'， 'overall_rating': '4.7'， 'comment_num': '41'， 'children': []}
味千拉面(万达广场店),呼和浩特市赛罕区新华东街26号呼和浩特万达广场F3,111.742437,40.842418,内蒙古自治区,呼和浩特市,赛罕区,7388dffd70750bf2d3ff2353,7388dffd70750bf2d3ff2353,{'tag': '美食;小吃快餐店'， 'indoor_floor': 'F2'， 'type': 'cater'， 'detail_url': 'http://api.map.baidu.com/place/detail?uid=7388dffd70750bf2d3ff2353&output=html&source=placeapi_v2'， 'price': '54.0'， 'overall_rating': '4.6'， 'comment_num': '62'， 'children': []}
风林火山居酒屋(奈伦国际店),新华东街奈伦国际D座1号,111.718736,40.839986,内蒙古自治区,呼和浩特市,新城区,cc6cd6c3154758371fe999d5,cc6cd6c3154758371fe999d5,{'tag': '美食;外国餐厅'， 'type': 'cater'， 'detail_url': 'http://api.map.baidu.com/place/detail?uid=cc6cd6c3154758371fe999d5&output=html&source=placeapi_v2'， 'price': '84.0'， 'overall_rating': '4.4'， 'comment_num': '69'， 'children': []}
阿三生煎(摩尔城店),赛罕区新华大街摩尔城A座10楼,111.717026,40.837117,内蒙古自治区,呼和浩特市,赛罕区,1fdcbbac8eead3f328b97c2c,1fdcbbac8eead3f328b97c2c,{'tag': '美食;小吃快餐店'， 'type': 'cater'， 'detail_url': 'http://api.map.baidu.com/place/detail?uid=1fdcbbac8eead3f328b97c2c&output=html&source=placeapi_v2'， 'price': '28.0'， 'overall_rating': '4.3'， 'comment_num': '42'， 'children': []}
柠檬泰东南亚美食(维多利摩尔城A座),新华东街62号维多利摩尔城A座L7层,111.716966,40.837138,内蒙古自治区,呼和浩特市,赛罕区,None,fc0262ddb983ed473517dc88,{'tag': '美食;外国餐厅'， 'type': 'cater'， 'detail_url': 'http://api.map.baidu.com/place/detail?uid=fc0262ddb983ed473517dc88&output=html&source=placeapi_v2'， 'price': '85.0'， 'overall_rating': '4.5'， 'comment_num': '165'， 'children': []}
洛可可生日蛋糕坊(摩尔城店),东影南路伊泰北巷阳光花园4号楼411底商,111.713184,40.833899,内蒙古自治区,呼和浩特市,赛罕区,None,77e6127b338565fcadee7a57,{'tag': '美食;蛋糕甜品店'， 'type': 'cater'， 'detail_url': 'http://api.map.baidu.com/place/detail?uid=77e6127b338565fcadee7a57&output=html&source=placeapi_v2'， 'price': '114.0'， 'overall_rating': '4.6'， 'comment_num': '59'， 'children': []}
意林(长乐宫店),内蒙古自治区呼和浩特市新城区新华东街95号(东影北街南口),111.714548,40.837416,内蒙古自治区,呼和浩特市,新城区,81d6a509a188153e6e20b969,81d6a509a188153e6e20b969,{'tag': '美食;蛋糕甜品店'， 'type': 'cater'， 'detail_url': 'http://api.map.baidu.com/place/detail?uid=81d6a509a188153e6e20b969&output=html&source=placeapi_v2'， 'price': '21.0'， 'overall_rating': '4.3'， 'comment_num': '45'， 'children': []}
美妍西饼(东影南路店),内蒙古自治区呼和浩特市赛罕区东影南路嬉水超市东侧3号底店,111.716796,40.832173,内蒙古自治区,呼和浩特市,赛罕区,3f826ed3d7aeae46d1f49e0c,3f826ed3d7aeae46d1f49e0c,{'tag': '美食;蛋糕甜品店'， 'type': 'cater'， 'detail_url': 'http://api.map.baidu.com/place/detail?uid=3f826ed3d7aeae46d1f49e0c&output=html&source=placeapi_v2'， 'price': '16.0'， 'overall_rating': '4.7'， 'comment_num': '141'， 'children': []}
鲜果时间(万达店),内蒙古自治区呼和浩特市赛罕区新华东街26号呼和浩特万达广场2层,111.741287,40.841895,内蒙古自治区,呼和浩特市,赛罕区,89037f63c7cd51364e554794,89037f63c7cd51364e554794,{'tag': '美食;蛋糕甜品店'， 'navi_location': {'lng': 111.74042574271， 'lat': 40.842619552785}， 'type': 'cater'， 'detail_url': 'http://api.map.baidu.com/place/detail?uid=89037f63c7cd51364e554794&output=html&source=placeapi_v2'， 'price': '12.0'， 'overall_rating': '4.7'， 'comment_num': '71'， 'children': []}
CITY CAT下午茶,内蒙古自治区呼和浩特市新城区兴安北路82号,111.703913,40.838197,内蒙古自治区,呼和浩特市,新城区,None,21c3c59241b96a2180a00ced,{'tag': '美食;蛋糕甜品店'， 'navi_location': {'lng': 111.70396585406， 'lat': 40.837993948015}， 'type': 'cater'， 'detail_url': 'http://api.map.baidu.com/place/detail?uid=21c3c59241b96a2180a00ced&output=html&source=placeapi_v2'， 'price': '84.0'， 'overall_rating': '4.5'， 'comment_num': '78'， 'children': []}
绝味鸭脖(万达店),呼和浩特市赛罕区新华东街26-259号,111.741898,40.839737,内蒙古自治区,呼和浩特市,赛罕区,11b2ffd72652e9dd2fb908b8,11b2ffd72652e9dd2fb908b8,{'tag': '美食;小吃快餐店'， 'navi_location': {'lng': 111.74159228224， 'lat': 40.839641498687}， 'type': 'cater'， 'detail_url': 'http://api.map.baidu.com/place/detail?uid=11b2ffd72652e9dd2fb908b8&output=html&source=placeapi_v2'， 'price': '28.0'， 'overall_rating': '4.5'， 'comment_num': '36'， 'children': []}
汤姆家的优质牛排西餐(摩尔城店),赛罕区新华东街摩尔城A座8楼,111.716921,40.837031,内蒙古自治区,呼和浩特市,赛罕区,None,b55282a7bd0e2c1ab9df8fb9,{'tag': '美食;外国餐厅'， 'type': 'cater'， 'detail_url': 'http://api.map.baidu.com/place/detail?uid=b55282a7bd0e2c1ab9df8fb9&output=html&source=placeapi_v2'， 'price': '79.0'， 'overall_rating': '4.3'， 'comment_num': '83'， 'children': []}
快乐柠檬(摩尔城店),新华东街维多利摩尔城4楼33号,111.717091,40.837033,内蒙古自治区,呼和浩特市,赛罕区,ea46c262740fae169d09f7fc,ea46c262740fae169d09f7fc,{'tag': '美食;蛋糕甜品店'， 'type': 'cater'， 'detail_url': 'http://api.map.baidu.com/place/detail?uid=ea46c262740fae169d09f7fc&output=html&source=placeapi_v2'， 'price': '10.0'， 'overall_rating': '4.6'， 'comment_num': '191'， 'children': []}
星巴克(新华东街店),呼和浩特市新华东街62号维多利摩尔城A座F1层,111.716981,40.837091,内蒙古自治区,呼和浩特市,赛罕区,561e949e8322ef69047ce89d,561e949e8322ef69047ce89d,{'tag': '美食;咖啡厅'， 'navi_location': {'lng': 111.71693204893， 'lat': 40.83723152947}， 'type': 'cater'， 'detail_url': 'http://api.map.baidu.com/place/detail?uid=561e949e8322ef69047ce89d&output=html&source=placeapi_v2'， 'price': '58.0'， 'overall_rating': '4.2'， 'comment_num': '43'， 'children': []}
时光简影咖啡馆(光华西街店),呼和浩特市新城区光华街与兴安北路交叉路口西侧(公路工程局家属院北区),111.70403,40.838158,内蒙古自治区,呼和浩特市,新城区,fd13a3f2e48f94e3b1077d5a,fd13a3f2e48f94e3b1077d5a,{'tag': '美食;咖啡厅'， 'type': 'cater'， 'detail_url': 'http://api.map.baidu.com/place/detail?uid=fd13a3f2e48f94e3b1077d5a&output=html&source=placeapi_v2'， 'price': '42.0'， 'overall_rating': '4.8'， 'comment_num': '45'， 'children': []}
名猫主题咖啡馆,万达广场B区3号楼1单元(易贝乐英语住宅门进去左手边),111.741946,40.840993,内蒙古自治区,呼和浩特市,赛罕区,41d39bda0693f16602294f89,41d39bda0693f16602294f89,{'tag': '美食;咖啡厅'， 'type': 'cater'， 'detail_url': 'http://api.map.baidu.com/place/detail?uid=41d39bda0693f16602294f89&output=html&source=placeapi_v2'， 'price': '42.0'， 'overall_rating': '4.5'， 'comment_num': '56'， 'children': []}
牛吧·卢德堡,呼和浩特市赛罕区先锋东巷与锦泰巷交叉路口往东南约100米(民族集团嬉水广场),111.717064,40.831416,内蒙古自治区,呼和浩特市,赛罕区,32ec99f65b53b55f7069d3df,32ec99f65b53b55f7069d3df,{'tag': '美食;酒吧'， 'navi_location': {'lng': 111.7172007122， 'lat': 40.831628560114}， 'type': 'cater'， 'detail_url': 'http://api.map.baidu.com/place/detail?uid=32ec99f65b53b55f7069d3df&output=html&source=placeapi_v2'， 'price': '70.0'， 'overall_rating': '4.5'， 'comment_num': '200'， 'children': []}
泰炯音乐酒馆(赛罕店),内蒙古自治区呼和浩特市赛罕区乌兰察布东街46号,111.741246,40.835156,内蒙古自治区,呼和浩特市,赛罕区,None,09256883c0afe8ff54bffff9,{'tag': '美食;酒吧'， 'type': 'cater'， 'detail_url': 'http://api.map.baidu.com/place/detail?uid=09256883c0afe8ff54bffff9&output=html&source=placeapi_v2'， 'price': '126.0'， 'overall_rating': '3.9'， 'comment_num': '8'， 'children': []}
麦当劳(旺角广场店),北京市朝阳区湖光北街9号旺角购物广场(南湖东园西北)1层,116.470218,40.007054,北京市,北京市,朝阳区,1cea15a9b962fadc07fef54a,1cea15a9b962fadc07fef54a,{'tag': '美食;小吃快餐店'， 'navi_location': {'lng': 116.46977031134， 'lat': 40.007433642072}， 'type': 'cater'， 'detail_url': 'http://api.map.baidu.com/place/detail?uid=1cea15a9b962fadc07fef54a&output=html&source=placeapi_v2'， 'price': '31.0'， 'overall_rating': '4.4'， 'comment_num': '173'， 'children': []}
麦当劳甜品站(湖光北街餐厅),北京市朝阳区南湖北路195附近,116.470309,40.007063,北京市,北京市,朝阳区,a4c9fe2e493c835d17948e74,a4c9fe2e493c835d17948e74,{'tag': '美食;小吃快餐店'， 'navi_location': {'lng': 116.47026877676， 'lat': 40.006888894503}， 'type': 'cater'， 'detail_url': 'http://api.map.baidu.com/place/detail?uid=a4c9fe2e493c835d17948e74&output=html&source=placeapi_v2'， 'children': []}
望京韩国城(南湖中园店),北京市朝阳区南湖北路259号附近,116.469174,40.007127,北京市,北京市,朝阳区,None,b0476d1fc843ce1d7bf796da,{'tag': '美食;外国餐厅'， 'type': 'cater'， 'detail_url': 'http://api.map.baidu.com/place/detail?uid=b0476d1fc843ce1d7bf796da&output=html&source=placeapi_v2'， 'image_num': '1'， 'children': []}
京东一布,湖光北街9号旺角购物中心B1楼,116.470137,40.007381,北京市,北京市,朝阳区,None,e142c9b1b74463dd9f09f717,{'tag': '美食;小吃快餐店'， 'type': 'cater'， 'detail_url': 'http://api.map.baidu.com/place/detail?uid=e142c9b1b74463dd9f09f717&output=html&source=placeapi_v2'， 'children': []}
比格比萨(望承公园店),望京西地铁站C口处(湖光中街望承公园北门),116.457883,40.001328,北京市,北京市,朝阳区,e2c734e400e65e4415a190ce,e2c734e400e65e4415a190ce,{'tag': '美食;外国餐厅'， 'navi_location': {'lng': 116.45783577315， 'lat': 40.001529928069}， 'type': 'cater'， 'detail_url': 'http://api.map.baidu.com/place/detail?uid=e2c734e400e65e4415a190ce&output=html&source=placeapi_v2'， 'price': '76.0'， 'overall_rating': '4.4'， 'comment_num': '200'， 'children': []}
美顺园鱼头村(望京店),北京市朝阳区湖光中街与南湖西园南路交叉路口往西南约100米(望承公园北侧),116.458772,40.001425,北京市,北京市,朝阳区,6c7c9795e928757dad31e564,6c7c9795e928757dad31e564,{'tag': '美食;中餐厅'， 'navi_location': {'lng': 116.45874275019， 'lat': 40.001674083305}， 'type': 'cater'， 'detail_url': 'http://api.map.baidu.com/place/detail?uid=6c7c9795e928757dad31e564&output=html&source=placeapi_v2'， 'price': '115.0'， 'overall_rating': '4.2'， 'comment_num': '110'， 'children': []}
中国兰州牛肉拉面(红林盛业·望京店),北京市朝阳区湖光中街,116.457742,40.00132,北京市,北京市,朝阳区,6f4de7a532f316fb1d1d11fe,6f4de7a532f316fb1d1d11fe,{'tag': '美食;小吃快餐店'， 'type': 'cater'， 'detail_url': 'http://api.map.baidu.com/place/detail?uid=6f4de7a532f316fb1d1d11fe&output=html&source=placeapi_v2'， 'price': '34.0'， 'overall_rating': '3.8'， 'comment_num': '80'， 'children': []}
盒乐弁当(望承店),望京南湖西路望承公园北门220号,116.458201,40.001436,北京市,北京市,朝阳区,24d0550846f32fb61288243e,24d0550846f32fb61288243e,{'tag': '美食;小吃快餐店'， 'navi_location': {'lng': 116.45816188991， 'lat': 40.001581648117}， 'type': 'cater'， 'detail_url': 'http://api.map.baidu.com/place/detail?uid=24d0550846f32fb61288243e&output=html&source=placeapi_v2'， 'price': '26.0'， 'overall_rating': '4.8'， 'comment_num': '192'， 'children': []}
味多美(望承公园店),北京市朝阳区湖光中街望承公园北门220号,116.458226,40.001448,北京市,北京市,朝阳区,15a93810acb0b4a414c8f633,15a93810acb0b4a414c8f633,{'tag': '美食;蛋糕甜品店'， 'navi_location': {'lng': 116.45827010483， 'lat': 40.001598810308}， 'type': 'cater'， 'detail_url': 'http://api.map.baidu.com/place/detail?uid=15a93810acb0b4a414c8f633&output=html&source=placeapi_v2'， 'price': '27.0'， 'overall_rating': '4.3'， 'image_num': '53'， 'comment_num': '104'， 'children': []}
张亮麻辣烫(望京店),南湖西园225号楼1层225-3,116.459498,39.999638,北京市,北京市,朝阳区,None,5bbed69572473810fea77836,{'tag': '美食;小吃快餐店'， 'type': 'cater'， 'detail_url': 'http://api.map.baidu.com/place/detail?uid=5bbed69572473810fea77836&output=html&source=placeapi_v2'， 'overall_rating': '4.2'， 'comment_num': '29'， 'children': []}
肥肠鸡小面,南湖西园224号楼-1层221-1,116.458959,39.999676,北京市,北京市,朝阳区,None,0bd949541722267d38221c02,{'tag': '美食;小吃快餐店'， 'type': 'cater'， 'detail_url': 'http://api.map.baidu.com/place/detail?uid=0bd949541722267d38221c02&output=html&source=placeapi_v2'， 'price': '32.0'， 'overall_rating': '4.7'， 'comment_num': '3'， 'children': []}
灸小舍,北京市朝阳区湖光中街与南湖西园南路交叉路口往东北约100米(季景沁园),116.460933,40.002319,北京市,北京市,朝阳区,None,1ebd3e8dfce271636b49f39d,{'tag': '医疗;其他'， 'type': 'hospital'， 'detail_url': 'http://api.map.baidu.com/place/detail?uid=1ebd3e8dfce271636b49f39d&output=html&source=placeapi_v2'， 'image_num': '3'， 'children': []}
